{"type":"FeatureCollection","meta":{"city":"Berlin","station":[13.3694,52.525],"radius_km":45,"wage":{"median":4198,"p25":3136},"net":{"median":2708,"p25":2128},"share":0.3,"flat_m2":60,"stops":{"0":{"flats":430010,"rent_zensus":8.25,"rent_recent":9.29,"rent_asking":14.09,"rent_old_method":15.16,"small_premium":1.021,"nk_cold":1.6,"nk_warm":1.2,"dist_km":3.5,"rent":17.19,"rent_prev":17.08,"personas":{"median":{"net":2708,"cost":1031,"share":0.381,"share_ticket":0.402,"m2":47,"share_prev":0.378,"m2_old":98},"p25":{"net":2128,"cost":1031,"share":0.484,"share_ticket":0.512,"m2":37,"share_prev":0.481,"m2_old":77}}},"10":{"flats":1018487,"rent_zensus":7.5,"rent_recent":9.29,"rent_asking":14.09,"rent_old_method":13.77,"small_premium":1.005,"nk_cold":1.6,"nk_warm":1.2,"dist_km":9.1,"rent":16.96,"rent_prev":15.44,"personas":{"median":{"net":2708,"cost":1018,"share":0.376,"share_ticket":0.397,"m2":48,"share_prev":0.342,"m2_old":108},"p25":{"net":2128,"cost":1018,"share":0.478,"share_ticket":0.505,"m2":38,"share_prev":0.435,"m2_old":85}}},"20":{"flats":258485,"rent_zensus":7.36,"rent_recent":9.17,"rent_asking":13.33,"rent_old_method":12.8,"small_premium":0.99,"nk_cold":1.4,"nk_warm":1.2,"dist_km":18.8,"rent":15.8,"rent_prev":14.07,"personas":{"median":{"net":2708,"cost":948,"share":0.35,"share_ticket":0.371,"m2":51,"share_prev":0.312,"m2_old":110},"p25":{"net":2129,"cost":948,"share":0.445,"share_ticket":0.472,"m2":40,"share_prev":0.397,"m2_old":87}}},"30":{"flats":122640,"rent_zensus":7.17,"rent_recent":8.54,"rent_asking":11.98,"rent_old_method":11.94,"small_premium":0.993,"nk_cold":1.2,"nk_warm":1.2,"dist_km":28.5,"rent":14.3,"rent_prev":13.06,"personas":{"median":{"net":2729,"cost":858,"share":0.314,"share_ticket":0.336,"m2":57,"share_prev":0.287,"m2_old":113},"p25":{"net":2147,"cost":858,"share":0.4,"share_ticket":0.427,"m2":45,"share_prev":0.365,"m2_old":89}}},"40":{"flats":39016,"rent_zensus":6.16,"rent_recent":7.26,"rent_asking":10.19,"rent_old_method":10.09,"small_premium":1.004,"nk_cold":1.2,"nk_warm":1.2,"dist_km":39.6,"rent":12.63,"rent_prev":11.33,"personas":{"median":{"net":2753,"cost":758,"share":0.275,"share_ticket":0.296,"m2":65,"share_prev":0.247,"m2_old":132},"p25":{"net":2168,"cost":758,"share":0.35,"share_ticket":0.376,"m2":52,"share_prev":0.314,"m2_old":104}}}}},"features":[{"type":"Feature","properties":{"ags":"11000000","name":"Berlin","ewz":3782202,"dist_km":2,"city":true,"warm_m2":17.02,"own_value":true,"m2_median":48,"share_median":0.377,"m2_p25":38,"share_p25":0.48},"geometry":{"type":"Polygon","coordinates":[[[13.4801,52.6746],[13.4508,52.6627],[13.4735,52.654],[13.4598,52.6481],[13.4409,52.6491],[13.4338,52.638],[13.4244,52.6356],[13.3985,52.6482],[13.3967,52.6483],[13.3831,52.6363],[13.376,52.6293],[13.3524,52.6234],[13.3509,52.6247],[13.3446,52.6248],[13.3442,52.6234],[13.3365,52.6227],[13.3083,52.6297],[13.3093,52.6431],[13.3004,52.6535],[13.31,52.6574],[13.2829,52.6608],[13.2824,52.6413],[13.2684,52.6398],[13.2643,52.6269],[13.2304,52.6274],[13.2207,52.6282],[13.2068,52.6091],[13.2016,52.6064],[13.2021,52.6045],[13.2087,52.5986],[13.2178,52.5932],[13.2189,52.5908],[13.2173,52.5875],[13.1922,52.59],[13.1738,52.5953],[13.1643,52.5989],[13.1489,52.5914],[13.135,52.5872],[13.129,52.5874],[13.1321,52.5797],[13.1496,52.5833],[13.153,52.5728],[13.146,52.5601],[13.1306,52.5564],[13.1232,52.5368],[13.1174,52.517],[13.143,52.5197],[13.1665,52.5101],[13.1253,52.4802],[13.1178,52.479],[13.1108,52.4661],[13.1092,52.4506],[13.119,52.444],[13.112,52.4323],[13.1046,52.4241],[13.0883,52.4196],[13.0906,52.4118],[13.1085,52.4073],[13.1249,52.3969],[13.1659,52.3943],[13.1715,52.3958],[13.1714,52.3978],[13.1578,52.3964],[13.1593,52.4029],[13.1956,52.4151],[13.2223,52.4204],[13.2458,52.4208],[13.2498,52.405],[13.2674,52.4046],[13.2961,52.4165],[13.2985,52.412],[13.3119,52.3992],[13.343,52.4077],[13.3872,52.3886],[13.3885,52.378],[13.421,52.3762],[13.4276,52.3868],[13.4188,52.4099],[13.4623,52.4206],[13.4683,52.4194],[13.4799,52.396],[13.5152,52.4014],[13.5283,52.3984],[13.5357,52.389],[13.5649,52.3883],[13.5928,52.3942],[13.5952,52.3868],[13.6063,52.3796],[13.6061,52.3757],[13.6044,52.3742],[13.6279,52.3818],[13.6334,52.3763],[13.6468,52.3702],[13.6471,52.3669],[13.6386,52.3602],[13.638,52.3438],[13.6517,52.3395],[13.6511,52.3427],[13.6669,52.3621],[13.6819,52.3696],[13.6876,52.3673],[13.7,52.3751],[13.6969,52.3776],[13.6949,52.381],[13.6857,52.3841],[13.6971,52.3899],[13.7164,52.3995],[13.7345,52.402],[13.7387,52.4073],[13.7336,52.4111],[13.7295,52.4174],[13.7314,52.4207],[13.7379,52.4269],[13.7523,52.4371],[13.7596,52.4363],[13.7605,52.4385],[13.7532,52.4476],[13.7291,52.4506],[13.7206,52.4566],[13.7041,52.4642],[13.7044,52.4543],[13.6968,52.4642],[13.6788,52.4694],[13.667,52.4742],[13.6406,52.4795],[13.6171,52.4712],[13.615,52.4808],[13.6333,52.5118],[13.6586,52.5258],[13.6569,52.5299],[13.6314,52.5308],[13.6354,52.5416],[13.6189,52.5429],[13.5854,52.5485],[13.5875,52.5553],[13.5815,52.5709],[13.5676,52.5737],[13.5471,52.5879],[13.5224,52.5929],[13.5082,52.5922],[13.499,52.6052],[13.5002,52.6138],[13.5058,52.6258],[13.5177,52.6296],[13.5231,52.6454],[13.5128,52.6456],[13.4908,52.6547],[13.4756,52.6663],[13.4801,52.6746]]]}},{"type":"Feature","properties":{"ags":"12051000","name":"Brandenburg an der Havel","ewz":73921,"dist_km":58.9,"city":false,"warm_m2":10.97,"own_value":true,"m2_median":76,"share_median":0.236,"m2_p25":60,"share_p25":0.299},"geometry":{"type":"MultiPolygon","coordinates":[[[[12.6868,52.493],[12.6922,52.5056],[12.7066,52.511],[12.6996,52.5106],[12.6771,52.5026],[12.663,52.4977],[12.6538,52.4851],[12.6354,52.4921],[12.6045,52.491],[12.5997,52.4878],[12.5963,52.4807],[12.5892,52.4793],[12.579,52.4768],[12.572,52.478],[12.5677,52.4773],[12.5658,52.4758],[12.5656,52.4652],[12.5659,52.4522],[12.56,52.4476],[12.5175,52.453],[12.5084,52.4685],[12.5065,52.4727],[12.4924,52.469],[12.4761,52.4596],[12.4677,52.4499],[12.445,52.4535],[12.4481,52.425],[12.4274,52.4295],[12.4253,52.4407],[12.4253,52.4534],[12.4315,52.4562],[12.4282,52.4581],[12.4297,52.4559],[12.4231,52.454],[12.4232,52.4569],[12.4062,52.457],[12.3936,52.4481],[12.3703,52.4433],[12.3612,52.4428],[12.3657,52.4282],[12.3891,52.4344],[12.3867,52.42],[12.3911,52.3889],[12.3986,52.3793],[12.3963,52.3606],[12.403,52.3559],[12.4084,52.3474],[12.4169,52.3327],[12.4191,52.3115],[12.4424,52.3164],[12.4747,52.3185],[12.481,52.3265],[12.4996,52.3223],[12.511,52.3375],[12.5363,52.3535],[12.5509,52.3531],[12.561,52.3467],[12.5936,52.3479],[12.6117,52.3929],[12.6521,52.394],[12.6557,52.3913],[12.6668,52.4093],[12.6835,52.4111],[12.6873,52.4184],[12.6753,52.4271],[12.671,52.4385],[12.7054,52.4449],[12.703,52.4475],[12.6708,52.4479],[12.6576,52.4555],[12.6374,52.4526],[12.6223,52.4589],[12.6112,52.4559],[12.5907,52.4469],[12.5736,52.4456],[12.5731,52.464],[12.5793,52.4746],[12.5985,52.4779],[12.6056,52.4849],[12.6245,52.482],[12.6392,52.487],[12.6542,52.484],[12.6718,52.4968],[12.6809,52.4931],[12.6868,52.493]]],[[[12.7167,52.5418],[12.7085,52.5302],[12.7088,52.5236],[12.7116,52.5165],[12.7126,52.5244],[12.7184,52.5281],[12.7259,52.5394],[12.7167,52.5418]]]]}},{"type":"Feature","properties":{"ags":"12054000","name":"Potsdam","ewz":187119,"dist_km":25.9,"city":false,"warm_m2":14.42,"own_value":true,"m2_median":57,"share_median":0.318,"m2_p25":45,"share_p25":0.404},"geometry":{"type":"Polygon","coordinates":[[[13.0405,52.4774],[13.0294,52.4812],[13.0035,52.5148],[12.9944,52.5127],[12.9956,52.51],[12.9691,52.506],[12.9534,52.5026],[12.9493,52.5046],[12.9364,52.4939],[12.9315,52.4864],[12.9161,52.4808],[12.9173,52.4743],[12.8872,52.4629],[12.8935,52.4608],[12.926,52.4577],[12.9461,52.4527],[12.9477,52.434],[12.9402,52.4328],[12.9357,52.4212],[12.9381,52.4083],[12.9353,52.3912],[12.9599,52.389],[12.9699,52.387],[12.9765,52.3906],[12.984,52.3879],[12.9713,52.3737],[12.9822,52.3652],[12.9927,52.3666],[13.0039,52.3578],[13.0154,52.3504],[13.0228,52.3474],[13.0224,52.3469],[13.0419,52.3429],[13.0609,52.3489],[13.0484,52.3544],[13.0721,52.3541],[13.1027,52.3594],[13.1064,52.3552],[13.1209,52.355],[13.1355,52.3532],[13.138,52.3613],[13.1471,52.3615],[13.1465,52.3682],[13.1482,52.3823],[13.1541,52.3903],[13.1659,52.3943],[13.1249,52.3969],[13.1085,52.4073],[13.0906,52.4118],[13.0883,52.4196],[13.1046,52.4241],[13.112,52.4323],[13.119,52.444],[13.1092,52.4506],[13.1108,52.4661],[13.1178,52.479],[13.1253,52.4802],[13.1537,52.5018],[13.1388,52.5025],[13.1213,52.491],[13.098,52.4942],[13.0958,52.4702],[13.0691,52.4613],[13.0545,52.4655],[13.0405,52.4774]]]}},{"type":"Feature","properties":{"ags":"12060005","name":"Ahrensfelde","ewz":14144,"dist_km":16.4,"city":false,"warm_m2":14.46,"own_value":true,"m2_median":56,"share_median":0.32,"m2_p25":44,"share_p25":0.408},"geometry":{"type":"Polygon","coordinates":[[[13.6308,52.6367],[13.6312,52.6455],[13.5949,52.6478],[13.6099,52.6385],[13.6037,52.6213],[13.5766,52.6081],[13.564,52.6063],[13.5488,52.6101],[13.5328,52.6203],[13.5002,52.6138],[13.499,52.6052],[13.5082,52.5922],[13.5224,52.5929],[13.5471,52.5879],[13.5676,52.5737],[13.5815,52.5709],[13.5875,52.5553],[13.5854,52.5485],[13.6108,52.5442],[13.6105,52.551],[13.6157,52.5613],[13.6409,52.5684],[13.6653,52.5673],[13.6684,52.5661],[13.6692,52.5668],[13.6736,52.5659],[13.6756,52.567],[13.6743,52.5702],[13.6853,52.5705],[13.6859,52.5768],[13.6712,52.5779],[13.6714,52.5821],[13.6682,52.5826],[13.6565,52.5847],[13.6573,52.591],[13.6581,52.5993],[13.6429,52.6215],[13.6308,52.6367]]]}},{"type":"Feature","properties":{"ags":"12060020","name":"Bernau bei Berlin","ewz":44254,"dist_km":22.9,"city":false,"warm_m2":13.94,"own_value":true,"m2_median":58,"share_median":0.308,"m2_p25":46,"share_p25":0.392},"geometry":{"type":"Polygon","coordinates":[[[13.6081,52.7563],[13.6026,52.7567],[13.6046,52.7494],[13.5953,52.7403],[13.5872,52.7381],[13.5867,52.7415],[13.585,52.7414],[13.5804,52.7342],[13.559,52.738],[13.5235,52.7197],[13.5241,52.7399],[13.5146,52.7431],[13.487,52.7406],[13.4674,52.7316],[13.4845,52.7077],[13.5015,52.7025],[13.5078,52.6832],[13.4932,52.6825],[13.5121,52.6773],[13.5139,52.6665],[13.549,52.6649],[13.5655,52.6501],[13.5615,52.628],[13.5797,52.6097],[13.6037,52.6213],[13.6099,52.6385],[13.5949,52.6478],[13.6312,52.6455],[13.6308,52.6367],[13.6379,52.6277],[13.645,52.628],[13.6478,52.6284],[13.6373,52.6459],[13.6659,52.6478],[13.6659,52.6727],[13.6687,52.6809],[13.6648,52.6948],[13.6496,52.6914],[13.6456,52.7046],[13.6222,52.7054],[13.5971,52.7309],[13.6091,52.7422],[13.6113,52.7462],[13.6086,52.7514],[13.6081,52.7563]]]}},{"type":"Feature","properties":{"ags":"12060052","name":"Eberswalde","ewz":41704,"dist_km":45.3,"city":false,"warm_m2":11.76,"own_value":true,"m2_median":71,"share_median":0.255,"m2_p25":56,"share_p25":0.324},"geometry":{"type":"Polygon","coordinates":[[[13.8557,52.8718],[13.8546,52.8826],[13.8475,52.8811],[13.8324,52.8679],[13.816,52.8633],[13.7946,52.8641],[13.7912,52.8644],[13.7903,52.8662],[13.7851,52.8689],[13.7697,52.8662],[13.7672,52.8531],[13.748,52.8535],[13.7335,52.858],[13.7276,52.8671],[13.705,52.8635],[13.712,52.8467],[13.7074,52.8395],[13.7164,52.8266],[13.7027,52.8123],[13.6603,52.8117],[13.6588,52.8116],[13.6595,52.8087],[13.6707,52.8042],[13.6735,52.7998],[13.6815,52.7981],[13.6801,52.7931],[13.6715,52.7897],[13.6719,52.7836],[13.7164,52.7849],[13.779,52.789],[13.784,52.778],[13.7901,52.7771],[13.7842,52.7799],[13.7957,52.7858],[13.8025,52.804],[13.8526,52.8071],[13.848,52.8102],[13.8392,52.8195],[13.8442,52.8257],[13.8618,52.8241],[13.8871,52.8145],[13.8934,52.8125],[13.9057,52.815],[13.9102,52.8233],[13.9071,52.8363],[13.9075,52.8373],[13.897,52.838],[13.8883,52.8403],[13.8841,52.8502],[13.8688,52.852],[13.8589,52.8508],[13.8512,52.8518],[13.8478,52.8532],[13.8477,52.8562],[13.852,52.8649],[13.8512,52.867],[13.8557,52.8718]]]}},{"type":"Feature","properties":{"ags":"12060181","name":"Panketal","ewz":20916,"dist_km":17.1,"city":false,"warm_m2":14.41,"own_value":true,"m2_median":56,"share_median":0.319,"m2_p25":44,"share_p25":0.406},"geometry":{"type":"Polygon","coordinates":[[[13.5121,52.6773],[13.4801,52.6746],[13.4756,52.6663],[13.4908,52.6547],[13.5128,52.6456],[13.5231,52.6454],[13.5177,52.6296],[13.5058,52.6258],[13.5002,52.6138],[13.5328,52.6203],[13.5488,52.6101],[13.564,52.6063],[13.5766,52.6081],[13.5797,52.6097],[13.5615,52.628],[13.5655,52.6501],[13.549,52.6649],[13.5139,52.6665],[13.5121,52.6773]]]}},{"type":"Feature","properties":{"ags":"12060198","name":"Schorfheide","ewz":10205,"dist_km":45.2,"city":false,"warm_m2":12.24,"own_value":true,"m2_median":68,"share_median":0.266,"m2_p25":53,"share_p25":0.337},"geometry":{"type":"Polygon","coordinates":[[[13.6023,52.9981],[13.5967,52.9987],[13.5896,52.9945],[13.5774,52.9931],[13.5648,52.9894],[13.5237,52.9877],[13.5179,52.9887],[13.5134,52.9749],[13.4835,52.9634],[13.4571,52.9658],[13.4416,52.9595],[13.4296,52.9489],[13.4014,52.9385],[13.3989,52.9301],[13.4105,52.9233],[13.412,52.9097],[13.4284,52.9064],[13.4338,52.9144],[13.4566,52.9196],[13.4728,52.9186],[13.4728,52.9065],[13.4878,52.8999],[13.4659,52.8918],[13.4614,52.8853],[13.5049,52.8761],[13.5162,52.8665],[13.5268,52.873],[13.5409,52.8724],[13.5526,52.8609],[13.5547,52.8631],[13.5797,52.8555],[13.5913,52.8587],[13.6134,52.8858],[13.6253,52.8801],[13.6214,52.8769],[13.6407,52.8595],[13.6407,52.8515],[13.6259,52.8455],[13.626,52.8445],[13.6454,52.8438],[13.6495,52.8285],[13.6363,52.8159],[13.6342,52.8038],[13.6502,52.8107],[13.6603,52.8117],[13.7027,52.8123],[13.7164,52.8266],[13.7074,52.8395],[13.712,52.8467],[13.705,52.8635],[13.7276,52.8671],[13.7335,52.858],[13.748,52.8535],[13.7672,52.8531],[13.7697,52.8662],[13.7851,52.8689],[13.7921,52.8643],[13.7861,52.8726],[13.784,52.8789],[13.7858,52.887],[13.7732,52.8899],[13.7662,52.8965],[13.7566,52.9019],[13.7571,52.904],[13.7491,52.9038],[13.7339,52.908],[13.7232,52.9131],[13.7241,52.9211],[13.6924,52.9066],[13.668,52.9018],[13.6578,52.9061],[13.6518,52.9077],[13.6468,52.9122],[13.6554,52.9385],[13.6288,52.9796],[13.6126,52.9853],[13.6023,52.9981]]]}},{"type":"Feature","properties":{"ags":"12060269","name":"Wandlitz","ewz":24363,"dist_km":27.4,"city":false,"warm_m2":14.33,"own_value":true,"m2_median":57,"share_median":0.315,"m2_p25":45,"share_p25":0.401},"geometry":{"type":"Polygon","coordinates":[[[13.5078,52.8735],[13.492,52.8729],[13.4747,52.878],[13.47,52.8705],[13.485,52.8528],[13.5087,52.8513],[13.5193,52.8459],[13.4991,52.8312],[13.4946,52.8145],[13.4794,52.8088],[13.422,52.8042],[13.4307,52.7895],[13.4065,52.7805],[13.4048,52.77],[13.4147,52.7512],[13.406,52.749],[13.4089,52.745],[13.4057,52.7387],[13.4243,52.7345],[13.4071,52.722],[13.4188,52.7201],[13.4209,52.7085],[13.4044,52.7096],[13.4088,52.697],[13.4028,52.6919],[13.4038,52.6744],[13.4137,52.6683],[13.3999,52.6564],[13.4022,52.648],[13.3985,52.6482],[13.4244,52.6356],[13.4338,52.638],[13.4409,52.6491],[13.4598,52.6481],[13.4735,52.654],[13.4508,52.6627],[13.4801,52.6746],[13.4932,52.6825],[13.5078,52.6832],[13.5015,52.7025],[13.4845,52.7077],[13.4674,52.7316],[13.487,52.7406],[13.5146,52.7431],[13.5241,52.7399],[13.5235,52.7197],[13.559,52.738],[13.5804,52.7342],[13.585,52.7414],[13.5886,52.7487],[13.5964,52.7615],[13.5876,52.7723],[13.5926,52.7801],[13.58,52.7964],[13.5728,52.7994],[13.5715,52.8042],[13.5762,52.8053],[13.5786,52.8144],[13.5607,52.8142],[13.5477,52.8047],[13.508,52.8134],[13.52,52.8174],[13.5109,52.8259],[13.5115,52.8354],[13.5279,52.8327],[13.5422,52.8355],[13.5378,52.8434],[13.5571,52.8467],[13.5521,52.8601],[13.5526,52.8609],[13.5409,52.8724],[13.5268,52.873],[13.5162,52.8665],[13.5078,52.8735]]]}},{"type":"Feature","properties":{"ags":"12060280","name":"Werneuchen","ewz":9441,"dist_km":28.7,"city":false,"warm_m2":11.89,"own_value":true,"m2_median":69,"share_median":0.261,"m2_p25":54,"share_p25":0.332},"geometry":{"type":"Polygon","coordinates":[[[13.7735,52.6769],[13.7543,52.7135],[13.723,52.6994],[13.6876,52.6937],[13.6739,52.6983],[13.6652,52.6968],[13.6687,52.6809],[13.6659,52.6727],[13.6659,52.6478],[13.6373,52.6459],[13.6478,52.6284],[13.6379,52.6277],[13.6429,52.6215],[13.6581,52.5993],[13.6573,52.591],[13.6565,52.5847],[13.6682,52.5826],[13.6757,52.5809],[13.6818,52.5782],[13.6919,52.5797],[13.7003,52.5905],[13.7171,52.5901],[13.7123,52.5996],[13.7269,52.6016],[13.7285,52.6123],[13.7821,52.6235],[13.8335,52.6294],[13.8332,52.6372],[13.8456,52.6473],[13.8378,52.6532],[13.8489,52.6595],[13.8528,52.6779],[13.8582,52.6846],[13.848,52.6892],[13.8511,52.6911],[13.8497,52.6936],[13.843,52.6914],[13.8154,52.6782],[13.7803,52.6669],[13.7735,52.6769]]]}},{"type":"Feature","properties":{"ags":"12060024","name":"Biesenthal","ewz":6120,"dist_km":32.4,"city":false,"warm_m2":11.51,"own_value":true,"m2_median":71,"share_median":0.252,"m2_p25":56,"share_p25":0.321},"geometry":{"type":"Polygon","coordinates":[[[13.6271,52.8281],[13.6181,52.8291],[13.5911,52.8202],[13.5866,52.8078],[13.5715,52.8042],[13.5728,52.7994],[13.58,52.7964],[13.5926,52.7801],[13.5876,52.7723],[13.5964,52.7615],[13.5886,52.7487],[13.5867,52.7415],[13.5872,52.7381],[13.5953,52.7403],[13.6046,52.7494],[13.6026,52.7567],[13.6081,52.7563],[13.6086,52.7514],[13.6113,52.7462],[13.6106,52.7447],[13.619,52.7432],[13.6448,52.7356],[13.6468,52.7267],[13.6638,52.704],[13.6678,52.6991],[13.6859,52.7093],[13.6864,52.7413],[13.6836,52.7546],[13.6872,52.7572],[13.68,52.7733],[13.6648,52.7867],[13.6801,52.7931],[13.6815,52.7981],[13.6735,52.7998],[13.6707,52.8042],[13.6595,52.8087],[13.6588,52.8116],[13.6502,52.8107],[13.6342,52.8038],[13.6363,52.8159],[13.6474,52.8268],[13.6271,52.8281]]]}},{"type":"Feature","properties":{"ags":"12060034","name":"Breydin","ewz":825,"dist_km":41.6,"city":false,"warm_m2":10.2,"own_value":true,"m2_median":81,"share_median":0.222,"m2_p25":64,"share_p25":0.282},"geometry":{"type":"Polygon","coordinates":[[[13.8635,52.7876],[13.8594,52.8009],[13.8526,52.8071],[13.8025,52.804],[13.7957,52.7858],[13.7842,52.7799],[13.7901,52.7771],[13.7892,52.7698],[13.7618,52.7705],[13.7466,52.7674],[13.7495,52.7648],[13.7474,52.763],[13.7594,52.7522],[13.7635,52.7437],[13.785,52.7468],[13.7996,52.7443],[13.8368,52.7553],[13.8615,52.7588],[13.8631,52.7729],[13.8635,52.7876]]]}},{"type":"Feature","properties":{"ags":"12060154","name":"Marienwerder","ewz":1710,"dist_km":38.6,"city":false,"warm_m2":12.39,"own_value":true,"m2_median":67,"share_median":0.27,"m2_p25":52,"share_p25":0.343},"geometry":{"type":"Polygon","coordinates":[[[13.6214,52.8769],[13.6253,52.8801],[13.6134,52.8858],[13.5913,52.8587],[13.5797,52.8555],[13.5547,52.8631],[13.5521,52.8601],[13.5571,52.8467],[13.5378,52.8434],[13.5422,52.8355],[13.5279,52.8327],[13.5115,52.8354],[13.5109,52.8259],[13.52,52.8174],[13.508,52.8134],[13.5477,52.8047],[13.5607,52.8142],[13.5786,52.8144],[13.5762,52.8053],[13.5866,52.8078],[13.5911,52.8202],[13.6181,52.8291],[13.6271,52.8281],[13.6474,52.8268],[13.6454,52.8438],[13.626,52.8445],[13.6259,52.8455],[13.6407,52.8515],[13.6407,52.8595],[13.6214,52.8769]]]}},{"type":"Feature","properties":{"ags":"12060161","name":"Melchow","ewz":1084,"dist_km":36.6,"city":false,"warm_m2":10.33,"own_value":true,"m2_median":80,"share_median":0.226,"m2_p25":63,"share_p25":0.287},"geometry":{"type":"Polygon","coordinates":[[[13.784,52.778],[13.779,52.789],[13.7164,52.7849],[13.6719,52.7836],[13.6715,52.7897],[13.6648,52.7867],[13.68,52.7733],[13.6872,52.7572],[13.6983,52.7535],[13.7046,52.7601],[13.7252,52.7666],[13.7423,52.7697],[13.7428,52.7674],[13.7474,52.763],[13.7495,52.7648],[13.7466,52.7674],[13.7618,52.7705],[13.7892,52.7698],[13.7901,52.7771],[13.784,52.778]]]}},{"type":"Feature","properties":{"ags":"12060192","name":"Rüdnitz","ewz":2027,"dist_km":27.8,"city":false,"warm_m2":11.24,"own_value":true,"m2_median":73,"share_median":0.247,"m2_p25":57,"share_p25":0.314},"geometry":{"type":"Polygon","coordinates":[[[13.619,52.7432],[13.6106,52.7447],[13.6091,52.7422],[13.5971,52.7309],[13.6222,52.7054],[13.6456,52.7046],[13.6496,52.6914],[13.6648,52.6948],[13.6652,52.6968],[13.6692,52.6976],[13.6638,52.704],[13.6468,52.7267],[13.6448,52.7356],[13.619,52.7432]]]}},{"type":"Feature","properties":{"ags":"12060250","name":"Sydower Fließ","ewz":990,"dist_km":32.5,"city":false,"warm_m2":11.26,"own_value":true,"m2_median":73,"share_median":0.247,"m2_p25":57,"share_p25":0.314},"geometry":{"type":"Polygon","coordinates":[[[13.7594,52.7522],[13.7428,52.7674],[13.7423,52.7697],[13.7252,52.7666],[13.7046,52.7601],[13.6983,52.7535],[13.6836,52.7546],[13.6864,52.7413],[13.6859,52.7093],[13.6678,52.6991],[13.6692,52.6976],[13.6739,52.6983],[13.6876,52.6937],[13.723,52.6994],[13.7594,52.7165],[13.7371,52.7345],[13.7635,52.7437],[13.7594,52.7522]]]}},{"type":"Feature","properties":{"ags":"12060092","name":"Hohenfinow","ewz":503,"dist_km":46.6,"city":false,"warm_m2":9.13,"own_value":true,"m2_median":91,"share_median":0.198,"m2_p25":72,"share_p25":0.251},"geometry":{"type":"Polygon","coordinates":[[[13.9444,52.8279],[13.9085,52.8384],[13.9071,52.8363],[13.9102,52.8233],[13.9057,52.815],[13.8934,52.8125],[13.8871,52.8145],[13.8618,52.8241],[13.8442,52.8257],[13.8392,52.8195],[13.848,52.8102],[13.8594,52.8009],[13.8635,52.7876],[13.9039,52.7897],[13.9232,52.7945],[13.9429,52.8142],[13.9409,52.8247],[13.9548,52.8258],[13.9542,52.828],[13.9444,52.8279]]]}},{"type":"Feature","properties":{"ags":"12061020","name":"Bestensee","ewz":9209,"dist_km":38.4,"city":false,"warm_m2":17.03,"own_value":true,"m2_median":48,"share_median":0.371,"m2_p25":38,"share_p25":0.472},"geometry":{"type":"Polygon","coordinates":[[[13.6368,52.2567],[13.6398,52.2604],[13.6128,52.2602],[13.606,52.2574],[13.5887,52.2531],[13.598,52.2245],[13.607,52.2196],[13.6192,52.2029],[13.6215,52.1993],[13.6416,52.1962],[13.6537,52.2003],[13.6718,52.1968],[13.6784,52.2065],[13.6917,52.2166],[13.711,52.2215],[13.6953,52.2277],[13.674,52.2522],[13.6711,52.259],[13.647,52.2556],[13.6368,52.2567]]]}},{"type":"Feature","properties":{"ags":"12061112","name":"Eichwalde","ewz":6490,"dist_km":24.3,"city":false,"warm_m2":17.81,"own_value":true,"m2_median":46,"share_median":0.393,"m2_p25":36,"share_p25":0.5},"geometry":{"type":"Polygon","coordinates":[[[13.6334,52.3763],[13.6279,52.3818],[13.6044,52.3742],[13.6135,52.3646],[13.616,52.366],[13.6343,52.3701],[13.647,52.3687],[13.6468,52.3702],[13.6334,52.3763]]]}},{"type":"Feature","properties":{"ags":"12061217","name":"Heidesee","ewz":7440,"dist_km":39.7,"city":false,"warm_m2":14.33,"own_value":true,"m2_median":58,"share_median":0.312,"m2_p25":45,"share_p25":0.396},"geometry":{"type":"Polygon","coordinates":[[[13.8475,52.2894],[13.8217,52.2881],[13.8395,52.3044],[13.8398,52.3141],[13.8188,52.313],[13.7784,52.3231],[13.7661,52.3174],[13.7462,52.3183],[13.7404,52.3189],[13.7473,52.3031],[13.7384,52.2807],[13.7167,52.2824],[13.6988,52.2665],[13.6693,52.2666],[13.674,52.2522],[13.6953,52.2277],[13.711,52.2215],[13.6917,52.2166],[13.6784,52.2065],[13.6708,52.1948],[13.6861,52.186],[13.7129,52.1933],[13.7774,52.1813],[13.7693,52.1892],[13.7735,52.199],[13.7774,52.2025],[13.7812,52.2018],[13.7733,52.196],[13.7735,52.1887],[13.7795,52.1804],[13.7771,52.1926],[13.835,52.1854],[13.8481,52.2051],[13.8418,52.2187],[13.8507,52.2251],[13.8283,52.2327],[13.8246,52.2431],[13.8338,52.247],[13.8385,52.2629],[13.8558,52.2752],[13.8518,52.2855],[13.854,52.29],[13.8475,52.2894]]]}},{"type":"Feature","properties":{"ags":"12061260","name":"Königs Wusterhausen","ewz":39096,"dist_km":31.4,"city":false,"warm_m2":15.92,"own_value":true,"m2_median":52,"share_median":0.349,"m2_p25":41,"share_p25":0.444},"geometry":{"type":"Polygon","coordinates":[[[13.7376,52.3759],[13.729,52.3859],[13.7041,52.3874],[13.6995,52.3805],[13.7,52.3751],[13.6876,52.3673],[13.6819,52.3696],[13.6669,52.3621],[13.6511,52.3427],[13.653,52.3364],[13.6422,52.3326],[13.6436,52.3073],[13.6331,52.3087],[13.6274,52.3066],[13.6051,52.3106],[13.5989,52.3105],[13.5881,52.3174],[13.5785,52.3182],[13.5781,52.3139],[13.5745,52.3054],[13.5685,52.304],[13.5706,52.2957],[13.5782,52.2844],[13.5992,52.2902],[13.6076,52.2799],[13.6125,52.2629],[13.6128,52.2602],[13.6398,52.2604],[13.6368,52.2567],[13.647,52.2556],[13.6711,52.259],[13.6693,52.2666],[13.6988,52.2665],[13.7167,52.2824],[13.7384,52.2807],[13.7473,52.3031],[13.7404,52.3189],[13.7437,52.3185],[13.7341,52.323],[13.7398,52.334],[13.7535,52.3444],[13.7559,52.3518],[13.7276,52.3656],[13.741,52.3712],[13.7376,52.3759]]]}},{"type":"Feature","properties":{"ags":"12061332","name":"Mittenwalde","ewz":10084,"dist_km":35,"city":false,"warm_m2":16.21,"own_value":true,"m2_median":51,"share_median":0.355,"m2_p25":40,"share_p25":0.45},"geometry":{"type":"Polygon","coordinates":[[[13.5282,52.3165],[13.5315,52.3258],[13.511,52.3281],[13.4937,52.3312],[13.4831,52.3223],[13.4976,52.3072],[13.487,52.2984],[13.4832,52.2862],[13.5075,52.2818],[13.5094,52.2709],[13.4897,52.2609],[13.4711,52.2619],[13.4538,52.257],[13.4513,52.256],[13.4583,52.253],[13.4565,52.2477],[13.472,52.2341],[13.4929,52.2335],[13.5009,52.2406],[13.5178,52.2429],[13.5376,52.241],[13.5531,52.2343],[13.564,52.2188],[13.5759,52.2108],[13.581,52.1949],[13.546,52.1932],[13.5501,52.1827],[13.5437,52.1733],[13.5489,52.1528],[13.5569,52.148],[13.5647,52.1428],[13.5841,52.1486],[13.5893,52.1573],[13.602,52.1718],[13.5944,52.1862],[13.6201,52.1896],[13.6237,52.1955],[13.6192,52.2029],[13.607,52.2196],[13.598,52.2245],[13.5887,52.2531],[13.606,52.2574],[13.6125,52.2629],[13.6076,52.2799],[13.5992,52.2902],[13.5782,52.2844],[13.5706,52.2957],[13.5685,52.304],[13.5745,52.3054],[13.5781,52.3139],[13.5785,52.3182],[13.5554,52.3166],[13.5282,52.3165]]]}},{"type":"Feature","properties":{"ags":"12061433","name":"Schönefeld","ewz":19529,"dist_km":19.7,"city":false,"warm_m2":20.73,"own_value":true,"m2_median":39,"share_median":0.459,"m2_p25":31,"share_p25":0.584},"geometry":{"type":"Polygon","coordinates":[[[13.4799,52.396],[13.4683,52.4194],[13.4623,52.4206],[13.4188,52.4099],[13.4276,52.3868],[13.4186,52.3717],[13.4212,52.3648],[13.442,52.3628],[13.4472,52.3466],[13.4607,52.3408],[13.4991,52.3367],[13.4952,52.3309],[13.511,52.3281],[13.5315,52.3258],[13.5282,52.3165],[13.5554,52.3166],[13.5849,52.3181],[13.5881,52.3174],[13.5989,52.3105],[13.6007,52.3105],[13.5599,52.3463],[13.5628,52.3497],[13.5611,52.3506],[13.5667,52.3608],[13.5862,52.3686],[13.5978,52.3804],[13.6009,52.3761],[13.6056,52.3777],[13.6063,52.3796],[13.5952,52.3868],[13.5928,52.3942],[13.5649,52.3883],[13.5357,52.389],[13.5283,52.3984],[13.5152,52.4014],[13.4799,52.396]]]}},{"type":"Feature","properties":{"ags":"12061444","name":"Schulzendorf","ewz":9665,"dist_km":23.6,"city":false,"warm_m2":17.36,"own_value":true,"m2_median":47,"share_median":0.383,"m2_p25":37,"share_p25":0.487},"geometry":{"type":"Polygon","coordinates":[[[13.6009,52.3761],[13.5978,52.3804],[13.5862,52.3686],[13.5667,52.3608],[13.5611,52.3506],[13.5753,52.3439],[13.5928,52.3375],[13.6,52.3437],[13.6071,52.3482],[13.6036,52.3514],[13.602,52.3563],[13.6101,52.3625],[13.6098,52.3634],[13.6135,52.3646],[13.6044,52.3742],[13.6061,52.3757],[13.6056,52.3777],[13.6009,52.3761]]]}},{"type":"Feature","properties":{"ags":"12061540","name":"Wildau","ewz":10994,"dist_km":27.9,"city":false,"warm_m2":17.23,"own_value":true,"m2_median":47,"share_median":0.379,"m2_p25":37,"share_p25":0.482},"geometry":{"type":"Polygon","coordinates":[[[13.638,52.3311],[13.6328,52.3412],[13.625,52.3313],[13.5984,52.3313],[13.591,52.3221],[13.6051,52.3106],[13.6274,52.3066],[13.6331,52.3087],[13.6436,52.3073],[13.6422,52.3326],[13.638,52.3311]]]}},{"type":"Feature","properties":{"ags":"12061572","name":"Zeuthen","ewz":11578,"dist_km":26.5,"city":false,"warm_m2":18.09,"own_value":true,"m2_median":45,"share_median":0.398,"m2_p25":36,"share_p25":0.506},"geometry":{"type":"Polygon","coordinates":[[[13.6386,52.3602],[13.6468,52.3661],[13.647,52.3687],[13.6343,52.3701],[13.616,52.366],[13.6098,52.3634],[13.6101,52.3625],[13.6052,52.3594],[13.6019,52.3557],[13.6,52.3437],[13.5928,52.3375],[13.5753,52.3439],[13.5628,52.3497],[13.5599,52.3463],[13.6007,52.3105],[13.6051,52.3106],[13.591,52.3221],[13.5984,52.3313],[13.625,52.3313],[13.6328,52.3412],[13.638,52.3311],[13.653,52.3364],[13.6517,52.3395],[13.638,52.3438],[13.6386,52.3602]]]}},{"type":"Feature","properties":{"ags":"12061192","name":"Groß Köris","ewz":2489,"dist_km":47.3,"city":false,"warm_m2":15.48,"own_value":true,"m2_median":54,"share_median":0.335,"m2_p25":42,"share_p25":0.425},"geometry":{"type":"Polygon","coordinates":[[[13.7733,52.196],[13.7812,52.2018],[13.7774,52.2025],[13.7753,52.2012],[13.7704,52.1938],[13.7693,52.1892],[13.7774,52.1813],[13.7129,52.1933],[13.6861,52.186],[13.6708,52.1948],[13.6718,52.1968],[13.6537,52.2003],[13.6416,52.1962],[13.6215,52.1993],[13.6237,52.1955],[13.6201,52.1896],[13.5944,52.1862],[13.602,52.1718],[13.5893,52.1573],[13.6003,52.1592],[13.63,52.1654],[13.6335,52.1638],[13.6301,52.16],[13.6362,52.159],[13.6633,52.1583],[13.6572,52.1503],[13.6594,52.1339],[13.6613,52.1249],[13.6998,52.1179],[13.7091,52.1084],[13.722,52.1349],[13.7573,52.1284],[13.7631,52.1404],[13.7599,52.1436],[13.7648,52.1534],[13.769,52.1673],[13.7789,52.1786],[13.7795,52.1804],[13.7735,52.1887],[13.7733,52.196]]]}},{"type":"Feature","properties":{"ags":"12061448","name":"Schwerin","ewz":929,"dist_km":46.5,"city":false,"warm_m2":15.3,"own_value":true,"m2_median":54,"share_median":0.332,"m2_p25":43,"share_p25":0.421},"geometry":{"type":"Polygon","coordinates":[[[13.6633,52.1583],[13.6362,52.159],[13.6301,52.16],[13.6262,52.1569],[13.61,52.1507],[13.6468,52.1335],[13.6594,52.1339],[13.6572,52.1503],[13.6633,52.1583]]]}},{"type":"Feature","properties":{"ags":"12061492","name":"Teupitz","ewz":1895,"dist_km":47.6,"city":false,"warm_m2":14.24,"own_value":true,"m2_median":58,"share_median":0.308,"m2_p25":46,"share_p25":0.391},"geometry":{"type":"Polygon","coordinates":[[[13.6335,52.1638],[13.63,52.1654],[13.6003,52.1592],[13.5893,52.1573],[13.5841,52.1486],[13.5647,52.1428],[13.5569,52.148],[13.5489,52.1378],[13.5492,52.1186],[13.5408,52.0972],[13.5562,52.0908],[13.5775,52.0904],[13.6146,52.0748],[13.6229,52.0732],[13.6364,52.1011],[13.6489,52.1169],[13.6603,52.1225],[13.6594,52.1339],[13.6468,52.1335],[13.61,52.1507],[13.6262,52.1569],[13.6335,52.1638]]]}},{"type":"Feature","properties":{"ags":"12063036","name":"Brieselang","ewz":13204,"dist_km":28.1,"city":false,"warm_m2":14.91,"own_value":true,"m2_median":55,"share_median":0.328,"m2_p25":43,"share_p25":0.417},"geometry":{"type":"Polygon","coordinates":[[[13.0106,52.6129],[12.9867,52.6124],[12.9679,52.6157],[12.9502,52.6102],[12.9118,52.6101],[12.902,52.5959],[12.8986,52.58],[12.9045,52.5759],[12.9214,52.5678],[12.9238,52.56],[12.9987,52.5708],[12.9996,52.568],[13.0057,52.5683],[13.0136,52.5714],[13.0227,52.5705],[13.0356,52.5772],[13.0279,52.5869],[13.0487,52.5991],[13.0401,52.6049],[13.0322,52.608],[13.0264,52.6091],[13.018,52.609],[13.0162,52.6105],[13.0103,52.6112],[13.0106,52.6129]]]}},{"type":"Feature","properties":{"ags":"12063056","name":"Dallgow-Döberitz","ewz":10770,"dist_km":19.5,"city":false,"warm_m2":16.85,"own_value":true,"m2_median":48,"share_median":0.373,"m2_p25":38,"share_p25":0.475},"geometry":{"type":"Polygon","coordinates":[[[13.0311,52.5554],[13.0292,52.5585],[13.0267,52.5544],[13.0129,52.5558],[13.012,52.5583],[13.0077,52.5568],[13.0094,52.5526],[13.0187,52.5458],[13.0135,52.5206],[12.9912,52.5129],[13.0035,52.5148],[13.0294,52.4812],[13.0405,52.4774],[13.0545,52.4655],[13.0691,52.4613],[13.0958,52.4702],[13.098,52.4942],[13.1213,52.491],[13.1388,52.5025],[13.1537,52.5018],[13.1665,52.5101],[13.143,52.5197],[13.1174,52.517],[13.1232,52.5368],[13.1251,52.5438],[13.1044,52.5465],[13.0839,52.5461],[13.0614,52.5532],[13.0517,52.55],[13.0311,52.5554]]]}},{"type":"Feature","properties":{"ags":"12063080","name":"Falkensee","ewz":45005,"dist_km":19.7,"city":false,"warm_m2":16.36,"own_value":true,"m2_median":50,"share_median":0.362,"m2_p25":39,"share_p25":0.461},"geometry":{"type":"Polygon","coordinates":[[[13.0486,52.6086],[13.0347,52.6111],[13.0258,52.6124],[13.0106,52.6129],[13.0103,52.6112],[13.0162,52.6105],[13.018,52.609],[13.0281,52.6089],[13.0389,52.6055],[13.0487,52.5991],[13.0279,52.5869],[13.0356,52.5772],[13.0227,52.5705],[13.0136,52.5714],[13.0057,52.5683],[12.9996,52.568],[13.0034,52.5643],[13.0136,52.5587],[13.012,52.5583],[13.0129,52.5558],[13.0267,52.5544],[13.0292,52.5585],[13.0311,52.5554],[13.0517,52.55],[13.0614,52.5532],[13.0839,52.5461],[13.1044,52.5465],[13.1251,52.5438],[13.1306,52.5564],[13.146,52.5601],[13.153,52.5728],[13.1496,52.5833],[13.1321,52.5797],[13.129,52.5874],[13.1082,52.5936],[13.0984,52.5942],[13.0837,52.6045],[13.0643,52.6038],[13.0486,52.6086]]]}},{"type":"Feature","properties":{"ags":"12063148","name":"Ketzin/Havel","ewz":6758,"dist_km":35.7,"city":false,"warm_m2":12.89,"own_value":true,"m2_median":64,"share_median":0.282,"m2_p25":50,"share_p25":0.358},"geometry":{"type":"Polygon","coordinates":[[[12.8367,52.5558],[12.8369,52.559],[12.819,52.5617],[12.8053,52.5593],[12.7969,52.5285],[12.7917,52.5194],[12.7687,52.5156],[12.7827,52.508],[12.7698,52.501],[12.7471,52.5074],[12.7346,52.4982],[12.7485,52.4915],[12.7596,52.4811],[12.7425,52.4775],[12.7452,52.4585],[12.7526,52.458],[12.7616,52.4624],[12.7716,52.4656],[12.7943,52.4627],[12.8123,52.4663],[12.8096,52.4727],[12.8181,52.4734],[12.8635,52.4592],[12.8773,52.4532],[12.8956,52.4596],[12.8872,52.4629],[12.9173,52.4743],[12.9161,52.4808],[12.9315,52.4864],[12.9364,52.4939],[12.9493,52.5046],[12.9454,52.5074],[12.9408,52.506],[12.9339,52.5009],[12.9048,52.5061],[12.9071,52.5224],[12.9028,52.5347],[12.878,52.5383],[12.8783,52.5408],[12.8661,52.5451],[12.8437,52.5489],[12.8435,52.5515],[12.8367,52.5558]]]}},{"type":"Feature","properties":{"ags":"12063208","name":"Nauen","ewz":19563,"dist_km":37,"city":false,"warm_m2":13.98,"own_value":true,"m2_median":59,"share_median":0.305,"m2_p25":46,"share_p25":0.388},"geometry":{"type":"Polygon","coordinates":[[[12.947,52.7226],[12.929,52.725],[12.9237,52.7192],[12.8717,52.7092],[12.8673,52.7042],[12.8542,52.7016],[12.8288,52.6948],[12.8317,52.6848],[12.766,52.6946],[12.7496,52.6737],[12.7692,52.6687],[12.7576,52.6539],[12.7408,52.6396],[12.7316,52.6144],[12.7229,52.6081],[12.6919,52.5931],[12.6669,52.5863],[12.6524,52.5646],[12.677,52.5557],[12.6971,52.5476],[12.7172,52.5462],[12.7242,52.5423],[12.7259,52.5394],[12.7184,52.5281],[12.7161,52.5252],[12.7272,52.5226],[12.7497,52.5096],[12.7471,52.5074],[12.7698,52.501],[12.7827,52.508],[12.7687,52.5156],[12.7917,52.5194],[12.7969,52.5285],[12.8047,52.5585],[12.8072,52.5602],[12.819,52.5617],[12.8369,52.559],[12.8367,52.5558],[12.8435,52.5515],[12.8437,52.5489],[12.8661,52.5451],[12.8783,52.5408],[12.8713,52.5525],[12.8874,52.5593],[12.9056,52.572],[12.9025,52.5771],[12.8986,52.58],[12.902,52.5959],[12.9118,52.6101],[12.9502,52.6102],[12.9679,52.6157],[12.984,52.6126],[13.0076,52.6129],[12.999,52.624],[13.0132,52.6292],[13.0009,52.6341],[12.9809,52.6277],[12.9774,52.6365],[12.9663,52.6403],[12.9432,52.6365],[12.9321,52.639],[12.9196,52.649],[12.9048,52.655],[12.9158,52.6674],[12.9266,52.6708],[12.9329,52.6688],[12.9339,52.6625],[12.9427,52.6665],[12.9588,52.6776],[12.9595,52.6891],[12.9916,52.6925],[12.9956,52.6976],[12.9838,52.7014],[12.9694,52.701],[12.9634,52.7203],[12.947,52.7226]]]}},{"type":"Feature","properties":{"ags":"12063273","name":"Schönwalde-Glien","ewz":10700,"dist_km":27.3,"city":false,"warm_m2":13.9,"own_value":true,"m2_median":59,"share_median":0.306,"m2_p25":46,"share_p25":0.389},"geometry":{"type":"Polygon","coordinates":[[[13.0124,52.69],[12.9916,52.6925],[12.9595,52.6891],[12.9588,52.6776],[12.9427,52.6665],[12.9339,52.6625],[12.9329,52.6688],[12.9266,52.6708],[12.9158,52.6674],[12.9048,52.655],[12.9196,52.649],[12.9321,52.639],[12.9432,52.6365],[12.9663,52.6403],[12.9774,52.6365],[12.9809,52.6277],[13.0009,52.6341],[13.0132,52.6292],[12.999,52.624],[13.0076,52.6129],[13.0293,52.612],[13.0486,52.6086],[13.0643,52.6038],[13.0837,52.6045],[13.0984,52.5942],[13.1082,52.5936],[13.1193,52.5898],[13.1335,52.587],[13.1489,52.5914],[13.1643,52.5989],[13.1531,52.604],[13.1551,52.6065],[13.1601,52.6165],[13.1564,52.6284],[13.1115,52.6344],[13.09,52.6708],[13.0766,52.6779],[13.0452,52.6688],[13.0182,52.6708],[13.0174,52.6765],[13.0227,52.6891],[13.0124,52.69]]]}},{"type":"Feature","properties":{"ags":"12063357","name":"Wustermark","ewz":11211,"dist_km":28.7,"city":false,"warm_m2":14.55,"own_value":true,"m2_median":56,"share_median":0.32,"m2_p25":44,"share_p25":0.407},"geometry":{"type":"Polygon","coordinates":[[[12.9987,52.5708],[12.9238,52.56],[12.9214,52.5678],[12.9045,52.5759],[12.9025,52.5771],[12.9056,52.572],[12.8874,52.5593],[12.8713,52.5525],[12.8781,52.5419],[12.878,52.5383],[12.9028,52.5347],[12.9071,52.5224],[12.9048,52.5061],[12.9339,52.5009],[12.9408,52.506],[12.9454,52.5074],[12.9534,52.5026],[12.9691,52.506],[12.9956,52.51],[12.9944,52.5127],[12.9912,52.5129],[13.0135,52.5206],[13.0187,52.5458],[13.0094,52.5526],[13.0076,52.5562],[13.0084,52.5572],[13.0136,52.5587],[13.0034,52.5643],[12.9985,52.569],[12.9987,52.5708]]]}},{"type":"Feature","properties":{"ags":"12063228","name":"Paulinenaue","ewz":1374,"dist_km":45.1,"city":false,"warm_m2":14.14,"own_value":true,"m2_median":59,"share_median":0.307,"m2_p25":46,"share_p25":0.389},"geometry":{"type":"Polygon","coordinates":[[[12.764,52.6975],[12.734,52.7038],[12.6929,52.6904],[12.6913,52.6883],[12.6906,52.6748],[12.7102,52.6553],[12.7206,52.6621],[12.7202,52.6548],[12.7218,52.6431],[12.7065,52.6447],[12.7023,52.6337],[12.7197,52.6066],[12.7316,52.6144],[12.7408,52.6396],[12.7576,52.6539],[12.7692,52.6687],[12.7496,52.6737],[12.766,52.6946],[12.764,52.6975]]]}},{"type":"Feature","properties":{"ags":"12064029","name":"Altlandsberg","ewz":9799,"dist_km":28.4,"city":false,"warm_m2":12.76,"own_value":true,"m2_median":64,"share_median":0.281,"m2_p25":50,"share_p25":0.357},"geometry":{"type":"Polygon","coordinates":[[[13.9045,52.6364],[13.8814,52.6462],[13.8456,52.6473],[13.8332,52.6372],[13.8335,52.6294],[13.7821,52.6235],[13.7285,52.6123],[13.7269,52.6016],[13.7123,52.5996],[13.7171,52.5901],[13.7003,52.5905],[13.6919,52.5797],[13.6818,52.5782],[13.6714,52.5821],[13.6712,52.5779],[13.6859,52.5768],[13.6853,52.5705],[13.6743,52.5702],[13.6756,52.567],[13.6736,52.5659],[13.6692,52.5668],[13.6684,52.5661],[13.6779,52.5631],[13.6714,52.5518],[13.6705,52.5451],[13.673,52.5452],[13.6732,52.5464],[13.7089,52.5441],[13.72,52.5454],[13.7197,52.5433],[13.7324,52.5417],[13.7657,52.5475],[13.7677,52.542],[13.7731,52.5437],[13.775,52.5428],[13.7759,52.5443],[13.7749,52.5466],[13.7788,52.5468],[13.8036,52.5456],[13.8166,52.5403],[13.8229,52.5491],[13.8258,52.5584],[13.8309,52.5579],[13.8303,52.5654],[13.8279,52.573],[13.827,52.5823],[13.8359,52.5935],[13.8338,52.6025],[13.8664,52.6021],[13.9195,52.5976],[13.9252,52.5996],[13.9324,52.6041],[13.9389,52.6072],[13.9377,52.6139],[13.9261,52.6356],[13.9045,52.6364]]]}},{"type":"Feature","properties":{"ags":"12064136","name":"Fredersdorf-Vogelsdorf","ewz":14742,"dist_km":25.7,"city":false,"warm_m2":14.2,"own_value":true,"m2_median":58,"share_median":0.313,"m2_p25":45,"share_p25":0.398},"geometry":{"type":"Polygon","coordinates":[[[13.775,52.5428],[13.7731,52.5437],[13.7677,52.542],[13.7657,52.5475],[13.7324,52.5417],[13.7429,52.5391],[13.7338,52.5179],[13.7094,52.5045],[13.7166,52.4968],[13.7229,52.4899],[13.7396,52.4948],[13.7609,52.4892],[13.7682,52.5029],[13.7763,52.5117],[13.753,52.5173],[13.7677,52.5231],[13.7664,52.5383],[13.773,52.5409],[13.775,52.5428]]]}},{"type":"Feature","properties":{"ags":"12064227","name":"Hoppegarten","ewz":18556,"dist_km":18.6,"city":false,"warm_m2":15.19,"own_value":true,"m2_median":53,"share_median":0.337,"m2_p25":42,"share_p25":0.428},"geometry":{"type":"MultiPolygon","coordinates":[[[[13.6859,52.499],[13.6828,52.5172],[13.6586,52.5258],[13.6333,52.5118],[13.615,52.4808],[13.6171,52.4712],[13.6406,52.4795],[13.667,52.4742],[13.6783,52.4941],[13.6859,52.499]]],[[[13.6653,52.5673],[13.6409,52.5684],[13.6157,52.5613],[13.6105,52.551],[13.6108,52.5442],[13.6354,52.5416],[13.6314,52.5308],[13.6569,52.5299],[13.6574,52.5345],[13.6608,52.5387],[13.6725,52.5434],[13.673,52.5452],[13.6705,52.5451],[13.6714,52.5518],[13.6779,52.5631],[13.6653,52.5673]]]]}},{"type":"Feature","properties":{"ags":"12064317","name":"Müncheberg","ewz":7135,"dist_km":53.8,"city":false,"warm_m2":10.89,"own_value":true,"m2_median":77,"share_median":0.235,"m2_p25":60,"share_p25":0.298},"geometry":{"type":"Polygon","coordinates":[[[14.1767,52.6015],[14.1714,52.5985],[14.1712,52.5936],[14.1611,52.5836],[14.1274,52.5762],[14.1202,52.5694],[14.1178,52.5638],[14.1179,52.5589],[14.1274,52.5539],[14.0936,52.5497],[14.0865,52.5339],[14.0682,52.5255],[14.0455,52.509],[14.0193,52.5153],[13.996,52.4926],[13.9745,52.4874],[13.9687,52.4809],[13.9599,52.4686],[13.9705,52.4678],[13.977,52.4664],[13.9776,52.4685],[13.9865,52.4656],[13.9926,52.4616],[13.9927,52.4556],[14.0071,52.4468],[14.0208,52.4577],[14.028,52.4708],[14.0734,52.4806],[14.0824,52.4659],[14.0769,52.4534],[14.089,52.4508],[14.0975,52.4633],[14.1121,52.4599],[14.1363,52.466],[14.1676,52.4666],[14.1819,52.4726],[14.1824,52.4889],[14.1885,52.4987],[14.2115,52.4961],[14.2204,52.493],[14.2291,52.4967],[14.2304,52.4945],[14.2437,52.4973],[14.2588,52.5139],[14.2538,52.5301],[14.2412,52.5446],[14.2139,52.5476],[14.2175,52.5628],[14.2147,52.5807],[14.1978,52.5901],[14.1797,52.5914],[14.1767,52.6015]]]}},{"type":"Feature","properties":{"ags":"12064336","name":"Neuenhagen bei Berlin","ewz":19143,"dist_km":22.5,"city":false,"warm_m2":15.14,"own_value":true,"m2_median":54,"share_median":0.334,"m2_p25":42,"share_p25":0.425},"geometry":{"type":"Polygon","coordinates":[[[13.7197,52.5433],[13.72,52.5454],[13.7089,52.5441],[13.6732,52.5464],[13.672,52.543],[13.663,52.5402],[13.6587,52.5367],[13.6569,52.5307],[13.6586,52.5258],[13.6828,52.5172],[13.6859,52.499],[13.6918,52.5028],[13.711,52.5027],[13.7094,52.5045],[13.7338,52.5179],[13.7429,52.5391],[13.7197,52.5433]]]}},{"type":"Feature","properties":{"ags":"12064380","name":"Petershagen/Eggersdorf","ewz":15757,"dist_km":28.6,"city":false,"warm_m2":14.27,"own_value":true,"m2_median":57,"share_median":0.314,"m2_p25":45,"share_p25":0.399},"geometry":{"type":"Polygon","coordinates":[[[13.843,52.5525],[13.8309,52.5579],[13.8258,52.5584],[13.8229,52.5491],[13.8166,52.5403],[13.8036,52.5456],[13.7788,52.5468],[13.7749,52.5466],[13.7758,52.5438],[13.7737,52.5414],[13.7664,52.5383],[13.7677,52.5231],[13.753,52.5173],[13.7763,52.5117],[13.7826,52.5133],[13.8182,52.506],[13.8362,52.5154],[13.8117,52.5239],[13.8168,52.5325],[13.8377,52.5376],[13.843,52.5525]]]}},{"type":"Feature","properties":{"ags":"12064428","name":"Rüdersdorf bei Berlin","ewz":16296,"dist_km":31.4,"city":false,"warm_m2":11.83,"own_value":true,"m2_median":69,"share_median":0.259,"m2_p25":55,"share_p25":0.33},"geometry":{"type":"Polygon","coordinates":[[[13.9156,52.475],[13.9103,52.4874],[13.9142,52.4976],[13.8813,52.5019],[13.8752,52.515],[13.8782,52.5272],[13.87,52.5297],[13.8613,52.5245],[13.8474,52.5212],[13.8378,52.5133],[13.8182,52.506],[13.7826,52.5133],[13.7682,52.5029],[13.7609,52.4892],[13.7396,52.4948],[13.7417,52.4859],[13.7436,52.4668],[13.7432,52.4656],[13.7588,52.466],[13.7749,52.466],[13.7676,52.4599],[13.7651,52.4534],[13.7644,52.4467],[13.805,52.4437],[13.803,52.4393],[13.8252,52.4401],[13.8531,52.4529],[13.8794,52.4572],[13.8869,52.4683],[13.8998,52.4741],[13.9156,52.475]]]}},{"type":"Feature","properties":{"ags":"12064472","name":"Strausberg","ewz":27780,"dist_km":36.6,"city":false,"warm_m2":12.4,"own_value":true,"m2_median":66,"share_median":0.271,"m2_p25":52,"share_p25":0.344},"geometry":{"type":"Polygon","coordinates":[[[13.9373,52.6012],[13.9324,52.6028],[13.9252,52.5996],[13.9195,52.5976],[13.8664,52.6021],[13.8338,52.6025],[13.8359,52.5935],[13.827,52.5823],[13.8279,52.573],[13.8303,52.5654],[13.8309,52.5579],[13.843,52.5525],[13.8377,52.5376],[13.8168,52.5325],[13.8117,52.5239],[13.8362,52.5154],[13.8378,52.5133],[13.8474,52.5212],[13.8613,52.5245],[13.872,52.5344],[13.8786,52.5435],[13.9118,52.5446],[13.9396,52.5516],[13.9621,52.5402],[13.9748,52.5437],[13.9816,52.5598],[13.9887,52.5635],[13.9902,52.5651],[13.9999,52.5667],[14.0037,52.5653],[14.0183,52.571],[14.021,52.5714],[13.9965,52.6003],[13.9868,52.5992],[13.9858,52.5793],[13.9402,52.5703],[13.9267,52.5771],[13.9324,52.5845],[13.9373,52.6012]]]}},{"type":"Feature","properties":{"ags":"12064053","name":"Beiersdorf-Freudenberg","ewz":627,"dist_km":35.1,"city":false,"warm_m2":10.22,"own_value":true,"m2_median":81,"share_median":0.224,"m2_p25":63,"share_p25":0.284},"geometry":{"type":"Polygon","coordinates":[[[13.8119,52.7099],[13.7796,52.7228],[13.7543,52.7135],[13.7735,52.6769],[13.7803,52.6669],[13.8154,52.6782],[13.843,52.6914],[13.8548,52.695],[13.8656,52.7029],[13.8665,52.707],[13.8485,52.7155],[13.8119,52.7099]]]}},{"type":"Feature","properties":{"ags":"12064125","name":"Falkenberg","ewz":2274,"dist_km":47.2,"city":false,"warm_m2":9.32,"own_value":true,"m2_median":89,"share_median":0.202,"m2_p25":70,"share_p25":0.256},"geometry":{"type":"Polygon","coordinates":[[[13.9898,52.8259],[13.9873,52.8325],[13.9774,52.8314],[13.9601,52.8274],[13.9542,52.828],[13.9548,52.8258],[13.9409,52.8247],[13.9429,52.8142],[13.9232,52.7945],[13.9039,52.7897],[13.8635,52.7876],[13.8631,52.7729],[13.8615,52.7588],[13.8548,52.758],[13.8574,52.7429],[13.9027,52.7371],[13.9019,52.7519],[13.9131,52.7567],[13.9479,52.7544],[13.9526,52.7459],[13.968,52.7422],[13.9767,52.7388],[13.9989,52.7491],[14.0046,52.7557],[13.9937,52.7609],[14.0005,52.7701],[13.9809,52.7903],[14.0074,52.8175],[13.9898,52.8259]]]}},{"type":"Feature","properties":{"ags":"12064205","name":"Heckelberg-Brunow","ewz":726,"dist_km":38.8,"city":false,"warm_m2":9.47,"own_value":true,"m2_median":87,"share_median":0.206,"m2_p25":69,"share_p25":0.262},"geometry":{"type":"Polygon","coordinates":[[[13.9027,52.7371],[13.8574,52.7429],[13.8548,52.758],[13.8284,52.7532],[13.7996,52.7443],[13.785,52.7468],[13.7635,52.7437],[13.7371,52.7345],[13.7594,52.7165],[13.7796,52.7228],[13.8119,52.7099],[13.8485,52.7155],[13.8665,52.707],[13.8746,52.7085],[13.8975,52.7252],[13.9049,52.7289],[13.9027,52.7371]]]}},{"type":"Feature","properties":{"ags":"12064222","name":"Höhenland","ewz":1081,"dist_km":43.3,"city":false,"warm_m2":9.78,"own_value":true,"m2_median":85,"share_median":0.213,"m2_p25":67,"share_p25":0.27},"geometry":{"type":"Polygon","coordinates":[[[13.9479,52.7544],[13.9131,52.7567],[13.9019,52.7519],[13.9027,52.7371],[13.9049,52.7289],[13.8975,52.7252],[13.8746,52.7085],[13.8665,52.707],[13.8656,52.7029],[13.8548,52.695],[13.8497,52.6936],[13.8511,52.6911],[13.848,52.6892],[13.8582,52.6846],[13.8528,52.6779],[13.8566,52.6702],[13.8738,52.6661],[13.8962,52.6661],[13.9127,52.6845],[13.9531,52.6891],[13.9702,52.6943],[13.9812,52.7154],[13.988,52.7152],[14.0015,52.7173],[13.994,52.7296],[13.9825,52.7358],[13.968,52.7422],[13.9526,52.7459],[13.9479,52.7544]]]}},{"type":"Feature","properties":{"ags":"12064084","name":"Buckow (Märkische Schweiz)","ewz":1493,"dist_km":47.4,"city":false,"warm_m2":12.87,"own_value":true,"m2_median":65,"share_median":0.279,"m2_p25":51,"share_p25":0.354},"geometry":{"type":"Polygon","coordinates":[[[14.1202,52.5694],[14.1274,52.5762],[14.1179,52.5783],[14.1104,52.5796],[14.1009,52.5729],[14.0618,52.5775],[14.0547,52.5682],[14.0422,52.5674],[14.0183,52.571],[14.0037,52.5653],[14.0126,52.56],[14.0544,52.5574],[14.0634,52.5519],[14.0893,52.551],[14.1033,52.5601],[14.1179,52.5589],[14.1178,52.5638],[14.1202,52.5694]]]}},{"type":"Feature","properties":{"ags":"12064153","name":"Garzau-Garzin","ewz":458,"dist_km":43.6,"city":false,"warm_m2":10.9,"own_value":true,"m2_median":76,"share_median":0.237,"m2_p25":60,"share_p25":0.301},"geometry":{"type":"Polygon","coordinates":[[[13.9999,52.5667],[13.9902,52.5651],[13.9887,52.5635],[13.9816,52.5598],[13.9748,52.5437],[13.9621,52.5402],[13.9396,52.5516],[13.9118,52.5446],[13.9327,52.5317],[13.9548,52.5276],[14.0158,52.5214],[14.0231,52.5194],[14.0345,52.531],[14.0499,52.5427],[14.0379,52.5583],[14.0126,52.56],[14.0037,52.5653],[13.9999,52.5667]]]}},{"type":"Feature","properties":{"ags":"12064370","name":"Oberbarnim","ewz":2026,"dist_km":44.7,"city":false,"warm_m2":11.1,"own_value":true,"m2_median":75,"share_median":0.241,"m2_p25":59,"share_p25":0.306},"geometry":{"type":"Polygon","coordinates":[[[14.088,52.6358],[14.0476,52.6323],[14.0453,52.615],[14.0309,52.6142],[14.0257,52.6206],[14.0201,52.62],[14.015,52.6108],[13.9986,52.6143],[13.9833,52.6046],[13.9762,52.6172],[13.956,52.6096],[13.946,52.6096],[13.9449,52.6113],[13.9382,52.6097],[13.9389,52.6072],[13.9324,52.6041],[13.9324,52.6028],[13.9373,52.6012],[13.9324,52.5845],[13.9267,52.5771],[13.9402,52.5703],[13.9858,52.5793],[13.9868,52.5992],[13.9965,52.6003],[14.021,52.5714],[14.0422,52.5674],[14.0547,52.5682],[14.0618,52.5775],[14.1009,52.5729],[14.1104,52.5796],[14.1145,52.5802],[14.1055,52.5935],[14.091,52.6065],[14.1002,52.6218],[14.088,52.6358]]]}},{"type":"Feature","properties":{"ags":"12064408","name":"Rehfelde","ewz":5376,"dist_km":39,"city":false,"warm_m2":13.16,"own_value":true,"m2_median":63,"share_median":0.287,"m2_p25":49,"share_p25":0.364},"geometry":{"type":"Polygon","coordinates":[[[14.0158,52.5214],[13.9548,52.5276],[13.9327,52.5317],[13.9118,52.5446],[13.8786,52.5435],[13.872,52.5344],[13.87,52.5297],[13.8782,52.5272],[13.8752,52.515],[13.8813,52.5019],[13.9142,52.4976],[13.9103,52.4874],[13.9156,52.475],[13.9274,52.4732],[13.9503,52.4769],[13.9687,52.4809],[13.9745,52.4874],[13.996,52.4926],[14.0231,52.5194],[14.0158,52.5214]]]}},{"type":"Feature","properties":{"ags":"12064484","name":"Waldsieversdorf","ewz":846,"dist_km":47.3,"city":false,"warm_m2":11.91,"own_value":true,"m2_median":70,"share_median":0.258,"m2_p25":55,"share_p25":0.327},"geometry":{"type":"Polygon","coordinates":[[[14.0193,52.5153],[14.0455,52.509],[14.0682,52.5255],[14.0865,52.5339],[14.0936,52.5497],[14.1274,52.5539],[14.1179,52.5589],[14.1033,52.5601],[14.0893,52.551],[14.0634,52.5519],[14.0544,52.5574],[14.0379,52.5583],[14.0499,52.5427],[14.0345,52.531],[14.0193,52.5153]]]}},{"type":"Feature","properties":{"ags":"12064393","name":"Prötzel","ewz":1089,"dist_km":41.1,"city":false,"warm_m2":11.18,"own_value":true,"m2_median":74,"share_median":0.243,"m2_p25":58,"share_p25":0.309},"geometry":{"type":"Polygon","coordinates":[[[13.9939,52.7033],[13.9845,52.7058],[13.988,52.7152],[13.9812,52.7154],[13.9702,52.6943],[13.9531,52.6891],[13.9127,52.6845],[13.8962,52.6661],[13.8738,52.6661],[13.8566,52.6702],[13.8489,52.6595],[13.8378,52.6532],[13.8456,52.6473],[13.8814,52.6462],[13.9045,52.6364],[13.9261,52.6356],[13.9377,52.6139],[13.9382,52.6097],[13.9449,52.6113],[13.946,52.6096],[13.956,52.6096],[13.9762,52.6172],[13.9833,52.6046],[13.9986,52.6143],[14.015,52.6108],[14.0201,52.62],[14.0257,52.6206],[14.0309,52.6142],[14.0453,52.615],[14.0476,52.6323],[14.0396,52.6418],[14.0156,52.6501],[14.0169,52.6599],[14.0286,52.666],[14.0305,52.6679],[14.0248,52.6691],[14.0216,52.6713],[14.0404,52.6887],[14.0062,52.7061],[13.9939,52.7033]]]}},{"type":"Feature","properties":{"ags":"12065036","name":"Birkenwerder","ewz":8135,"dist_km":20.2,"city":false,"warm_m2":16.23,"own_value":true,"m2_median":50,"share_median":0.359,"m2_p25":39,"share_p25":0.457},"geometry":{"type":"Polygon","coordinates":[[[13.3432,52.7164],[13.3148,52.7255],[13.2998,52.7082],[13.2819,52.7111],[13.2523,52.6981],[13.247,52.6864],[13.2563,52.6809],[13.2802,52.6856],[13.2933,52.6838],[13.308,52.6876],[13.3092,52.7005],[13.3606,52.6979],[13.3641,52.6986],[13.3652,52.7123],[13.3441,52.7182],[13.3432,52.7164]]]}},{"type":"Feature","properties":{"ags":"12065096","name":"Glienicke/Nordbahn","ewz":12201,"dist_km":12.3,"city":false,"warm_m2":17.38,"own_value":true,"m2_median":47,"share_median":0.385,"m2_p25":37,"share_p25":0.49},"geometry":{"type":"Polygon","coordinates":[[[13.3273,52.6395],[13.3193,52.6403],[13.3093,52.6431],[13.3083,52.6297],[13.3365,52.6227],[13.3442,52.6234],[13.3465,52.6289],[13.3544,52.6305],[13.3544,52.6381],[13.3387,52.6354],[13.3273,52.6395]]]}},{"type":"Feature","properties":{"ags":"12065136","name":"Hennigsdorf","ewz":26623,"dist_km":16.1,"city":false,"warm_m2":14.73,"own_value":true,"m2_median":55,"share_median":0.326,"m2_p25":43,"share_p25":0.415},"geometry":{"type":"Polygon","coordinates":[[[13.2383,52.6278],[13.2415,52.6551],[13.2398,52.6614],[13.2335,52.6697],[13.229,52.6735],[13.2058,52.662],[13.1888,52.663],[13.1828,52.6615],[13.175,52.6458],[13.1754,52.6329],[13.1589,52.6083],[13.1531,52.604],[13.1643,52.5989],[13.1738,52.5953],[13.1922,52.59],[13.2173,52.5875],[13.2186,52.592],[13.2033,52.6032],[13.202,52.6071],[13.2068,52.6091],[13.2207,52.6282],[13.2304,52.6274],[13.2383,52.6278]]]}},{"type":"Feature","properties":{"ags":"12065144","name":"Hohen Neuendorf","ewz":27131,"dist_km":18,"city":false,"warm_m2":17.6,"own_value":true,"m2_median":46,"share_median":0.39,"m2_p25":36,"share_p25":0.496},"geometry":{"type":"Polygon","coordinates":[[[13.2741,52.7393],[13.2686,52.7389],[13.266,52.7354],[13.2646,52.7258],[13.2512,52.7241],[13.2424,52.712],[13.2175,52.7105],[13.2067,52.7051],[13.2132,52.7008],[13.2486,52.698],[13.2415,52.6831],[13.229,52.6735],[13.2371,52.6656],[13.2413,52.6567],[13.2383,52.6278],[13.2643,52.6269],[13.2684,52.6398],[13.2824,52.6413],[13.2829,52.6608],[13.31,52.6574],[13.3258,52.6696],[13.3468,52.6737],[13.3492,52.6869],[13.359,52.6893],[13.3606,52.6979],[13.3092,52.7005],[13.308,52.6876],[13.2933,52.6838],[13.2802,52.6856],[13.2563,52.6809],[13.247,52.6864],[13.2523,52.6981],[13.2819,52.7111],[13.2998,52.7082],[13.3148,52.7255],[13.2741,52.7393]]]}},{"type":"Feature","properties":{"ags":"12065165","name":"Kremmen","ewz":7745,"dist_km":36.1,"city":false,"warm_m2":13.59,"own_value":true,"m2_median":61,"share_median":0.297,"m2_p25":48,"share_p25":0.377},"geometry":{"type":"Polygon","coordinates":[[[13.1808,52.8007],[13.1638,52.8022],[13.1488,52.81],[13.1104,52.8134],[13.0988,52.8014],[13.0882,52.801],[13.0853,52.8359],[13.1032,52.8438],[13.0929,52.857],[13.1121,52.8727],[13.0845,52.8973],[13.0667,52.8827],[13.0508,52.876],[13.0435,52.8543],[13.0286,52.8555],[13.0157,52.8655],[12.9752,52.8621],[12.9872,52.8438],[12.9731,52.8421],[12.9662,52.8426],[12.9674,52.8397],[12.9546,52.8375],[12.9525,52.834],[12.9713,52.8314],[12.9714,52.8287],[12.9774,52.8276],[12.98,52.8178],[12.9704,52.8173],[12.9631,52.8123],[12.938,52.8041],[12.9439,52.8009],[12.9378,52.7936],[12.924,52.7904],[12.9192,52.7946],[12.9103,52.7722],[12.9228,52.7701],[12.9213,52.7447],[12.9098,52.7443],[12.872,52.727],[12.8808,52.7185],[12.8655,52.7105],[12.8467,52.7055],[12.825,52.7076],[12.8288,52.6948],[12.8542,52.7016],[12.8673,52.7042],[12.8717,52.7092],[12.9237,52.7192],[12.929,52.725],[12.947,52.7226],[12.9634,52.7203],[12.9694,52.701],[12.9838,52.7014],[12.9817,52.7024],[13.0055,52.7121],[13.0246,52.7091],[13.0315,52.7216],[13.0506,52.7276],[13.052,52.7363],[13.0859,52.7466],[13.1018,52.7607],[13.1108,52.7624],[13.1313,52.7603],[13.1594,52.7644],[13.1774,52.7776],[13.2005,52.7861],[13.2024,52.794],[13.2006,52.7957],[13.2008,52.8012],[13.1905,52.8041],[13.1884,52.8065],[13.1808,52.8007]]]}},{"type":"Feature","properties":{"ags":"12065180","name":"Leegebruch","ewz":6940,"dist_km":25.2,"city":false,"warm_m2":16.63,"own_value":true,"m2_median":49,"share_median":0.367,"m2_p25":39,"share_p25":0.466},"geometry":{"type":"Polygon","coordinates":[[[13.1985,52.7352],[13.1954,52.7445],[13.1977,52.7358],[13.1848,52.7333],[13.1823,52.7241],[13.1789,52.719],[13.1811,52.7185],[13.1769,52.713],[13.196,52.7036],[13.213,52.7136],[13.212,52.7154],[13.2071,52.7267],[13.2077,52.7314],[13.1985,52.7352]]]}},{"type":"Feature","properties":{"ags":"12065193","name":"Liebenwalde","ewz":4500,"dist_km":37.3,"city":false,"warm_m2":12.73,"own_value":true,"m2_median":65,"share_median":0.278,"m2_p25":51,"share_p25":0.353},"geometry":{"type":"Polygon","coordinates":[[[13.5049,52.8761],[13.4614,52.8853],[13.4659,52.8918],[13.4878,52.8999],[13.4728,52.9065],[13.4728,52.9186],[13.4566,52.9196],[13.4338,52.9144],[13.4284,52.9064],[13.412,52.9097],[13.4105,52.9233],[13.3989,52.9301],[13.3917,52.9257],[13.3801,52.9253],[13.3624,52.9175],[13.3484,52.9011],[13.3125,52.876],[13.3061,52.8663],[13.2942,52.8697],[13.2771,52.8511],[13.2686,52.8546],[13.2552,52.8436],[13.2538,52.8315],[13.255,52.8293],[13.2585,52.83],[13.2692,52.8228],[13.2948,52.8288],[13.3207,52.8399],[13.3333,52.8421],[13.3471,52.8344],[13.3534,52.8308],[13.3587,52.8304],[13.3513,52.8271],[13.3704,52.7955],[13.3801,52.8006],[13.4098,52.8038],[13.4147,52.8054],[13.422,52.8042],[13.4794,52.8088],[13.4946,52.8145],[13.4991,52.8312],[13.5193,52.8459],[13.5087,52.8513],[13.485,52.8528],[13.47,52.8705],[13.4747,52.878],[13.492,52.8729],[13.5078,52.8735],[13.5049,52.8761]]]}},{"type":"Feature","properties":{"ags":"12065198","name":"Löwenberger Land","ewz":8741,"dist_km":40.6,"city":false,"warm_m2":12.14,"own_value":true,"m2_median":68,"share_median":0.264,"m2_p25":54,"share_p25":0.336},"geometry":{"type":"MultiPolygon","coordinates":[[[[13.2414,52.9533],[13.2187,52.9547],[13.1833,52.9555],[13.1648,52.9535],[13.1263,52.9554],[13.1064,52.9521],[13.0884,52.9562],[13.0713,52.9522],[13.0657,52.9525],[13.0568,52.956],[13.0493,52.9458],[13.0517,52.9356],[13.0467,52.9173],[13.0382,52.9132],[13.0178,52.9059],[13.024,52.8844],[13.0389,52.8778],[13.0392,52.8547],[13.0435,52.8543],[13.0508,52.876],[13.0667,52.8827],[13.0845,52.8973],[13.1121,52.8727],[13.0929,52.857],[13.1032,52.8438],[13.0853,52.8359],[13.0882,52.801],[13.0988,52.8014],[13.1104,52.8134],[13.1488,52.81],[13.1638,52.8022],[13.1808,52.8007],[13.1884,52.8065],[13.1905,52.8041],[13.2008,52.8012],[13.2014,52.802],[13.2118,52.8072],[13.2232,52.807],[13.2421,52.8145],[13.2557,52.8201],[13.2546,52.8265],[13.255,52.8293],[13.2538,52.8315],[13.2552,52.8436],[13.2686,52.8546],[13.2771,52.8511],[13.2942,52.8697],[13.3061,52.8663],[13.3125,52.876],[13.3484,52.9011],[13.3535,52.9124],[13.3689,52.9266],[13.374,52.9456],[13.3716,52.9477],[13.3669,52.9485],[13.3384,52.9442],[13.3339,52.9228],[13.2958,52.9315],[13.2816,52.9228],[13.2434,52.9143],[13.2228,52.9206],[13.2444,52.9363],[13.2452,52.9467],[13.2414,52.9533]]],[[[13.2001,52.7982],[13.201,52.7951],[13.2047,52.7959],[13.2048,52.7981],[13.2001,52.7982]]]]}},{"type":"Feature","properties":{"ags":"12065225","name":"Mühlenbecker Land","ewz":15438,"dist_km":17.3,"city":false,"warm_m2":16.11,"own_value":true,"m2_median":50,"share_median":0.357,"m2_p25":40,"share_p25":0.454},"geometry":{"type":"Polygon","coordinates":[[[13.4057,52.7387],[13.4089,52.745],[13.3972,52.7439],[13.3948,52.7422],[13.382,52.739],[13.3688,52.7323],[13.3609,52.7315],[13.3445,52.719],[13.3441,52.7182],[13.3652,52.7123],[13.3641,52.6986],[13.359,52.6893],[13.3492,52.6869],[13.3468,52.6737],[13.3258,52.6696],[13.31,52.6574],[13.3004,52.6535],[13.3093,52.6431],[13.3193,52.6403],[13.3273,52.6395],[13.3387,52.6354],[13.3544,52.6381],[13.3544,52.6305],[13.3465,52.6289],[13.3446,52.6248],[13.3509,52.6247],[13.3524,52.6234],[13.376,52.6293],[13.3831,52.6363],[13.3967,52.6483],[13.4022,52.648],[13.3999,52.6564],[13.4137,52.6683],[13.4038,52.6744],[13.4028,52.6919],[13.4088,52.697],[13.4044,52.7096],[13.4209,52.7085],[13.4188,52.7201],[13.4071,52.722],[13.4243,52.7345],[13.4057,52.7387]]]}},{"type":"Feature","properties":{"ags":"12065251","name":"Oberkrämer","ewz":11980,"dist_km":25.7,"city":false,"warm_m2":14.55,"own_value":true,"m2_median":56,"share_median":0.321,"m2_p25":44,"share_p25":0.408},"geometry":{"type":"Polygon","coordinates":[[[13.1365,52.7569],[13.1108,52.7624],[13.1018,52.7607],[13.0859,52.7466],[13.052,52.7363],[13.0506,52.7276],[13.0315,52.7216],[13.0246,52.7091],[13.0055,52.7121],[12.9817,52.7024],[12.9956,52.6976],[12.9916,52.6925],[13.0124,52.69],[13.0227,52.6891],[13.0174,52.6765],[13.0182,52.6708],[13.0452,52.6688],[13.0766,52.6779],[13.09,52.6708],[13.1115,52.6344],[13.1564,52.6284],[13.1601,52.6165],[13.1551,52.6065],[13.1589,52.6083],[13.1754,52.6329],[13.175,52.6458],[13.1828,52.6615],[13.1939,52.6681],[13.1673,52.6731],[13.1556,52.6952],[13.1615,52.7158],[13.1733,52.7144],[13.1787,52.7332],[13.1604,52.7343],[13.1564,52.7287],[13.1389,52.7257],[13.1401,52.7401],[13.1365,52.7569]]]}},{"type":"Feature","properties":{"ags":"12065256","name":"Oranienburg","ewz":48492,"dist_km":28.7,"city":false,"warm_m2":15.43,"own_value":true,"m2_median":53,"share_median":0.339,"m2_p25":42,"share_p25":0.431},"geometry":{"type":"Polygon","coordinates":[[[13.3471,52.8344],[13.3333,52.8421],[13.3207,52.8399],[13.2934,52.8283],[13.2692,52.8228],[13.2585,52.83],[13.2546,52.8265],[13.2557,52.8201],[13.2421,52.8145],[13.2232,52.807],[13.2118,52.8072],[13.2014,52.802],[13.1998,52.799],[13.2001,52.7982],[13.2048,52.7981],[13.2053,52.7966],[13.2015,52.7949],[13.2024,52.7936],[13.2005,52.7861],[13.1774,52.7776],[13.1594,52.7644],[13.1313,52.7603],[13.1365,52.7569],[13.1401,52.7401],[13.1389,52.7257],[13.1564,52.7287],[13.1604,52.7343],[13.1787,52.7332],[13.1733,52.7144],[13.1823,52.7241],[13.1848,52.7333],[13.1977,52.7358],[13.1954,52.7445],[13.1985,52.7352],[13.2077,52.7314],[13.2071,52.7267],[13.212,52.7154],[13.2175,52.7105],[13.2424,52.712],[13.2512,52.7241],[13.2646,52.7258],[13.266,52.7354],[13.2686,52.7389],[13.2741,52.7393],[13.3432,52.7164],[13.3445,52.719],[13.3609,52.7315],[13.3688,52.7323],[13.382,52.739],[13.3948,52.7422],[13.3972,52.7439],[13.406,52.749],[13.4147,52.7512],[13.4048,52.77],[13.4065,52.7805],[13.4307,52.7895],[13.422,52.8042],[13.4147,52.8054],[13.3813,52.8008],[13.3704,52.7955],[13.3513,52.8271],[13.3587,52.8304],[13.3534,52.8308],[13.3471,52.8344]]]}},{"type":"Feature","properties":{"ags":"12065332","name":"Velten","ewz":12733,"dist_km":21.5,"city":false,"warm_m2":15.05,"own_value":true,"m2_median":54,"share_median":0.333,"m2_p25":43,"share_p25":0.423},"geometry":{"type":"Polygon","coordinates":[[[13.1769,52.713],[13.1811,52.7185],[13.1789,52.719],[13.1733,52.7144],[13.1615,52.7158],[13.1556,52.6952],[13.1673,52.6731],[13.1939,52.6681],[13.1888,52.663],[13.2058,52.662],[13.229,52.6735],[13.2415,52.6831],[13.2486,52.698],[13.2132,52.7008],[13.2067,52.7051],[13.213,52.7136],[13.196,52.7036],[13.1769,52.713]]]}},{"type":"Feature","properties":{"ags":"12065356","name":"Zehdenick","ewz":13267,"dist_km":51.2,"city":false,"warm_m2":11.75,"own_value":true,"m2_median":71,"share_median":0.254,"m2_p25":56,"share_p25":0.322},"geometry":{"type":"Polygon","coordinates":[[[13.3718,53.0741],[13.3665,53.0793],[13.3576,53.0774],[13.3491,53.075],[13.3054,53.0606],[13.2818,53.0627],[13.2683,53.0561],[13.2566,53.0495],[13.2358,53.0533],[13.2197,53.0286],[13.2289,53.0201],[13.2456,53.0185],[13.239,53.0159],[13.2117,52.9997],[13.2221,52.9831],[13.2274,52.958],[13.2402,52.9558],[13.2452,52.9467],[13.2444,52.9363],[13.2228,52.9206],[13.2434,52.9143],[13.2816,52.9228],[13.2958,52.9315],[13.3339,52.9228],[13.3384,52.9442],[13.369,52.9484],[13.374,52.9456],[13.3689,52.9266],[13.3535,52.9124],[13.3484,52.9011],[13.3624,52.9175],[13.3801,52.9253],[13.3917,52.9257],[13.3989,52.9301],[13.4014,52.9385],[13.4296,52.9489],[13.4416,52.9595],[13.4571,52.9658],[13.4835,52.9634],[13.5134,52.9749],[13.5179,52.9887],[13.5129,52.989],[13.4913,52.9872],[13.5009,52.9983],[13.4871,53.0021],[13.4859,53.009],[13.4604,53.0084],[13.4521,53.0219],[13.4068,53.0253],[13.4028,53.0315],[13.4155,53.0533],[13.4081,53.0584],[13.3888,53.0611],[13.3718,53.0741]]]}},{"type":"Feature","properties":{"ags":"12067124","name":"Erkner","ewz":12008,"dist_km":29.3,"city":false,"warm_m2":12.32,"own_value":true,"m2_median":66,"share_median":0.271,"m2_p25":52,"share_p25":0.344},"geometry":{"type":"Polygon","coordinates":[[[13.7596,52.4363],[13.7523,52.4371],[13.7379,52.4269],[13.7334,52.4228],[13.7297,52.4159],[13.7336,52.4111],[13.7387,52.4073],[13.7419,52.4053],[13.7461,52.3994],[13.748,52.3906],[13.7581,52.3919],[13.7643,52.3915],[13.7734,52.3871],[13.7751,52.3854],[13.7891,52.3843],[13.7902,52.3895],[13.7877,52.4186],[13.79,52.4258],[13.7939,52.4305],[13.7677,52.4322],[13.76,52.4373],[13.7596,52.4363]]]}},{"type":"Feature","properties":{"ags":"12067144","name":"Fürstenwalde/Spree","ewz":32763,"dist_km":49.3,"city":false,"warm_m2":12.09,"own_value":true,"m2_median":69,"share_median":0.261,"m2_p25":54,"share_p25":0.332},"geometry":{"type":"Polygon","coordinates":[[[14.1248,52.3755],[14.1039,52.3758],[14.0923,52.3957],[14.0904,52.4112],[14.0784,52.4144],[14.0798,52.4265],[14.0568,52.4266],[14.0504,52.4183],[14.0192,52.4115],[14.0145,52.4009],[14.0243,52.3946],[14.0212,52.3866],[13.9949,52.3858],[13.9783,52.3941],[13.9509,52.4018],[13.9388,52.3966],[13.9478,52.3877],[13.9481,52.3852],[13.9709,52.3783],[13.992,52.3744],[13.9967,52.369],[13.989,52.3504],[14.0005,52.3442],[14.0028,52.3408],[14.0042,52.3445],[14.0185,52.3537],[14.0305,52.3569],[14.0451,52.3478],[14.0634,52.3299],[14.0839,52.3227],[14.117,52.3472],[14.1311,52.3492],[14.1446,52.3511],[14.1402,52.3558],[14.1494,52.3597],[14.1471,52.3722],[14.1248,52.3755]]]}},{"type":"Feature","properties":{"ags":"12067201","name":"Grünheide (Mark)","ewz":9193,"dist_km":38.2,"city":false,"warm_m2":14.52,"own_value":true,"m2_median":57,"share_median":0.317,"m2_p25":45,"share_p25":0.402},"geometry":{"type":"Polygon","coordinates":[[[13.9503,52.4769],[13.9274,52.4732],[13.9156,52.475],[13.8998,52.4741],[13.8869,52.4683],[13.8794,52.4572],[13.8531,52.4529],[13.8252,52.4401],[13.803,52.4393],[13.7912,52.4277],[13.7883,52.4216],[13.7902,52.3895],[13.7891,52.3843],[13.7948,52.3741],[13.8004,52.3699],[13.8086,52.369],[13.8111,52.3609],[13.8151,52.3617],[13.8214,52.3592],[13.8356,52.3582],[13.849,52.363],[13.8594,52.3682],[13.8853,52.3784],[13.8956,52.3873],[13.898,52.3938],[13.9134,52.3974],[13.9084,52.3968],[13.9106,52.398],[13.9127,52.3997],[13.9158,52.3986],[13.9176,52.3962],[13.9212,52.3932],[13.9239,52.3895],[13.9352,52.3916],[13.9478,52.3877],[13.9388,52.3966],[13.9509,52.4018],[13.9783,52.3941],[13.9949,52.3858],[14.0212,52.3866],[14.0243,52.3946],[14.0145,52.4009],[14.0192,52.4115],[13.9856,52.4287],[13.9859,52.452],[13.9784,52.4626],[13.9842,52.465],[13.9705,52.4678],[13.9599,52.4686],[13.9503,52.4769]]]}},{"type":"Feature","properties":{"ags":"12067440","name":"Schöneiche bei Berlin","ewz":13145,"dist_km":23.4,"city":false,"warm_m2":15.49,"own_value":true,"m2_median":53,"share_median":0.342,"m2_p25":41,"share_p25":0.435},"geometry":{"type":"Polygon","coordinates":[[[13.7436,52.4668],[13.7417,52.4859],[13.7229,52.4899],[13.7166,52.4968],[13.711,52.5027],[13.6918,52.5028],[13.6783,52.4941],[13.667,52.4742],[13.6788,52.4694],[13.6968,52.4642],[13.7044,52.4543],[13.7041,52.4642],[13.7206,52.4566],[13.7406,52.4634],[13.7436,52.4668]]]}},{"type":"Feature","properties":{"ags":"12067481","name":"Storkow (Mark)","ewz":9491,"dist_km":51,"city":false,"warm_m2":11.77,"own_value":true,"m2_median":71,"share_median":0.254,"m2_p25":56,"share_p25":0.322},"geometry":{"type":"Polygon","coordinates":[[[13.9324,52.2771],[13.9313,52.2876],[13.9177,52.3025],[13.897,52.3103],[13.8876,52.2912],[13.8757,52.2918],[13.854,52.29],[13.8518,52.2855],[13.8558,52.2752],[13.8385,52.2629],[13.8338,52.247],[13.8246,52.2431],[13.8283,52.2327],[13.8507,52.2251],[13.8418,52.2187],[13.8481,52.2051],[13.835,52.1854],[13.8516,52.1832],[13.8564,52.1894],[13.8909,52.1797],[13.8895,52.1696],[13.8602,52.1724],[13.8562,52.1644],[13.8686,52.1388],[13.8587,52.1312],[13.8459,52.1327],[13.8453,52.1217],[13.8712,52.1181],[13.8895,52.1233],[13.9185,52.1265],[13.9203,52.1257],[13.9278,52.1273],[13.9307,52.1268],[13.9297,52.1288],[13.9245,52.1278],[13.9191,52.1305],[13.9334,52.1313],[13.938,52.1348],[13.9378,52.1373],[13.939,52.1378],[13.9681,52.1362],[13.9678,52.1335],[13.9716,52.134],[13.9885,52.1211],[13.9918,52.1204],[14,52.1181],[14.007,52.1176],[14.0066,52.119],[14.0131,52.1265],[14.0226,52.132],[14.0489,52.1337],[14.0661,52.1545],[14.0561,52.1572],[14.0397,52.1627],[14.053,52.1743],[14.0332,52.1801],[13.9964,52.1831],[13.9884,52.1762],[13.9364,52.1789],[13.9394,52.1958],[13.994,52.212],[13.9937,52.2216],[13.9885,52.2311],[13.9788,52.2427],[13.9795,52.253],[13.9701,52.267],[13.9455,52.2812],[13.9422,52.2804],[13.9363,52.2771],[13.9324,52.2771]]]}},{"type":"Feature","properties":{"ags":"12067544","name":"Woltersdorf","ewz":8446,"dist_km":27.4,"city":false,"warm_m2":14.65,"own_value":true,"m2_median":56,"share_median":0.322,"m2_p25":44,"share_p25":0.41},"geometry":{"type":"Polygon","coordinates":[[[13.7749,52.466],[13.7588,52.466],[13.7432,52.4656],[13.7406,52.4634],[13.7206,52.4566],[13.7291,52.4506],[13.7532,52.4476],[13.7605,52.4385],[13.76,52.4373],[13.7677,52.4322],[13.7939,52.4305],[13.803,52.4393],[13.805,52.4437],[13.7644,52.4467],[13.7651,52.4534],[13.7676,52.4599],[13.7749,52.466]]]}},{"type":"Feature","properties":{"ags":"12067473","name":"Steinhöfel","ewz":4510,"dist_km":53,"city":false,"warm_m2":9.42,"own_value":true,"m2_median":89,"share_median":0.203,"m2_p25":70,"share_p25":0.258},"geometry":{"type":"Polygon","coordinates":[[[14.2115,52.4961],[14.1885,52.4987],[14.1824,52.4889],[14.1819,52.4726],[14.1676,52.4666],[14.1363,52.466],[14.1121,52.4599],[14.0975,52.4633],[14.089,52.4508],[14.0769,52.4534],[14.0824,52.4659],[14.0734,52.4806],[14.028,52.4708],[14.0208,52.4577],[14.0071,52.4468],[13.9927,52.4556],[13.9926,52.4616],[13.9865,52.4656],[13.9776,52.4685],[13.977,52.4664],[13.9842,52.465],[13.9784,52.4626],[13.9859,52.452],[13.9856,52.4287],[14.0192,52.4115],[14.0504,52.4183],[14.0568,52.4266],[14.0798,52.4265],[14.0784,52.4144],[14.0904,52.4112],[14.0923,52.3957],[14.1039,52.3758],[14.1248,52.3755],[14.1391,52.3746],[14.1436,52.3841],[14.1598,52.3833],[14.1589,52.3745],[14.1741,52.371],[14.185,52.3622],[14.1971,52.3631],[14.2089,52.38],[14.2101,52.3883],[14.2016,52.3982],[14.2153,52.4066],[14.214,52.4165],[14.2268,52.4174],[14.2307,52.4079],[14.2371,52.4015],[14.2498,52.4037],[14.2788,52.4127],[14.2849,52.4248],[14.2831,52.4335],[14.2759,52.4468],[14.2727,52.4512],[14.273,52.4592],[14.2755,52.4626],[14.2498,52.4718],[14.2294,52.4903],[14.2266,52.4915],[14.2115,52.4961]]]}},{"type":"Feature","properties":{"ags":"12067173","name":"Gosen-Neu Zittau","ewz":3428,"dist_km":31.1,"city":false,"warm_m2":14.75,"own_value":true,"m2_median":56,"share_median":0.324,"m2_p25":44,"share_p25":0.411},"geometry":{"type":"Polygon","coordinates":[[[13.7419,52.4053],[13.7387,52.4073],[13.7345,52.402],[13.7164,52.3995],[13.6971,52.3899],[13.6857,52.3841],[13.6949,52.381],[13.6969,52.3776],[13.6995,52.3805],[13.7041,52.3874],[13.729,52.3859],[13.7376,52.3759],[13.741,52.3712],[13.7276,52.3656],[13.7559,52.3518],[13.7618,52.3674],[13.7752,52.3745],[13.7902,52.3739],[13.788,52.3828],[13.7751,52.3854],[13.7651,52.3913],[13.7591,52.3919],[13.748,52.3906],[13.7461,52.3994],[13.7419,52.4053]]]}},{"type":"Feature","properties":{"ags":"12067469","name":"Spreenhagen","ewz":3528,"dist_km":40.2,"city":false,"warm_m2":10.92,"own_value":true,"m2_median":76,"share_median":0.238,"m2_p25":60,"share_p25":0.302},"geometry":{"type":"Polygon","coordinates":[[[13.9176,52.3962],[13.916,52.3981],[13.9136,52.3997],[13.9118,52.3995],[13.9106,52.398],[13.9084,52.3968],[13.9134,52.3974],[13.9058,52.3932],[13.898,52.3938],[13.8956,52.3873],[13.8853,52.3784],[13.8594,52.3682],[13.849,52.363],[13.8356,52.3582],[13.8214,52.3592],[13.8151,52.3617],[13.8111,52.3609],[13.8086,52.369],[13.8004,52.3699],[13.7948,52.3741],[13.7902,52.3739],[13.7752,52.3745],[13.7618,52.3674],[13.7535,52.3444],[13.7398,52.334],[13.7341,52.323],[13.7437,52.3185],[13.7462,52.3183],[13.7661,52.3174],[13.7784,52.3231],[13.8188,52.313],[13.8398,52.3141],[13.8395,52.3044],[13.8217,52.2881],[13.8475,52.2894],[13.861,52.2913],[13.8757,52.2918],[13.8876,52.2912],[13.897,52.3103],[13.9177,52.3025],[13.9313,52.2876],[13.9324,52.2771],[13.9363,52.2771],[13.9422,52.2804],[13.9455,52.2812],[13.9465,52.2896],[13.9757,52.3021],[13.9851,52.2964],[13.9855,52.3033],[13.9964,52.3029],[13.9981,52.3046],[14.0004,52.3325],[14.0042,52.3383],[14.0005,52.3442],[13.989,52.3504],[13.9967,52.369],[13.992,52.3744],[13.9709,52.3783],[13.9481,52.3852],[13.9352,52.3916],[13.9239,52.3895],[13.9212,52.3932],[13.9176,52.3962]]]}},{"type":"Feature","properties":{"ags":"12068117","name":"Fehrbellin","ewz":9049,"dist_km":48.2,"city":false,"warm_m2":12.45,"own_value":true,"m2_median":67,"share_median":0.27,"m2_p25":53,"share_p25":0.342},"geometry":{"type":"MultiPolygon","coordinates":[[[[12.8766,52.849],[12.8594,52.8536],[12.8537,52.8596],[12.8428,52.8674],[12.82,52.8577],[12.7955,52.8551],[12.7479,52.8556],[12.748,52.8595],[12.7146,52.8652],[12.6992,52.859],[12.6639,52.8565],[12.6559,52.84],[12.6499,52.8182],[12.6534,52.8062],[12.6512,52.7992],[12.6698,52.7822],[12.6726,52.7696],[12.7206,52.756],[12.7161,52.7478],[12.7078,52.7288],[12.7272,52.7198],[12.7411,52.7056],[12.764,52.6975],[12.766,52.6946],[12.8317,52.6848],[12.825,52.7076],[12.8467,52.7055],[12.8655,52.7105],[12.8808,52.7185],[12.872,52.727],[12.9098,52.7443],[12.9213,52.7447],[12.9228,52.7701],[12.9103,52.7722],[12.9192,52.7946],[12.9324,52.7928],[12.9426,52.801],[12.9373,52.8032],[12.9296,52.7991],[12.9251,52.8008],[12.9372,52.8073],[12.9142,52.8132],[12.9174,52.8236],[12.8928,52.8433],[12.8869,52.8517],[12.8766,52.849]]],[[[12.9774,52.8276],[12.9714,52.8287],[12.9713,52.8314],[12.9512,52.8342],[12.9322,52.826],[12.9485,52.8126],[12.9392,52.806],[12.938,52.8041],[12.9631,52.8123],[12.9704,52.8173],[12.98,52.8178],[12.9774,52.8276]]]]}},{"type":"Feature","properties":{"ags":"12068320","name":"Neuruppin","ewz":31803,"dist_km":58.4,"city":false,"warm_m2":12.46,"own_value":true,"m2_median":67,"share_median":0.268,"m2_p25":53,"share_p25":0.339},"geometry":{"type":"Polygon","coordinates":[[[12.9654,53.0044],[12.9449,53.0132],[12.9409,53.0205],[12.9164,53.0369],[12.9067,53.0351],[12.9011,53.0227],[12.8784,53.0328],[12.8427,53.0277],[12.8293,53.0414],[12.8102,53.043],[12.8148,53.0616],[12.7942,53.0555],[12.7805,53.061],[12.7958,53.077],[12.7719,53.0916],[12.7516,53.0992],[12.7378,53.0807],[12.6807,53.0698],[12.6589,53.0396],[12.6709,53.0402],[12.684,53.0366],[12.7085,53.0404],[12.7202,53.0145],[12.7506,53.0216],[12.7722,53.0169],[12.7841,52.9875],[12.7831,52.9797],[12.7915,52.9581],[12.7867,52.9569],[12.7685,52.9547],[12.7635,52.9486],[12.7656,52.9427],[12.7536,52.9261],[12.7388,52.9219],[12.7349,52.9135],[12.7451,52.903],[12.7662,52.8904],[12.7477,52.8873],[12.719,52.8764],[12.7216,52.8711],[12.7146,52.8652],[12.748,52.8595],[12.7479,52.8556],[12.7955,52.8551],[12.819,52.8575],[12.8428,52.8674],[12.8537,52.8596],[12.8766,52.849],[12.8869,52.8517],[12.8928,52.8433],[12.9174,52.8236],[12.9142,52.8132],[12.9372,52.8073],[12.9251,52.8008],[12.9296,52.7991],[12.9373,52.8032],[12.9426,52.801],[12.9324,52.7928],[12.9328,52.7922],[12.9384,52.7939],[12.9437,52.8006],[12.938,52.8044],[12.9485,52.8126],[12.9322,52.826],[12.9512,52.8342],[12.9525,52.834],[12.9546,52.8375],[12.9674,52.8397],[12.9565,52.8683],[12.9612,52.8799],[12.933,52.9094],[12.9526,52.9198],[12.9379,52.9257],[12.9306,52.9342],[12.9344,52.9458],[12.9305,52.9552],[12.9138,52.9605],[12.9088,52.9717],[12.9178,52.9819],[12.9328,52.9854],[12.9419,52.9941],[12.9486,52.9967],[12.9635,53.0015],[12.9654,53.0044]]]}},{"type":"Feature","properties":{"ags":"12068188","name":"Herzberg (Mark)","ewz":664,"dist_km":48.2,"city":false,"warm_m2":11.82,"own_value":true,"m2_median":70,"share_median":0.256,"m2_p25":55,"share_p25":0.325},"geometry":{"type":"Polygon","coordinates":[[[12.9526,52.9198],[12.933,52.9094],[12.9612,52.8799],[12.9565,52.8683],[12.9662,52.8426],[12.9748,52.8423],[12.965,52.8645],[12.9732,52.8842],[12.9804,52.8911],[12.9977,52.8936],[13.0019,52.9004],[13.0257,52.9094],[13.0118,52.918],[12.972,52.9223],[12.9646,52.915],[12.9526,52.9198]]]}},{"type":"Feature","properties":{"ags":"12068372","name":"Rüthnick","ewz":444,"dist_km":45.9,"city":false,"warm_m2":14.78,"own_value":true,"m2_median":56,"share_median":0.321,"m2_p25":44,"share_p25":0.407},"geometry":{"type":"Polygon","coordinates":[[[13.024,52.8844],[13.0178,52.9059],[13.0019,52.9004],[12.9977,52.8936],[12.9804,52.8911],[12.9732,52.8842],[12.965,52.8645],[12.9748,52.8423],[12.9872,52.8438],[12.9752,52.8621],[13.0157,52.8655],[13.0286,52.8555],[13.0392,52.8547],[13.0389,52.8778],[13.024,52.8844]]]}},{"type":"Feature","properties":{"ags":"12069017","name":"Beelitz","ewz":13794,"dist_km":42.8,"city":false,"warm_m2":12.41,"own_value":true,"m2_median":67,"share_median":0.27,"m2_p25":53,"share_p25":0.342},"geometry":{"type":"Polygon","coordinates":[[[12.8591,52.2992],[12.8538,52.3036],[12.8523,52.3033],[12.8523,52.299],[12.8225,52.3011],[12.7882,52.2895],[12.7821,52.2792],[12.7812,52.2697],[12.8089,52.2654],[12.829,52.2614],[12.8459,52.2618],[12.8441,52.2484],[12.853,52.2446],[12.8632,52.2334],[12.8762,52.2132],[12.8828,52.2059],[12.8828,52.2038],[12.8789,52.1983],[12.8919,52.1912],[12.9033,52.1874],[12.9032,52.1606],[12.9154,52.1507],[12.9177,52.1411],[12.9422,52.1436],[12.9494,52.1474],[12.9558,52.1698],[12.9742,52.1646],[13.0082,52.1662],[13.0266,52.1694],[13.0481,52.1793],[13.0651,52.1873],[13.0834,52.1971],[13.0901,52.2112],[13.1027,52.2254],[13.085,52.2279],[13.073,52.227],[13.0711,52.2426],[13.0431,52.2401],[13.0451,52.2499],[13.0442,52.255],[13.0236,52.2567],[12.9992,52.2577],[12.9885,52.2614],[12.9588,52.2677],[12.9531,52.2889],[12.9082,52.2738],[12.91,52.2796],[12.8973,52.2965],[12.8804,52.3],[12.8591,52.2992]]]}},{"type":"Feature","properties":{"ags":"12069249","name":"Groß Kreutz (Havel)","ewz":8988,"dist_km":42.5,"city":false,"warm_m2":11.01,"own_value":true,"m2_median":75,"share_median":0.239,"m2_p25":59,"share_p25":0.304},"geometry":{"type":"Polygon","coordinates":[[[12.8181,52.4734],[12.8096,52.4727],[12.8123,52.4663],[12.7943,52.4627],[12.7716,52.4656],[12.7616,52.4624],[12.7526,52.458],[12.7421,52.4562],[12.729,52.4538],[12.7214,52.4478],[12.7048,52.4457],[12.7054,52.4449],[12.671,52.4385],[12.6753,52.4271],[12.6873,52.4184],[12.6835,52.4111],[12.6668,52.4093],[12.6557,52.3913],[12.6604,52.3856],[12.6654,52.3798],[12.6883,52.3859],[12.719,52.3856],[12.7403,52.3886],[12.7604,52.374],[12.7715,52.3662],[12.7961,52.3652],[12.8007,52.371],[12.8045,52.3788],[12.812,52.3992],[12.8092,52.4128],[12.8275,52.4116],[12.8492,52.4056],[12.8551,52.4249],[12.8483,52.4377],[12.8505,52.4482],[12.8653,52.4509],[12.8635,52.4592],[12.8181,52.4734]]]}},{"type":"Feature","properties":{"ags":"12069304","name":"Kleinmachnow","ewz":20152,"dist_km":16.5,"city":false,"warm_m2":14.48,"own_value":true,"m2_median":56,"share_median":0.321,"m2_p25":44,"share_p25":0.408},"geometry":{"type":"Polygon","coordinates":[[[13.2498,52.405],[13.2458,52.4208],[13.2223,52.4204],[13.1956,52.4151],[13.1593,52.4029],[13.1578,52.3964],[13.1823,52.3994],[13.1897,52.3986],[13.2008,52.3953],[13.2063,52.3945],[13.2285,52.3934],[13.2366,52.3948],[13.2455,52.4051],[13.2498,52.405]]]}},{"type":"Feature","properties":{"ags":"12069306","name":"Kloster Lehnin","ewz":11355,"dist_km":49.9,"city":false,"warm_m2":10.79,"own_value":true,"m2_median":77,"share_median":0.233,"m2_p25":61,"share_p25":0.296},"geometry":{"type":"Polygon","coordinates":[[[12.6521,52.394],[12.6117,52.3929],[12.5936,52.3479],[12.561,52.3467],[12.5509,52.3531],[12.5363,52.3535],[12.511,52.3375],[12.4996,52.3223],[12.5089,52.3204],[12.509,52.3033],[12.5212,52.3055],[12.5371,52.2835],[12.55,52.2921],[12.5767,52.3022],[12.5823,52.3124],[12.6031,52.3101],[12.6094,52.3218],[12.6211,52.3217],[12.6261,52.3125],[12.6493,52.308],[12.6738,52.3009],[12.6785,52.2894],[12.7,52.2902],[12.7114,52.2683],[12.7001,52.2526],[12.7143,52.2386],[12.7519,52.2455],[12.7625,52.2514],[12.7764,52.2656],[12.7802,52.2681],[12.7821,52.2719],[12.7821,52.2792],[12.7882,52.2895],[12.8225,52.3011],[12.8207,52.3102],[12.8278,52.3232],[12.8227,52.3357],[12.8204,52.3634],[12.8243,52.3758],[12.8077,52.3788],[12.8038,52.3785],[12.8007,52.371],[12.7961,52.3652],[12.7715,52.3662],[12.7604,52.374],[12.7403,52.3886],[12.719,52.3856],[12.6883,52.3859],[12.6654,52.3798],[12.6604,52.3856],[12.6521,52.394]]]}},{"type":"Feature","properties":{"ags":"12069397","name":"Michendorf","ewz":13950,"dist_km":33.8,"city":false,"warm_m2":13.97,"own_value":true,"m2_median":59,"share_median":0.306,"m2_p25":46,"share_p25":0.389},"geometry":{"type":"Polygon","coordinates":[[[13.0736,52.3436],[13.0609,52.3489],[13.0419,52.3429],[13.0224,52.3469],[12.9877,52.3148],[12.976,52.3193],[12.9681,52.3096],[12.9967,52.2983],[13.0171,52.2902],[13.0221,52.2763],[13.0502,52.2773],[13.0662,52.2679],[13.0443,52.2562],[13.0451,52.2499],[13.0431,52.2401],[13.0711,52.2426],[13.073,52.227],[13.085,52.2279],[13.1015,52.2254],[13.1032,52.2274],[13.1082,52.2287],[13.1127,52.2372],[13.1053,52.2434],[13.1145,52.2554],[13.1145,52.2688],[13.0995,52.2836],[13.1122,52.2867],[13.0896,52.2984],[13.0975,52.3166],[13.0921,52.3292],[13.0806,52.3375],[13.081,52.3412],[13.0746,52.3447],[13.0736,52.3436]]]}},{"type":"Feature","properties":{"ags":"12069454","name":"Nuthetal","ewz":9269,"dist_km":29.9,"city":false,"warm_m2":12.85,"own_value":true,"m2_median":64,"share_median":0.282,"m2_p25":50,"share_p25":0.359},"geometry":{"type":"Polygon","coordinates":[[[13.1209,52.355],[13.1064,52.3552],[13.1027,52.3594],[13.0721,52.3541],[13.0484,52.3544],[13.0736,52.3436],[13.0746,52.3447],[13.081,52.3412],[13.0806,52.3375],[13.0921,52.3292],[13.0975,52.3166],[13.0896,52.2984],[13.1122,52.2867],[13.0995,52.2836],[13.1145,52.2688],[13.1145,52.2554],[13.1103,52.2479],[13.1252,52.2559],[13.1329,52.2621],[13.135,52.2638],[13.1388,52.263],[13.1549,52.2695],[13.1622,52.2788],[13.149,52.2951],[13.1764,52.302],[13.1616,52.311],[13.1683,52.3165],[13.1702,52.326],[13.1639,52.3417],[13.1693,52.3463],[13.1369,52.3549],[13.1355,52.3532],[13.1209,52.355]]]}},{"type":"Feature","properties":{"ags":"12069590","name":"Schwielowsee","ewz":10921,"dist_km":33.9,"city":false,"warm_m2":13.93,"own_value":true,"m2_median":59,"share_median":0.305,"m2_p25":46,"share_p25":0.387},"geometry":{"type":"Polygon","coordinates":[[[12.9699,52.387],[12.9599,52.389],[12.9353,52.3912],[12.95,52.3829],[12.9501,52.3643],[12.963,52.3585],[12.9697,52.3484],[12.9606,52.3446],[12.9536,52.3311],[12.9425,52.3234],[12.9301,52.3299],[12.9141,52.3265],[12.9103,52.3415],[12.8815,52.3387],[12.8818,52.3317],[12.8571,52.3332],[12.8524,52.3074],[12.8523,52.3033],[12.8538,52.3036],[12.8591,52.2992],[12.8804,52.3],[12.8973,52.2965],[12.91,52.2796],[12.9082,52.2738],[12.9531,52.2889],[12.9776,52.3058],[12.9681,52.3096],[12.976,52.3193],[12.9877,52.3148],[13.0228,52.3474],[13.0154,52.3504],[13.0039,52.3578],[12.9927,52.3666],[12.9822,52.3652],[12.9713,52.3737],[12.984,52.3879],[12.9765,52.3906],[12.9699,52.387]]]}},{"type":"Feature","properties":{"ags":"12069596","name":"Seddiner See","ewz":4847,"dist_km":37.4,"city":false,"warm_m2":10.55,"own_value":true,"m2_median":78,"share_median":0.23,"m2_p25":62,"share_p25":0.292},"geometry":{"type":"Polygon","coordinates":[[[12.9776,52.3058],[12.9531,52.2889],[12.9588,52.2677],[12.9885,52.2614],[12.9992,52.2577],[13.0236,52.2567],[13.0442,52.255],[13.0443,52.2562],[13.0662,52.2679],[13.0502,52.2773],[13.0221,52.2763],[13.0171,52.2902],[12.9967,52.2983],[12.9776,52.3058]]]}},{"type":"Feature","properties":{"ags":"12069604","name":"Stahnsdorf","ewz":16266,"dist_km":22.2,"city":false,"warm_m2":13.36,"own_value":true,"m2_median":61,"share_median":0.295,"m2_p25":48,"share_p25":0.375},"geometry":{"type":"Polygon","coordinates":[[[13.2008,52.3953],[13.1878,52.399],[13.1787,52.3993],[13.1714,52.3978],[13.1715,52.3958],[13.155,52.3909],[13.1472,52.3801],[13.1471,52.3615],[13.138,52.3613],[13.1369,52.3549],[13.1693,52.3463],[13.1639,52.3417],[13.1702,52.326],[13.1717,52.3192],[13.1898,52.3276],[13.2016,52.329],[13.2226,52.3238],[13.2514,52.3315],[13.2493,52.3378],[13.2514,52.3502],[13.2461,52.3695],[13.2523,52.3745],[13.244,52.3917],[13.2366,52.3948],[13.2285,52.3934],[13.2063,52.3945],[13.2008,52.3953]]]}},{"type":"Feature","properties":{"ags":"12069616","name":"Teltow","ewz":27880,"dist_km":16.6,"city":false,"warm_m2":12.57,"own_value":true,"m2_median":65,"share_median":0.278,"m2_p25":51,"share_p25":0.354},"geometry":{"type":"Polygon","coordinates":[[[13.3128,52.3977],[13.2985,52.412],[13.2961,52.4165],[13.2674,52.4046],[13.2498,52.405],[13.2455,52.4051],[13.2366,52.3948],[13.244,52.3917],[13.2523,52.3745],[13.2461,52.3695],[13.2514,52.3502],[13.275,52.3558],[13.284,52.3643],[13.2953,52.3806],[13.3062,52.3816],[13.3128,52.3977]]]}},{"type":"Feature","properties":{"ags":"12069656","name":"Werder (Havel)","ewz":26970,"dist_km":37.1,"city":false,"warm_m2":13.25,"own_value":true,"m2_median":62,"share_median":0.289,"m2_p25":49,"share_p25":0.367},"geometry":{"type":"Polygon","coordinates":[[[12.9477,52.434],[12.9461,52.4527],[12.9279,52.4573],[12.8935,52.4608],[12.8956,52.4596],[12.8773,52.4532],[12.8635,52.4592],[12.8653,52.4509],[12.8505,52.4482],[12.8483,52.4377],[12.8551,52.4249],[12.8492,52.4056],[12.8275,52.4116],[12.8092,52.4128],[12.812,52.3992],[12.8045,52.3788],[12.8243,52.3758],[12.8204,52.3634],[12.8227,52.3357],[12.8278,52.3232],[12.8207,52.3102],[12.8225,52.3011],[12.8523,52.299],[12.8524,52.3074],[12.8571,52.3332],[12.8818,52.3317],[12.8815,52.3387],[12.9103,52.3415],[12.9141,52.3265],[12.9301,52.3299],[12.9425,52.3234],[12.9536,52.3311],[12.9606,52.3446],[12.9697,52.3484],[12.963,52.3585],[12.9501,52.3643],[12.95,52.3829],[12.9353,52.3912],[12.9381,52.4083],[12.9357,52.4212],[12.9402,52.4328],[12.9477,52.434]]]}},{"type":"Feature","properties":{"ags":"12069460","name":"Päwesin","ewz":521,"dist_km":46.5,"city":false,"warm_m2":9.38,"own_value":true,"m2_median":89,"share_median":0.203,"m2_p25":70,"share_p25":0.258},"geometry":{"type":"Polygon","coordinates":[[[12.7172,52.5462],[12.6971,52.5476],[12.6904,52.5501],[12.6724,52.5371],[12.6446,52.5408],[12.6546,52.5273],[12.6618,52.5156],[12.6771,52.5026],[12.6996,52.5106],[12.7066,52.511],[12.6922,52.5056],[12.6868,52.493],[12.6849,52.4929],[12.6998,52.4906],[12.7166,52.4947],[12.7346,52.4982],[12.7497,52.5096],[12.7272,52.5226],[12.7161,52.5252],[12.7126,52.5244],[12.7116,52.5165],[12.7088,52.5236],[12.7085,52.5302],[12.7167,52.5418],[12.7242,52.5423],[12.7172,52.5462]]]}},{"type":"Feature","properties":{"ags":"12069541","name":"Roskow","ewz":1186,"dist_km":47.3,"city":false,"warm_m2":8.61,"own_value":true,"m2_median":97,"share_median":0.187,"m2_p25":76,"share_p25":0.237},"geometry":{"type":"Polygon","coordinates":[[[12.7485,52.4915],[12.7346,52.4982],[12.7166,52.4947],[12.6998,52.4906],[12.6849,52.4929],[12.6809,52.4931],[12.6718,52.4968],[12.6542,52.484],[12.6392,52.487],[12.6245,52.482],[12.6056,52.4849],[12.6052,52.4811],[12.6185,52.4713],[12.62,52.4586],[12.6229,52.4587],[12.6374,52.4526],[12.6576,52.4555],[12.6708,52.4479],[12.703,52.4475],[12.7048,52.4457],[12.7214,52.4478],[12.729,52.4538],[12.7421,52.4562],[12.7452,52.4585],[12.7425,52.4775],[12.7596,52.4811],[12.7485,52.4915]]]}},{"type":"Feature","properties":{"ags":"12072002","name":"Am Mellensee","ewz":7310,"dist_km":42.6,"city":false,"warm_m2":10.97,"own_value":true,"m2_median":75,"share_median":0.239,"m2_p25":59,"share_p25":0.303},"geometry":{"type":"Polygon","coordinates":[[[13.3283,52.2078],[13.3188,52.2124],[13.3047,52.1991],[13.3194,52.1963],[13.3183,52.1808],[13.3112,52.182],[13.3082,52.1787],[13.318,52.1763],[13.3233,52.1683],[13.3245,52.1498],[13.3033,52.121],[13.2979,52.1174],[13.316,52.1065],[13.3065,52.0904],[13.3285,52.087],[13.3655,52.0885],[13.396,52.0952],[13.4176,52.1078],[13.4336,52.1119],[13.4475,52.1099],[13.4528,52.1104],[13.4506,52.1159],[13.4515,52.1175],[13.4674,52.1198],[13.4577,52.1291],[13.4617,52.135],[13.4163,52.1608],[13.4109,52.1709],[13.448,52.1798],[13.438,52.1922],[13.4254,52.1976],[13.4052,52.1973],[13.3647,52.2064],[13.3292,52.2119],[13.3282,52.2112],[13.3283,52.2078]]]}},{"type":"Feature","properties":{"ags":"12072017","name":"Blankenfelde-Mahlow","ewz":29344,"dist_km":21.9,"city":false,"warm_m2":15.08,"own_value":true,"m2_median":54,"share_median":0.333,"m2_p25":42,"share_p25":0.424},"geometry":{"type":"Polygon","coordinates":[[[13.421,52.3762],[13.3885,52.378],[13.3716,52.3637],[13.3834,52.3547],[13.3811,52.3422],[13.378,52.3351],[13.3597,52.3326],[13.3497,52.3254],[13.3501,52.3165],[13.3445,52.31],[13.3504,52.3059],[13.3658,52.2917],[13.384,52.2875],[13.3929,52.2874],[13.4174,52.3073],[13.4507,52.2997],[13.4625,52.3115],[13.477,52.3147],[13.4831,52.3223],[13.4937,52.3312],[13.4952,52.3309],[13.4991,52.3367],[13.4607,52.3408],[13.4472,52.3466],[13.442,52.3628],[13.4212,52.3648],[13.4186,52.3717],[13.421,52.3762]]]}},{"type":"Feature","properties":{"ags":"12072120","name":"Großbeeren","ewz":9148,"dist_km":18.6,"city":false,"warm_m2":13.61,"own_value":true,"m2_median":60,"share_median":0.302,"m2_p25":47,"share_p25":0.384},"geometry":{"type":"Polygon","coordinates":[[[13.3885,52.378],[13.3872,52.3886],[13.343,52.4077],[13.3119,52.3992],[13.3128,52.3977],[13.3062,52.3816],[13.2953,52.3806],[13.284,52.3643],[13.275,52.3558],[13.2514,52.3502],[13.2493,52.3378],[13.2541,52.3278],[13.2447,52.3185],[13.2543,52.3224],[13.2565,52.3279],[13.2679,52.3329],[13.3023,52.3396],[13.3428,52.3261],[13.3449,52.3218],[13.3597,52.3326],[13.378,52.3351],[13.3811,52.3422],[13.3834,52.3547],[13.3716,52.3637],[13.3885,52.378]]]}},{"type":"Feature","properties":{"ags":"12072240","name":"Ludwigsfelde","ewz":29441,"dist_km":26.9,"city":false,"warm_m2":12.95,"own_value":true,"m2_median":63,"share_median":0.285,"m2_p25":50,"share_p25":0.362},"geometry":{"type":"Polygon","coordinates":[[[13.3449,52.3218],[13.3428,52.3261],[13.3023,52.3396],[13.2679,52.3329],[13.2565,52.3279],[13.2543,52.3224],[13.2447,52.3185],[13.2541,52.3278],[13.2514,52.3315],[13.2226,52.3238],[13.2016,52.329],[13.1898,52.3276],[13.1717,52.3192],[13.1683,52.3165],[13.1616,52.311],[13.1764,52.302],[13.149,52.2951],[13.1622,52.2788],[13.1549,52.2695],[13.1388,52.263],[13.1401,52.2618],[13.1522,52.2451],[13.1789,52.2502],[13.1904,52.2549],[13.186,52.2672],[13.206,52.2693],[13.2272,52.2678],[13.2435,52.273],[13.2678,52.2624],[13.2729,52.2541],[13.2922,52.2543],[13.306,52.2517],[13.3282,52.2488],[13.3386,52.2579],[13.3618,52.2567],[13.3645,52.2648],[13.3914,52.2823],[13.3907,52.2862],[13.3929,52.2874],[13.384,52.2875],[13.367,52.2911],[13.3504,52.3059],[13.3445,52.31],[13.3501,52.3165],[13.3497,52.3254],[13.3449,52.3218]]]}},{"type":"Feature","properties":{"ags":"12072312","name":"Nuthe-Urstromtal","ewz":6663,"dist_km":52.3,"city":false,"warm_m2":10.38,"own_value":true,"m2_median":80,"share_median":0.224,"m2_p25":63,"share_p25":0.284},"geometry":{"type":"Polygon","coordinates":[[[13.1959,52.2016],[13.1737,52.2082],[13.1759,52.2032],[13.149,52.201],[13.1411,52.1936],[13.1095,52.1926],[13.0825,52.1966],[13.0651,52.1873],[13.0481,52.1793],[13.0126,52.1625],[12.9735,52.1455],[12.9515,52.1435],[12.9787,52.1232],[12.9752,52.1138],[12.9952,52.0946],[12.9992,52.096],[13.022,52.0882],[13.0404,52.0844],[13.0542,52.0919],[13.0555,52.0813],[13.0872,52.0834],[13.1038,52.0856],[13.1038,52.0865],[13.0989,52.0976],[13.0811,52.1094],[13.0914,52.1221],[13.1069,52.134],[13.1337,52.1298],[13.1517,52.1137],[13.1734,52.1111],[13.1978,52.1124],[13.1951,52.0955],[13.2057,52.0945],[13.2077,52.0703],[13.1944,52.0682],[13.1751,52.0716],[13.1707,52.0614],[13.189,52.0628],[13.1898,52.0461],[13.196,52.0391],[13.1882,52.0272],[13.1958,52.0257],[13.2042,52.0073],[13.2198,52.0048],[13.2329,51.9912],[13.2522,51.9928],[13.2522,51.9854],[13.2576,51.9871],[13.2737,51.984],[13.2729,51.9817],[13.2799,51.981],[13.2878,51.9885],[13.3036,51.9864],[13.31,52.0062],[13.3318,51.9998],[13.3355,52.0083],[13.3574,52.0096],[13.3588,52.0175],[13.3827,52.0139],[13.4089,52.0173],[13.4148,52.0321],[13.4077,52.0496],[13.4077,52.0628],[13.4012,52.0657],[13.3735,52.0662],[13.368,52.0812],[13.3729,52.0888],[13.3655,52.0885],[13.3285,52.087],[13.3065,52.0904],[13.316,52.1065],[13.2979,52.1174],[13.3033,52.121],[13.3245,52.1498],[13.3233,52.1683],[13.318,52.1763],[13.2893,52.1711],[13.2633,52.1701],[13.2695,52.1583],[13.2397,52.1522],[13.222,52.1526],[13.2189,52.1771],[13.2059,52.1715],[13.1933,52.1867],[13.1959,52.2016]]]}},{"type":"Feature","properties":{"ags":"12072340","name":"Rangsdorf","ewz":11846,"dist_km":26.3,"city":false,"warm_m2":14.24,"own_value":true,"m2_median":57,"share_median":0.314,"m2_p25":45,"share_p25":0.399},"geometry":{"type":"Polygon","coordinates":[[[13.4538,52.257],[13.4711,52.2619],[13.4897,52.2609],[13.5094,52.2709],[13.5075,52.2818],[13.4832,52.2862],[13.487,52.2984],[13.4976,52.3072],[13.4831,52.3223],[13.477,52.3147],[13.4625,52.3115],[13.4507,52.2997],[13.4174,52.3073],[13.3929,52.2874],[13.3907,52.2862],[13.3952,52.2799],[13.4079,52.2698],[13.4193,52.2689],[13.4281,52.2603],[13.4496,52.2548],[13.4538,52.257]]]}},{"type":"Feature","properties":{"ags":"12072426","name":"Trebbin","ewz":9964,"dist_km":36.5,"city":false,"warm_m2":11.72,"own_value":true,"m2_median":70,"share_median":0.256,"m2_p25":55,"share_p25":0.325},"geometry":{"type":"Polygon","coordinates":[[[13.2678,52.2624],[13.2435,52.273],[13.2272,52.2678],[13.206,52.2693],[13.186,52.2672],[13.1904,52.2549],[13.1789,52.2502],[13.1522,52.2451],[13.1401,52.2618],[13.135,52.2638],[13.1329,52.2621],[13.1252,52.2559],[13.1103,52.2479],[13.1053,52.2434],[13.1127,52.2372],[13.1082,52.2287],[13.1015,52.2264],[13.1015,52.2254],[13.1027,52.2254],[13.0901,52.2112],[13.0825,52.1966],[13.1095,52.1926],[13.1411,52.1936],[13.149,52.201],[13.1759,52.2032],[13.1737,52.2082],[13.1959,52.2016],[13.1933,52.1867],[13.2059,52.1715],[13.2189,52.1771],[13.222,52.1526],[13.2397,52.1522],[13.2695,52.1583],[13.2633,52.1701],[13.2893,52.1711],[13.3082,52.1787],[13.3112,52.182],[13.3183,52.1808],[13.3194,52.1963],[13.3047,52.1991],[13.3188,52.2124],[13.3283,52.2078],[13.3282,52.2112],[13.3257,52.2144],[13.2922,52.2253],[13.3106,52.23],[13.3013,52.2408],[13.308,52.2511],[13.306,52.2517],[13.2922,52.2543],[13.2729,52.2541],[13.2678,52.2624]]]}},{"type":"Feature","properties":{"ags":"12072477","name":"Zossen","ewz":21643,"dist_km":38.5,"city":false,"warm_m2":11.73,"own_value":true,"m2_median":70,"share_median":0.256,"m2_p25":55,"share_p25":0.325},"geometry":{"type":"Polygon","coordinates":[[[13.3952,52.2799],[13.3914,52.2823],[13.3645,52.2648],[13.3618,52.2567],[13.3386,52.2579],[13.3282,52.2488],[13.308,52.2511],[13.3013,52.2408],[13.3106,52.23],[13.2922,52.2253],[13.3257,52.2144],[13.3292,52.2119],[13.3647,52.2064],[13.4052,52.1973],[13.4254,52.1976],[13.438,52.1922],[13.448,52.1798],[13.4109,52.1709],[13.4163,52.1608],[13.4617,52.135],[13.4577,52.1291],[13.4674,52.1198],[13.4515,52.1175],[13.4506,52.1159],[13.4528,52.1104],[13.4619,52.1128],[13.4927,52.1085],[13.5011,52.0923],[13.5408,52.0972],[13.5492,52.1186],[13.5489,52.1378],[13.5569,52.148],[13.5489,52.1528],[13.5437,52.1733],[13.5501,52.1827],[13.546,52.1932],[13.581,52.1949],[13.5759,52.2108],[13.564,52.2188],[13.5531,52.2343],[13.5376,52.241],[13.5178,52.2429],[13.5009,52.2406],[13.4929,52.2335],[13.472,52.2341],[13.4565,52.2477],[13.4585,52.2523],[13.4567,52.2543],[13.4513,52.256],[13.4496,52.2548],[13.4281,52.2603],[13.4193,52.2689],[13.4079,52.2698],[13.3952,52.2799]]]}}]}