{"type":"FeatureCollection","meta":{"city":"Düsseldorf","station":[6.7944,51.2199],"radius_km":45,"wage":{"median":4760,"p25":3461},"net":{"median":3003,"p25":2309},"share":0.3,"flat_m2":60,"stops":{"0":{"flats":190401,"rent_zensus":9.48,"rent_recent":10.54,"rent_asking":13.77,"rent_old_method":14.12,"small_premium":1.012,"nk_cold":1.4,"nk_warm":1.1,"dist_km":2.6,"rent":16.44,"rent_prev":15.69,"personas":{"median":{"net":3003,"cost":986,"share":0.328,"share_ticket":0.348,"m2":55,"share_prev":0.314,"m2_old":95},"p25":{"net":2309,"cost":986,"share":0.427,"share_ticket":0.452,"m2":42,"share_prev":0.408,"m2_old":73}}},"10":{"flats":215961,"rent_zensus":7.85,"rent_recent":9.09,"rent_asking":11.9,"rent_old_method":11.55,"small_premium":1.011,"nk_cold":1.4,"nk_warm":1.1,"dist_km":9.8,"rent":14.53,"rent_prev":13.08,"personas":{"median":{"net":3003,"cost":872,"share":0.29,"share_ticket":0.31,"m2":62,"share_prev":0.261,"m2_old":115},"p25":{"net":2309,"cost":872,"share":0.378,"share_ticket":0.403,"m2":48,"share_prev":0.34,"m2_old":88}}},"20":{"flats":494346,"rent_zensus":6.61,"rent_recent":7.31,"rent_asking":9.46,"rent_old_method":9.48,"small_premium":1.012,"nk_cold":1.4,"nk_warm":1.11,"dist_km":21.2,"rent":12.08,"rent_prev":10.99,"personas":{"median":{"net":3008,"cost":725,"share":0.241,"share_ticket":0.26,"m2":75,"share_prev":0.219,"m2_old":136},"p25":{"net":2314,"cost":725,"share":0.313,"share_ticket":0.338,"m2":57,"share_prev":0.285,"m2_old":105}}},"30":{"flats":973451,"rent_zensus":7.25,"rent_recent":8.18,"rent_asking":10.33,"rent_old_method":10.39,"small_premium":1.028,"nk_cold":1.4,"nk_warm":1.14,"dist_km":30.3,"rent":13.16,"rent_prev":12.08,"personas":{"median":{"net":3029,"cost":790,"share":0.261,"share_ticket":0.28,"m2":69,"share_prev":0.239,"m2_old":124},"p25":{"net":2332,"cost":790,"share":0.339,"share_ticket":0.363,"m2":53,"share_prev":0.311,"m2_old":96}}},"40":{"flats":626214,"rent_zensus":6.71,"rent_recent":7.66,"rent_asking":9.63,"rent_old_method":9.55,"small_premium":1.032,"nk_cold":1.33,"nk_warm":1.13,"dist_km":39.6,"rent":12.4,"rent_prev":11.19,"personas":{"median":{"net":3050,"cost":744,"share":0.244,"share_ticket":0.263,"m2":74,"share_prev":0.22,"m2_old":134},"p25":{"net":2351,"cost":744,"share":0.316,"share_ticket":0.341,"m2":57,"share_prev":0.286,"m2_old":103}}}}},"features":[{"type":"Feature","properties":{"ags":"05111000","name":"Düsseldorf","ewz":631217,"dist_km":2.1,"city":true,"warm_m2":16.38,"own_value":true,"m2_median":55,"share_median":0.327,"m2_p25":42,"share_p25":0.426},"geometry":{"type":"Polygon","coordinates":[[[6.7671,51.3474],[6.7508,51.3514],[6.7244,51.3406],[6.7149,51.3332],[6.7269,51.3266],[6.7319,51.3219],[6.7344,51.3157],[6.7342,51.31],[6.7299,51.3012],[6.7061,51.2796],[6.7025,51.2746],[6.7024,51.272],[6.705,51.2667],[6.7101,51.2628],[6.727,51.2565],[6.7171,51.2459],[6.6973,51.2376],[6.6949,51.2347],[6.6898,51.2316],[6.6929,51.2285],[6.7182,51.2242],[6.7317,51.2058],[6.7332,51.1858],[6.7506,51.1809],[6.7796,51.1854],[6.7849,51.1848],[6.7908,51.1825],[6.7975,51.1743],[6.794,51.1489],[6.7989,51.1445],[6.8057,51.143],[6.8153,51.1442],[6.821,51.1474],[6.8403,51.1622],[6.8539,51.1607],[6.8573,51.1544],[6.8483,51.1393],[6.856,51.1262],[6.8619,51.1292],[6.869,51.1292],[6.8926,51.1306],[6.9068,51.1275],[6.9106,51.127],[6.9251,51.1365],[6.9235,51.1424],[6.9,51.1516],[6.8955,51.1737],[6.9125,51.1781],[6.9155,51.1869],[6.9095,51.1952],[6.9038,51.2031],[6.9106,51.211],[6.8789,51.2149],[6.8726,51.2199],[6.8736,51.2406],[6.8785,51.2424],[6.8833,51.2418],[6.884,51.2386],[6.8994,51.2371],[6.9083,51.2421],[6.919,51.2404],[6.9267,51.2425],[6.9307,51.241],[6.9298,51.2383],[6.9312,51.2382],[6.9315,51.2444],[6.9277,51.265],[6.9349,51.2744],[6.9356,51.276],[6.9307,51.2754],[6.9285,51.2729],[6.9174,51.2742],[6.9039,51.2651],[6.8776,51.2682],[6.8514,51.276],[6.8248,51.2757],[6.8021,51.2825],[6.8032,51.3063],[6.8175,51.321],[6.8025,51.3284],[6.8052,51.3488],[6.7946,51.3503],[6.783,51.3426],[6.7671,51.3474]]]}},{"type":"Feature","properties":{"ags":"05112000","name":"Duisburg","ewz":503707,"dist_km":25.4,"city":false,"warm_m2":10.55,"own_value":true,"m2_median":86,"share_median":0.21,"m2_p25":66,"share_p25":0.273},"geometry":{"type":"Polygon","coordinates":[[[6.7073,51.5508],[6.6964,51.5577],[6.6865,51.5602],[6.6784,51.5478],[6.6766,51.5426],[6.6769,51.5374],[6.6801,51.5336],[6.6868,51.5295],[6.6997,51.5244],[6.6709,51.5116],[6.6378,51.5094],[6.629,51.5036],[6.6373,51.4988],[6.6644,51.4819],[6.6704,51.4591],[6.6763,51.4577],[6.6779,51.45],[6.6672,51.4384],[6.6633,51.4103],[6.6552,51.4088],[6.6296,51.4202],[6.6256,51.4111],[6.6354,51.3949],[6.6371,51.3858],[6.6563,51.3811],[6.6689,51.3742],[6.6544,51.3556],[6.6592,51.3494],[6.699,51.3391],[6.7149,51.3332],[6.7244,51.3406],[6.7508,51.3514],[6.7671,51.3474],[6.783,51.3426],[6.7946,51.3503],[6.8068,51.3486],[6.818,51.3528],[6.8244,51.353],[6.828,51.3516],[6.8305,51.3523],[6.826,51.3581],[6.8162,51.3688],[6.8157,51.3931],[6.8189,51.4393],[6.81,51.4553],[6.82,51.4698],[6.8097,51.4744],[6.8104,51.4837],[6.8216,51.4859],[6.8197,51.5069],[6.789,51.5168],[6.7797,51.5239],[6.784,51.5332],[6.7613,51.5329],[6.7197,51.5513],[6.7073,51.5508]]]}},{"type":"Feature","properties":{"ags":"05113000","name":"Essen","ewz":586608,"dist_km":30.5,"city":false,"warm_m2":11.83,"own_value":true,"m2_median":77,"share_median":0.234,"m2_p25":59,"share_p25":0.304},"geometry":{"type":"Polygon","coordinates":[[[7.0207,51.5181],[7.0156,51.5264],[7.0134,51.5322],[7.0024,51.5341],[6.9987,51.5337],[6.9993,51.5325],[6.9865,51.5134],[6.9883,51.5087],[6.9551,51.5018],[6.9282,51.4969],[6.9192,51.4965],[6.9001,51.4872],[6.8945,51.4772],[6.8999,51.4713],[6.9083,51.4692],[6.9172,51.4625],[6.9196,51.4501],[6.9505,51.4487],[6.9587,51.4401],[6.9541,51.4235],[6.944,51.4153],[6.9444,51.3938],[6.9073,51.3684],[6.9037,51.3674],[6.9272,51.3474],[6.933,51.3498],[6.9493,51.351],[6.9642,51.3477],[6.9773,51.3559],[6.9923,51.3594],[6.9983,51.3575],[7.0077,51.3577],[7.021,51.3655],[7.0359,51.3619],[7.0548,51.3633],[7.0801,51.3746],[7.0901,51.3689],[7.1177,51.3803],[7.1166,51.3857],[7.1184,51.3942],[7.111,51.4059],[7.13,51.4131],[7.1368,51.4232],[7.1238,51.4309],[7.1333,51.4418],[7.1211,51.455],[7.1095,51.4594],[7.114,51.4657],[7.1042,51.4813],[7.0711,51.485],[7.0738,51.4936],[7.0605,51.4972],[7.0503,51.5113],[7.0207,51.5181]]]}},{"type":"Feature","properties":{"ags":"05114000","name":"Krefeld","ewz":228550,"dist_km":20.8,"city":false,"warm_m2":12.23,"own_value":true,"m2_median":74,"share_median":0.244,"m2_p25":57,"share_p25":0.317},"geometry":{"type":"Polygon","coordinates":[[[6.5695,51.3925],[6.5484,51.3929],[6.5388,51.4055],[6.537,51.4063],[6.5284,51.4019],[6.5221,51.3981],[6.4919,51.4018],[6.4816,51.3979],[6.4779,51.3865],[6.4867,51.3834],[6.485,51.3722],[6.4921,51.3623],[6.4869,51.347],[6.5091,51.3403],[6.5145,51.3349],[6.5119,51.3102],[6.49,51.3005],[6.493,51.2999],[6.4986,51.2951],[6.5001,51.2888],[6.5346,51.2903],[6.6002,51.2874],[6.6217,51.2911],[6.6224,51.3086],[6.6529,51.3095],[6.676,51.321],[6.6939,51.3237],[6.6994,51.327],[6.7062,51.3367],[6.6612,51.3485],[6.6568,51.3516],[6.6544,51.3556],[6.6689,51.3742],[6.6563,51.3811],[6.6371,51.3858],[6.6357,51.393],[6.6162,51.3958],[6.606,51.3961],[6.6062,51.3943],[6.5829,51.3922],[6.5809,51.3941],[6.5695,51.3925]]]}},{"type":"Feature","properties":{"ags":"05116000","name":"Mönchengladbach","ewz":268943,"dist_km":27.1,"city":false,"warm_m2":12.15,"own_value":true,"m2_median":75,"share_median":0.241,"m2_p25":57,"share_p25":0.313},"geometry":{"type":"Polygon","coordinates":[[[6.4781,51.2358],[6.458,51.2478],[6.4513,51.2442],[6.4433,51.235],[6.4275,51.2245],[6.4144,51.2193],[6.3709,51.2175],[6.3597,51.229],[6.3305,51.2245],[6.3304,51.2062],[6.3158,51.198],[6.3148,51.1792],[6.2911,51.1756],[6.2941,51.1676],[6.3059,51.1652],[6.3019,51.1525],[6.319,51.1501],[6.332,51.1423],[6.3331,51.1349],[6.3544,51.1266],[6.3484,51.1197],[6.3511,51.1049],[6.3549,51.1026],[6.3604,51.0955],[6.3866,51.0976],[6.4046,51.0881],[6.42,51.0862],[6.4446,51.0887],[6.4418,51.0945],[6.4373,51.1051],[6.4637,51.1174],[6.4796,51.1127],[6.4753,51.121],[6.4665,51.1303],[6.4695,51.1397],[6.4789,51.1452],[6.4927,51.1502],[6.5289,51.1445],[6.5298,51.1451],[6.5371,51.1451],[6.5277,51.169],[6.5159,51.1835],[6.4913,51.1707],[6.4799,51.1763],[6.4938,51.1936],[6.4879,51.2092],[6.4891,51.2276],[6.5221,51.2257],[6.5173,51.2279],[6.5019,51.235],[6.4781,51.2358]]]}},{"type":"Feature","properties":{"ags":"05117000","name":"Mülheim an der Ruhr","ewz":173255,"dist_km":21.4,"city":false,"warm_m2":11.72,"own_value":true,"m2_median":77,"share_median":0.234,"m2_p25":59,"share_p25":0.304},"geometry":{"type":"Polygon","coordinates":[[[6.9083,51.4692],[6.8881,51.467],[6.8691,51.4577],[6.846,51.4581],[6.8429,51.4512],[6.8242,51.453],[6.81,51.4553],[6.8189,51.4393],[6.8157,51.3931],[6.8162,51.3688],[6.826,51.3581],[6.831,51.3512],[6.8534,51.3622],[6.8766,51.3635],[6.892,51.3713],[6.9011,51.3669],[6.9073,51.3684],[6.9444,51.3938],[6.944,51.4153],[6.9541,51.4235],[6.9587,51.4401],[6.9505,51.4487],[6.9196,51.4501],[6.9172,51.4625],[6.9083,51.4692]]]}},{"type":"Feature","properties":{"ags":"05119000","name":"Oberhausen","ewz":211099,"dist_km":33.2,"city":false,"warm_m2":10.82,"own_value":true,"m2_median":84,"share_median":0.214,"m2_p25":65,"share_p25":0.278},"geometry":{"type":"Polygon","coordinates":[[[6.9307,51.4992],[6.9098,51.505],[6.8939,51.5164],[6.8852,51.5362],[6.8598,51.5575],[6.8566,51.5681],[6.8484,51.571],[6.844,51.575],[6.8382,51.5763],[6.8332,51.5796],[6.8144,51.5741],[6.8218,51.5653],[6.805,51.5603],[6.7819,51.5444],[6.784,51.5332],[6.7797,51.5239],[6.789,51.5168],[6.8197,51.5069],[6.8216,51.4859],[6.8104,51.4837],[6.8097,51.4744],[6.82,51.4698],[6.81,51.4553],[6.8242,51.453],[6.8429,51.4512],[6.846,51.4581],[6.8691,51.4577],[6.8881,51.467],[6.8999,51.4713],[6.8945,51.4772],[6.9001,51.4872],[6.9192,51.4965],[6.9307,51.4992]]]}},{"type":"Feature","properties":{"ags":"05120000","name":"Remscheid","ewz":112970,"dist_km":30.3,"city":false,"warm_m2":10.3,"own_value":true,"m2_median":88,"share_median":0.204,"m2_p25":68,"share_p25":0.265},"geometry":{"type":"Polygon","coordinates":[[[7.2411,51.2228],[7.2336,51.2254],[7.2036,51.2119],[7.1942,51.2162],[7.1655,51.211],[7.1526,51.194],[7.1422,51.1907],[7.1524,51.1744],[7.1482,51.1717],[7.1361,51.1664],[7.1384,51.163],[7.1359,51.1565],[7.1345,51.1494],[7.1385,51.1451],[7.1449,51.1433],[7.1634,51.1552],[7.1713,51.1527],[7.1848,51.1559],[7.1983,51.1516],[7.2198,51.1608],[7.2368,51.1582],[7.2531,51.1579],[7.2618,51.1469],[7.2682,51.1457],[7.2785,51.1443],[7.2875,51.144],[7.2972,51.151],[7.2934,51.1614],[7.3054,51.1796],[7.3073,51.1872],[7.3032,51.1855],[7.2997,51.1861],[7.3051,51.1922],[7.3038,51.1927],[7.2986,51.1958],[7.2958,51.2054],[7.2847,51.2099],[7.2656,51.209],[7.2579,51.2193],[7.2411,51.2228]]]}},{"type":"Feature","properties":{"ags":"05122000","name":"Solingen","ewz":161545,"dist_km":18.6,"city":false,"warm_m2":11.71,"own_value":true,"m2_median":77,"share_median":0.234,"m2_p25":59,"share_p25":0.304},"geometry":{"type":"Polygon","coordinates":[[[7.1361,51.1664],[7.1136,51.1843],[7.1032,51.2057],[7.1046,51.2152],[7.0925,51.2203],[7.0668,51.2173],[7.0469,51.2075],[7.036,51.195],[7.0138,51.1818],[6.9895,51.174],[6.9849,51.1716],[6.966,51.1667],[6.9609,51.164],[6.9511,51.147],[6.9712,51.1493],[6.9837,51.1446],[6.9961,51.1442],[6.9949,51.1234],[6.9977,51.118],[6.9983,51.1199],[7.0039,51.1229],[7.0124,51.1238],[7.0231,51.1296],[7.0451,51.1315],[7.0585,51.1242],[7.0774,51.1281],[7.0761,51.1362],[7.0869,51.1356],[7.0967,51.134],[7.1045,51.1366],[7.1171,51.1328],[7.1194,51.1227],[7.1308,51.1182],[7.1358,51.1167],[7.1368,51.1184],[7.1443,51.1191],[7.1563,51.1217],[7.1717,51.1255],[7.174,51.1285],[7.1693,51.1268],[7.1594,51.1335],[7.1698,51.1391],[7.1664,51.1539],[7.1634,51.1552],[7.1449,51.1433],[7.1385,51.1451],[7.1345,51.1494],[7.1359,51.1565],[7.1384,51.163],[7.1361,51.1664]]]}},{"type":"Feature","properties":{"ags":"05124000","name":"Wuppertal","ewz":358938,"dist_km":26.1,"city":false,"warm_m2":11.26,"own_value":true,"m2_median":80,"share_median":0.224,"m2_p25":62,"share_p25":0.291},"geometry":{"type":"Polygon","coordinates":[[[7.2644,51.3084],[7.2563,51.3169],[7.223,51.3063],[7.1903,51.2951],[7.1699,51.2988],[7.1805,51.3063],[7.1779,51.3069],[7.1673,51.3129],[7.1447,51.3066],[7.1161,51.3047],[7.0967,51.294],[7.0971,51.2836],[7.0822,51.28],[7.0762,51.2701],[7.058,51.256],[7.0468,51.2564],[7.0406,51.2506],[7.0278,51.2482],[7.0216,51.2489],[7.015,51.2447],[7.022,51.2423],[7.0219,51.2435],[7.0381,51.2356],[7.0449,51.2263],[7.0359,51.2154],[7.0469,51.2075],[7.0668,51.2173],[7.0925,51.2203],[7.1046,51.2152],[7.1032,51.2057],[7.1136,51.1843],[7.1361,51.1664],[7.1482,51.1717],[7.1524,51.1744],[7.1422,51.1907],[7.1526,51.194],[7.1655,51.211],[7.1942,51.2162],[7.2036,51.2119],[7.2336,51.2254],[7.2411,51.2228],[7.2579,51.2193],[7.2656,51.209],[7.2847,51.2099],[7.2958,51.2054],[7.3004,51.2101],[7.2969,51.2239],[7.3077,51.2351],[7.297,51.247],[7.3026,51.249],[7.3047,51.2524],[7.2857,51.2496],[7.2673,51.2614],[7.2752,51.2775],[7.2539,51.2882],[7.2644,51.3084]]]}},{"type":"Feature","properties":{"ags":"05154012","name":"Geldern","ewz":34604,"dist_km":47.8,"city":false,"warm_m2":12.32,"own_value":true,"m2_median":75,"share_median":0.241,"m2_p25":58,"share_p25":0.312},"geometry":{"type":"Polygon","coordinates":[[[6.3692,51.5731],[6.3374,51.5612],[6.3165,51.5439],[6.2589,51.5374],[6.2433,51.5473],[6.2357,51.5425],[6.2157,51.5406],[6.2007,51.5266],[6.2121,51.5134],[6.213,51.4911],[6.2187,51.484],[6.2362,51.4833],[6.2466,51.4879],[6.2648,51.4834],[6.2877,51.4689],[6.2988,51.4698],[6.2988,51.4811],[6.3058,51.481],[6.3162,51.4817],[6.3149,51.4866],[6.34,51.4908],[6.3441,51.4881],[6.3631,51.4842],[6.4,51.4823],[6.3973,51.4858],[6.3914,51.4893],[6.3918,51.5203],[6.3995,51.5245],[6.3895,51.5336],[6.4022,51.5524],[6.4172,51.5553],[6.4144,51.5651],[6.4092,51.5631],[6.4021,51.5605],[6.3716,51.5692],[6.3692,51.5731]]]}},{"type":"Feature","properties":{"ags":"05154020","name":"Issum","ewz":12391,"dist_km":42.3,"city":false,"warm_m2":12.08,"own_value":true,"m2_median":76,"share_median":0.237,"m2_p25":59,"share_p25":0.308},"geometry":{"type":"Polygon","coordinates":[[[6.4304,51.5725],[6.4185,51.5673],[6.4144,51.5651],[6.4172,51.5553],[6.4022,51.5524],[6.3895,51.5336],[6.3995,51.5245],[6.3918,51.5203],[6.3914,51.4893],[6.3973,51.4858],[6.4074,51.4735],[6.4202,51.4659],[6.4312,51.4723],[6.4635,51.4774],[6.4745,51.4827],[6.4736,51.4953],[6.4486,51.5196],[6.4553,51.5296],[6.469,51.5222],[6.4871,51.5384],[6.4643,51.5511],[6.4987,51.5671],[6.4958,51.5681],[6.4723,51.5675],[6.4304,51.5725]]]}},{"type":"Feature","properties":{"ags":"05154028","name":"Kerken","ewz":12860,"dist_km":38.1,"city":false,"warm_m2":12.39,"own_value":true,"m2_median":74,"share_median":0.244,"m2_p25":57,"share_p25":0.317},"geometry":{"type":"Polygon","coordinates":[[[6.3441,51.4881],[6.34,51.4908],[6.3149,51.4866],[6.3162,51.4835],[6.3161,51.4768],[6.3235,51.4617],[6.3222,51.4471],[6.321,51.4458],[6.3223,51.4451],[6.3259,51.447],[6.3326,51.4462],[6.3461,51.4406],[6.3722,51.4179],[6.3966,51.4104],[6.3982,51.4131],[6.4618,51.4057],[6.4657,51.4138],[6.4732,51.4208],[6.4714,51.428],[6.4494,51.4328],[6.4526,51.4402],[6.4189,51.4603],[6.4202,51.4659],[6.4074,51.4735],[6.4,51.4823],[6.3631,51.4842],[6.3441,51.4881]]]}},{"type":"Feature","properties":{"ags":"05154048","name":"Rheurdt","ewz":6544,"dist_km":34.6,"city":false,"warm_m2":11.87,"own_value":true,"m2_median":77,"share_median":0.234,"m2_p25":59,"share_p25":0.304},"geometry":{"type":"Polygon","coordinates":[[[6.4814,51.4798],[6.4745,51.4827],[6.4635,51.4774],[6.4312,51.4723],[6.4202,51.4659],[6.4189,51.4603],[6.4526,51.4402],[6.4494,51.4328],[6.4714,51.428],[6.4732,51.4208],[6.4733,51.4188],[6.4862,51.4161],[6.5088,51.4193],[6.5166,51.425],[6.5147,51.4273],[6.5214,51.4405],[6.5021,51.447],[6.5073,51.4681],[6.4973,51.4732],[6.4993,51.4767],[6.4814,51.4798]]]}},{"type":"Feature","properties":{"ags":"05154052","name":"Straelen","ewz":16544,"dist_km":43.6,"city":false,"warm_m2":11.84,"own_value":true,"m2_median":78,"share_median":0.232,"m2_p25":60,"share_p25":0.301},"geometry":{"type":"Polygon","coordinates":[[[6.3162,51.4817],[6.3058,51.481],[6.2988,51.4811],[6.2988,51.4698],[6.2877,51.4689],[6.2648,51.4834],[6.2466,51.4879],[6.2362,51.4833],[6.2234,51.4749],[6.22,51.4553],[6.2139,51.4463],[6.2149,51.4344],[6.2052,51.3995],[6.2264,51.3997],[6.2144,51.3896],[6.2244,51.365],[6.2571,51.3601],[6.2649,51.3552],[6.2673,51.3551],[6.2754,51.3565],[6.2756,51.3584],[6.2701,51.371],[6.2688,51.3896],[6.2859,51.3968],[6.2839,51.4114],[6.311,51.424],[6.3092,51.4341],[6.3198,51.4405],[6.3188,51.4431],[6.3222,51.4471],[6.3235,51.4617],[6.3161,51.4768],[6.3162,51.4817]]]}},{"type":"Feature","properties":{"ags":"05154060","name":"Wachtendonk","ewz":8292,"dist_km":37.8,"city":false,"warm_m2":12.21,"own_value":true,"m2_median":75,"share_median":0.24,"m2_p25":58,"share_p25":0.312},"geometry":{"type":"Polygon","coordinates":[[[6.3966,51.4104],[6.3722,51.4179],[6.3461,51.4406],[6.3326,51.4462],[6.3259,51.447],[6.3223,51.4451],[6.321,51.4458],[6.3198,51.4449],[6.3188,51.4428],[6.3198,51.4405],[6.3092,51.4341],[6.311,51.424],[6.2839,51.4114],[6.2859,51.3968],[6.2688,51.3896],[6.2701,51.371],[6.2754,51.3565],[6.3037,51.3594],[6.3203,51.3641],[6.3329,51.3775],[6.3472,51.3756],[6.3589,51.3798],[6.3609,51.3796],[6.3631,51.3868],[6.3876,51.3944],[6.3928,51.4023],[6.3966,51.4104]]]}},{"type":"Feature","properties":{"ags":"05158004","name":"Erkrath","ewz":43801,"dist_km":9.1,"city":false,"warm_m2":12.81,"own_value":true,"m2_median":70,"share_median":0.256,"m2_p25":54,"share_p25":0.333},"geometry":{"type":"Polygon","coordinates":[[[6.884,51.2386],[6.8833,51.2418],[6.8785,51.2424],[6.8736,51.2406],[6.8726,51.2199],[6.8789,51.2149],[6.9106,51.211],[6.9038,51.2031],[6.9095,51.1952],[6.9223,51.1935],[6.9446,51.1989],[6.9689,51.2005],[6.9868,51.203],[6.982,51.2182],[6.9802,51.22],[6.9646,51.2246],[6.9394,51.2273],[6.9308,51.2362],[6.9312,51.2382],[6.9298,51.2383],[6.9307,51.241],[6.9267,51.2425],[6.919,51.2404],[6.9083,51.2421],[6.8994,51.2371],[6.884,51.2386]]]}},{"type":"Feature","properties":{"ags":"05158008","name":"Haan","ewz":30558,"dist_km":15.3,"city":false,"warm_m2":13.09,"own_value":true,"m2_median":69,"share_median":0.262,"m2_p25":53,"share_p25":0.34},"geometry":{"type":"Polygon","coordinates":[[[7.0208,51.2405],[7.0066,51.2436],[7.0037,51.2304],[6.9842,51.2172],[6.982,51.2182],[6.9868,51.203],[6.9689,51.2005],[6.9555,51.199],[6.9778,51.1908],[6.9821,51.1776],[6.9815,51.1722],[6.9859,51.1721],[6.9895,51.174],[7.0138,51.1818],[7.036,51.195],[7.0469,51.2075],[7.0359,51.2154],[7.0449,51.2263],[7.0381,51.2356],[7.0219,51.2435],[7.0208,51.2405]]]}},{"type":"Feature","properties":{"ags":"05158012","name":"Heiligenhaus","ewz":26590,"dist_km":17,"city":false,"warm_m2":11.81,"own_value":true,"m2_median":76,"share_median":0.236,"m2_p25":59,"share_p25":0.307},"geometry":{"type":"Polygon","coordinates":[[[6.9983,51.3575],[6.9923,51.3594],[6.9773,51.3559],[6.9642,51.3477],[6.9493,51.351],[6.933,51.3498],[6.9203,51.3442],[6.9227,51.331],[6.9398,51.3204],[6.9313,51.3123],[6.9346,51.3048],[6.9569,51.297],[6.9784,51.3019],[6.9841,51.3058],[6.9934,51.3238],[7.004,51.3243],[7.0111,51.3305],[7.0015,51.3479],[7.0039,51.3546],[7.0044,51.3562],[7.0036,51.3577],[6.9983,51.3575]]]}},{"type":"Feature","properties":{"ags":"05158016","name":"Hilden","ewz":55689,"dist_km":11.5,"city":false,"warm_m2":14.47,"own_value":true,"m2_median":62,"share_median":0.289,"m2_p25":48,"share_p25":0.376},"geometry":{"type":"Polygon","coordinates":[[[6.9555,51.199],[6.9446,51.1989],[6.9223,51.1935],[6.9155,51.1869],[6.9125,51.1781],[6.8955,51.1737],[6.9,51.1516],[6.9235,51.1424],[6.9235,51.1407],[6.9311,51.1406],[6.9296,51.1429],[6.9368,51.1438],[6.9412,51.1461],[6.9511,51.147],[6.9609,51.164],[6.966,51.1667],[6.9849,51.1716],[6.9859,51.1721],[6.9815,51.1722],[6.9821,51.1776],[6.9778,51.1908],[6.9555,51.199]]]}},{"type":"Feature","properties":{"ags":"05158020","name":"Langenfeld (Rhld.)","ewz":59908,"dist_km":16.4,"city":false,"warm_m2":14,"own_value":true,"m2_median":64,"share_median":0.28,"m2_p25":49,"share_p25":0.364},"geometry":{"type":"Polygon","coordinates":[[[6.9837,51.1446],[6.9712,51.1493],[6.9511,51.147],[6.9412,51.1461],[6.9368,51.1438],[6.9296,51.1429],[6.9311,51.1406],[6.9235,51.1407],[6.9251,51.1365],[6.9106,51.127],[6.9097,51.119],[6.9037,51.1113],[6.9237,51.0994],[6.928,51.0838],[6.9263,51.082],[6.9391,51.0723],[6.9606,51.0723],[6.9716,51.068],[6.9895,51.075],[6.9909,51.1058],[6.9926,51.1087],[6.9997,51.1149],[6.9949,51.1234],[6.9961,51.1442],[6.9837,51.1446]]]}},{"type":"Feature","properties":{"ags":"05158024","name":"Mettmann","ewz":39197,"dist_km":13.8,"city":false,"warm_m2":13.17,"own_value":true,"m2_median":68,"share_median":0.263,"m2_p25":53,"share_p25":0.342},"geometry":{"type":"Polygon","coordinates":[[[7.0409,51.2548],[7.0324,51.265],[7.0087,51.2822],[7.0061,51.2884],[6.9806,51.2948],[6.9685,51.2932],[6.9613,51.2894],[6.9575,51.2843],[6.936,51.2802],[6.9349,51.2744],[6.9277,51.265],[6.9315,51.2444],[6.9308,51.2362],[6.9394,51.2273],[6.9646,51.2246],[6.9802,51.22],[6.9842,51.2172],[7.0037,51.2304],[7.0066,51.2436],[7.0208,51.2405],[7.022,51.2423],[7.015,51.2447],[7.0216,51.2489],[7.0278,51.2482],[7.0406,51.2506],[7.0409,51.2548]]]}},{"type":"Feature","properties":{"ags":"05158026","name":"Monheim am Rhein","ewz":43524,"dist_km":15.9,"city":false,"warm_m2":14.02,"own_value":true,"m2_median":64,"share_median":0.28,"m2_p25":49,"share_p25":0.364},"geometry":{"type":"Polygon","coordinates":[[[6.8619,51.1292],[6.856,51.1262],[6.8825,51.1093],[6.8786,51.0976],[6.8535,51.0843],[6.8542,51.0785],[6.8577,51.0753],[6.8628,51.073],[6.8848,51.069],[6.898,51.0649],[6.9234,51.0808],[6.928,51.0838],[6.9237,51.0994],[6.9037,51.1113],[6.9097,51.119],[6.9068,51.1275],[6.8926,51.1306],[6.869,51.1292],[6.8619,51.1292]]]}},{"type":"Feature","properties":{"ags":"05158028","name":"Ratingen","ewz":87513,"dist_km":11.9,"city":false,"warm_m2":13.93,"own_value":true,"m2_median":65,"share_median":0.278,"m2_p25":50,"share_p25":0.362},"geometry":{"type":"Polygon","coordinates":[[[6.9011,51.3669],[6.892,51.3713],[6.8766,51.3635],[6.8534,51.3622],[6.831,51.3512],[6.8305,51.3523],[6.828,51.3516],[6.8244,51.353],[6.818,51.3528],[6.8068,51.3486],[6.8052,51.3488],[6.8025,51.3284],[6.8175,51.321],[6.8032,51.3063],[6.8021,51.2825],[6.8248,51.2757],[6.8514,51.276],[6.8776,51.2682],[6.9039,51.2651],[6.9174,51.2742],[6.9285,51.2729],[6.9307,51.2754],[6.9356,51.276],[6.936,51.2802],[6.9575,51.2843],[6.9613,51.2894],[6.9685,51.2932],[6.9806,51.2948],[6.982,51.3002],[6.9784,51.3019],[6.9569,51.297],[6.9346,51.3048],[6.9313,51.3123],[6.9398,51.3204],[6.9227,51.331],[6.9203,51.3442],[6.9272,51.3474],[6.9037,51.3674],[6.9011,51.3669]]]}},{"type":"Feature","properties":{"ags":"05158032","name":"Velbert","ewz":82462,"dist_km":23.7,"city":false,"warm_m2":11.24,"own_value":true,"m2_median":80,"share_median":0.224,"m2_p25":62,"share_p25":0.291},"geometry":{"type":"Polygon","coordinates":[[[7.1377,51.3778],[7.1223,51.3782],[7.1177,51.3803],[7.0901,51.3689],[7.0801,51.3746],[7.0548,51.3633],[7.0359,51.3619],[7.021,51.3655],[7.0077,51.3577],[7.0036,51.3577],[7.0044,51.3562],[7.0039,51.3546],[7.0015,51.3479],[7.0111,51.3305],[7.004,51.3243],[7.0177,51.3198],[7.036,51.3219],[7.0448,51.3048],[7.0635,51.3005],[7.0726,51.2937],[7.0967,51.294],[7.1161,51.3047],[7.1447,51.3066],[7.1673,51.3129],[7.1696,51.3174],[7.1455,51.3421],[7.1473,51.3515],[7.1594,51.3651],[7.149,51.3749],[7.1404,51.3751],[7.1377,51.3778]]]}},{"type":"Feature","properties":{"ags":"05158036","name":"Wülfrath","ewz":21009,"dist_km":19.4,"city":false,"warm_m2":11.6,"own_value":true,"m2_median":78,"share_median":0.232,"m2_p25":60,"share_p25":0.301},"geometry":{"type":"Polygon","coordinates":[[[7.004,51.3243],[6.9934,51.3238],[6.9841,51.3058],[6.982,51.3002],[6.9806,51.2948],[7.0061,51.2884],[7.0087,51.2822],[7.0324,51.265],[7.0409,51.2548],[7.0468,51.2564],[7.058,51.256],[7.0762,51.2701],[7.0822,51.28],[7.0971,51.2836],[7.0967,51.294],[7.0726,51.2937],[7.0635,51.3005],[7.0448,51.3048],[7.036,51.3219],[7.0177,51.3198],[7.004,51.3243]]]}},{"type":"Feature","properties":{"ags":"05162004","name":"Dormagen","ewz":65170,"dist_km":12.9,"city":false,"warm_m2":13.41,"own_value":true,"m2_median":67,"share_median":0.268,"m2_p25":52,"share_p25":0.348},"geometry":{"type":"Polygon","coordinates":[[[6.8483,51.1393],[6.8573,51.1544],[6.8539,51.1607],[6.8403,51.1622],[6.8199,51.1465],[6.8134,51.1437],[6.8041,51.1431],[6.7976,51.1453],[6.7689,51.1454],[6.7629,51.1384],[6.7718,51.1316],[6.73,51.1172],[6.7152,51.1166],[6.7148,51.1185],[6.7122,51.1183],[6.7049,51.1128],[6.6977,51.1099],[6.6967,51.0987],[6.709,51.0942],[6.7106,51.0848],[6.7083,51.0765],[6.7413,51.0771],[6.7532,51.0661],[6.7623,51.0655],[6.7729,51.0653],[6.7736,51.0644],[6.7874,51.0688],[6.8009,51.0595],[6.8048,51.0484],[6.831,51.0585],[6.823,51.0739],[6.8535,51.0843],[6.8786,51.0976],[6.8825,51.1093],[6.856,51.1262],[6.8483,51.1393]]]}},{"type":"Feature","properties":{"ags":"05162008","name":"Grevenbroich","ewz":64588,"dist_km":20.6,"city":false,"warm_m2":12.45,"own_value":true,"m2_median":72,"share_median":0.248,"m2_p25":56,"share_p25":0.323},"geometry":{"type":"Polygon","coordinates":[[[6.6681,51.1315],[6.6539,51.1351],[6.6356,51.1449],[6.6282,51.1532],[6.6149,51.1511],[6.6145,51.149],[6.6069,51.1417],[6.5935,51.1513],[6.586,51.1515],[6.5842,51.1458],[6.5939,51.1441],[6.5939,51.1404],[6.5825,51.1415],[6.575,51.1386],[6.5795,51.1301],[6.5781,51.1197],[6.5321,51.0898],[6.5361,51.0781],[6.5281,51.0674],[6.5266,51.0584],[6.5377,51.0521],[6.5533,51.0558],[6.5613,51.0352],[6.5487,51.0263],[6.5824,51.018],[6.6373,51.0268],[6.6367,51.0399],[6.6269,51.0465],[6.6389,51.061],[6.6586,51.0771],[6.6479,51.0831],[6.6479,51.0927],[6.6555,51.1037],[6.6653,51.0999],[6.6829,51.1114],[6.6964,51.1012],[6.6977,51.1099],[6.7049,51.1128],[6.7122,51.1183],[6.7148,51.1185],[6.7111,51.1242],[6.7097,51.1326],[6.6864,51.1351],[6.6716,51.131],[6.6681,51.1315]]]}},{"type":"Feature","properties":{"ags":"05162012","name":"Jüchen","ewz":24141,"dist_km":25.4,"city":false,"warm_m2":12.03,"own_value":true,"m2_median":75,"share_median":0.239,"m2_p25":58,"share_p25":0.311},"geometry":{"type":"Polygon","coordinates":[[[6.5786,51.1514],[6.5697,51.1585],[6.5431,51.1403],[6.5341,51.1451],[6.5289,51.1445],[6.4927,51.1502],[6.4789,51.1452],[6.4695,51.1397],[6.4665,51.1303],[6.4753,51.121],[6.4796,51.1127],[6.4637,51.1174],[6.4373,51.1051],[6.4418,51.0945],[6.444,51.0898],[6.4506,51.0902],[6.4524,51.0744],[6.4445,51.0679],[6.4473,51.0625],[6.4772,51.0561],[6.4592,51.0431],[6.4805,51.0342],[6.4844,51.0424],[6.5189,51.0584],[6.5259,51.0572],[6.5281,51.0674],[6.5361,51.0781],[6.5321,51.0898],[6.5781,51.1197],[6.5795,51.1301],[6.575,51.1386],[6.5825,51.1415],[6.5939,51.1404],[6.5939,51.1441],[6.5842,51.1458],[6.586,51.1515],[6.5786,51.1514]]]}},{"type":"Feature","properties":{"ags":"05162016","name":"Kaarst","ewz":44208,"dist_km":13.3,"city":false,"warm_m2":14.27,"own_value":true,"m2_median":63,"share_median":0.285,"m2_p25":49,"share_p25":0.371},"geometry":{"type":"Polygon","coordinates":[[[6.6554,51.2467],[6.6511,51.2522],[6.6463,51.2608],[6.626,51.2503],[6.6054,51.2477],[6.6015,51.2425],[6.5678,51.2408],[6.5648,51.2329],[6.5596,51.2281],[6.5692,51.2178],[6.5691,51.2056],[6.5791,51.1906],[6.6007,51.1787],[6.6214,51.1805],[6.6348,51.1846],[6.6336,51.2074],[6.6449,51.2098],[6.6415,51.2298],[6.659,51.2295],[6.6767,51.2325],[6.6554,51.2467]]]}},{"type":"Feature","properties":{"ags":"05162020","name":"Korschenbroich","ewz":34324,"dist_km":18.5,"city":false,"warm_m2":12.89,"own_value":true,"m2_median":70,"share_median":0.258,"m2_p25":54,"share_p25":0.335},"geometry":{"type":"Polygon","coordinates":[[[6.5596,51.2281],[6.5617,51.23],[6.5385,51.2325],[6.5303,51.2225],[6.5221,51.2257],[6.4891,51.2276],[6.4879,51.2092],[6.4938,51.1936],[6.4799,51.1763],[6.4913,51.1707],[6.5159,51.1835],[6.5277,51.169],[6.5371,51.1451],[6.5341,51.1451],[6.5431,51.1403],[6.5697,51.1585],[6.5786,51.1514],[6.5935,51.1513],[6.6069,51.1417],[6.6145,51.149],[6.6151,51.1597],[6.626,51.1704],[6.6214,51.1805],[6.6007,51.1787],[6.5791,51.1906],[6.5691,51.2056],[6.5692,51.2178],[6.5596,51.2281]]]}},{"type":"Feature","properties":{"ags":"05162022","name":"Meerbusch","ewz":57440,"dist_km":12.2,"city":false,"warm_m2":15.61,"own_value":true,"m2_median":58,"share_median":0.312,"m2_p25":44,"share_p25":0.406},"geometry":{"type":"Polygon","coordinates":[[[6.7344,51.3157],[6.7305,51.3235],[6.7235,51.3288],[6.7062,51.3367],[6.6994,51.327],[6.6939,51.3237],[6.676,51.321],[6.6529,51.3095],[6.6224,51.3086],[6.6217,51.2911],[6.6002,51.2874],[6.5862,51.2793],[6.5964,51.2617],[6.6106,51.2634],[6.6162,51.2529],[6.626,51.2503],[6.6463,51.2608],[6.6511,51.2522],[6.6554,51.2467],[6.6767,51.2325],[6.6949,51.2347],[6.6973,51.2376],[6.7171,51.2459],[6.727,51.2565],[6.7173,51.2595],[6.7068,51.265],[6.7033,51.2691],[6.7025,51.2746],[6.7061,51.2796],[6.7257,51.2968],[6.7313,51.3033],[6.7342,51.31],[6.7344,51.3157]]]}},{"type":"Feature","properties":{"ags":"05162024","name":"Neuss","ewz":155163,"dist_km":7.7,"city":false,"warm_m2":13.7,"own_value":true,"m2_median":66,"share_median":0.274,"m2_p25":51,"share_p25":0.356},"geometry":{"type":"Polygon","coordinates":[[[6.6929,51.2285],[6.6898,51.2316],[6.6949,51.2347],[6.659,51.2295],[6.6415,51.2298],[6.6449,51.2098],[6.6336,51.2074],[6.6348,51.1846],[6.6214,51.1805],[6.626,51.1704],[6.6151,51.1597],[6.6149,51.1511],[6.6282,51.1532],[6.6356,51.1449],[6.6539,51.1351],[6.6681,51.1315],[6.6716,51.131],[6.6864,51.1351],[6.7097,51.1326],[6.7111,51.1242],[6.7143,51.1206],[6.7152,51.1166],[6.73,51.1172],[6.7718,51.1316],[6.7629,51.1384],[6.7689,51.1454],[6.7976,51.1453],[6.794,51.1489],[6.7975,51.1743],[6.7908,51.1825],[6.782,51.1852],[6.7744,51.185],[6.7506,51.1809],[6.7332,51.1858],[6.7317,51.2058],[6.7182,51.2242],[6.6929,51.2285]]]}},{"type":"Feature","properties":{"ags":"05162028","name":"Rommerskirchen","ewz":13688,"dist_km":18.7,"city":false,"warm_m2":12.9,"own_value":true,"m2_median":70,"share_median":0.258,"m2_p25":54,"share_p25":0.335},"geometry":{"type":"Polygon","coordinates":[[[6.6964,51.1012],[6.6829,51.1114],[6.6653,51.0999],[6.6555,51.1037],[6.6479,51.0927],[6.6479,51.0831],[6.6586,51.0771],[6.6389,51.061],[6.6269,51.0465],[6.6367,51.0399],[6.6373,51.0268],[6.6396,51.023],[6.6503,51.0222],[6.6734,51.0159],[6.6819,51.0187],[6.7154,51.0151],[6.7204,51.0225],[6.7281,51.031],[6.7617,51.0425],[6.7609,51.0502],[6.7526,51.0604],[6.7532,51.0661],[6.7413,51.0771],[6.7083,51.0765],[6.7106,51.0848],[6.709,51.0942],[6.6967,51.0987],[6.6964,51.1012]]]}},{"type":"Feature","properties":{"ags":"05166004","name":"Brüggen","ewz":16178,"dist_km":44,"city":false,"warm_m2":12.14,"own_value":true,"m2_median":76,"share_median":0.238,"m2_p25":58,"share_p25":0.309},"geometry":{"type":"Polygon","coordinates":[[[6.1734,51.3004],[6.1541,51.3074],[6.1298,51.2866],[6.1245,51.2746],[6.085,51.2474],[6.0727,51.2426],[6.0828,51.2279],[6.1001,51.2274],[6.1222,51.2323],[6.1406,51.2365],[6.1853,51.2341],[6.2054,51.2403],[6.2098,51.2381],[6.234,51.2464],[6.2391,51.2519],[6.2415,51.2528],[6.2367,51.2596],[6.2355,51.2593],[6.2284,51.2708],[6.228,51.2809],[6.1982,51.3024],[6.1734,51.3004]]]}},{"type":"Feature","properties":{"ags":"05166008","name":"Grefrath","ewz":15069,"dist_km":34,"city":false,"warm_m2":11.95,"own_value":true,"m2_median":76,"share_median":0.236,"m2_p25":59,"share_p25":0.306},"geometry":{"type":"Polygon","coordinates":[[[6.3621,51.3773],[6.3589,51.3798],[6.3472,51.3756],[6.3329,51.3775],[6.3203,51.3641],[6.3041,51.3595],[6.314,51.3444],[6.3132,51.3365],[6.3143,51.3219],[6.3168,51.3145],[6.3191,51.3139],[6.3192,51.3116],[6.3283,51.3146],[6.3718,51.3231],[6.3775,51.3045],[6.3874,51.3054],[6.4017,51.3086],[6.3983,51.3202],[6.3841,51.3329],[6.369,51.3656],[6.3621,51.3773]]]}},{"type":"Feature","properties":{"ags":"05166012","name":"Kempen","ewz":34888,"dist_km":31,"city":false,"warm_m2":13.33,"own_value":true,"m2_median":68,"share_median":0.264,"m2_p25":53,"share_p25":0.343},"geometry":{"type":"Polygon","coordinates":[[[6.5259,51.4239],[6.5166,51.425],[6.5088,51.4193],[6.4862,51.4161],[6.4733,51.4188],[6.4657,51.4138],[6.4618,51.4057],[6.3982,51.4131],[6.3928,51.4023],[6.3876,51.3944],[6.3631,51.3868],[6.3609,51.3796],[6.3589,51.3798],[6.3621,51.3773],[6.369,51.3656],[6.3841,51.3329],[6.3864,51.3313],[6.4095,51.3414],[6.4212,51.3388],[6.4627,51.3414],[6.4869,51.347],[6.4921,51.3623],[6.485,51.3722],[6.4867,51.3834],[6.4779,51.3865],[6.4816,51.3979],[6.4919,51.4018],[6.5221,51.3981],[6.5284,51.4019],[6.537,51.4063],[6.5286,51.4127],[6.5259,51.4239]]]}},{"type":"Feature","properties":{"ags":"05166016","name":"Nettetal","ewz":43425,"dist_km":40,"city":false,"warm_m2":12.05,"own_value":true,"m2_median":76,"share_median":0.237,"m2_p25":59,"share_p25":0.307},"geometry":{"type":"Polygon","coordinates":[[[6.3041,51.3595],[6.2889,51.3598],[6.278,51.3569],[6.2654,51.3551],[6.2571,51.3601],[6.2244,51.365],[6.2261,51.3605],[6.1898,51.3393],[6.1686,51.3329],[6.1541,51.3074],[6.1734,51.3004],[6.1982,51.3024],[6.228,51.2809],[6.2284,51.2708],[6.2355,51.2593],[6.2367,51.2596],[6.2415,51.2528],[6.2457,51.2545],[6.2636,51.2682],[6.2663,51.2718],[6.2682,51.2799],[6.2784,51.2857],[6.3072,51.2789],[6.325,51.279],[6.314,51.2932],[6.321,51.3075],[6.3191,51.3097],[6.3191,51.3139],[6.3168,51.3145],[6.3143,51.3219],[6.3132,51.3365],[6.314,51.3444],[6.3041,51.3595]]]}},{"type":"Feature","properties":{"ags":"05166020","name":"Niederkrüchten","ewz":15284,"dist_km":45,"city":false,"warm_m2":11.77,"own_value":true,"m2_median":78,"share_median":0.231,"m2_p25":60,"share_p25":0.299},"geometry":{"type":"Polygon","coordinates":[[[6.2204,51.2323],[6.2054,51.2403],[6.1853,51.2341],[6.1406,51.2365],[6.1222,51.2323],[6.1001,51.2274],[6.0828,51.2279],[6.068,51.2205],[6.0733,51.183],[6.0823,51.1716],[6.1108,51.1738],[6.1222,51.1812],[6.165,51.1944],[6.1748,51.1845],[6.2098,51.1663],[6.2186,51.1696],[6.2412,51.1876],[6.2486,51.1872],[6.2507,51.1899],[6.2395,51.1932],[6.2356,51.1971],[6.2265,51.2067],[6.2335,51.2149],[6.2188,51.227],[6.2204,51.2323]]]}},{"type":"Feature","properties":{"ags":"05166024","name":"Schwalmtal","ewz":19248,"dist_km":36.7,"city":false,"warm_m2":11.81,"own_value":true,"m2_median":77,"share_median":0.233,"m2_p25":60,"share_p25":0.302},"geometry":{"type":"Polygon","coordinates":[[[6.2786,51.2598],[6.2701,51.2674],[6.2636,51.2682],[6.2457,51.2545],[6.2391,51.2519],[6.234,51.2464],[6.2098,51.2381],[6.2204,51.2323],[6.2188,51.227],[6.2335,51.2149],[6.2265,51.2067],[6.2356,51.1971],[6.2395,51.1932],[6.2626,51.1861],[6.282,51.1754],[6.2911,51.1756],[6.3148,51.1792],[6.3158,51.198],[6.3304,51.2062],[6.3305,51.2165],[6.3205,51.2178],[6.2995,51.2327],[6.2786,51.2598]]]}},{"type":"Feature","properties":{"ags":"05166028","name":"Tönisvorst","ewz":29331,"dist_km":25.9,"city":false,"warm_m2":13.06,"own_value":true,"m2_median":69,"share_median":0.26,"m2_p25":53,"share_p25":0.337},"geometry":{"type":"Polygon","coordinates":[[[6.4869,51.347],[6.4627,51.3414],[6.4212,51.3388],[6.4095,51.3414],[6.3864,51.3313],[6.3983,51.3202],[6.4017,51.3086],[6.3874,51.3054],[6.4014,51.2997],[6.4077,51.2928],[6.4155,51.2892],[6.4255,51.2782],[6.445,51.2846],[6.45,51.2875],[6.4561,51.2883],[6.492,51.3005],[6.49,51.3005],[6.5119,51.3102],[6.5145,51.3349],[6.5091,51.3403],[6.4869,51.347]]]}},{"type":"Feature","properties":{"ags":"05166032","name":"Viersen","ewz":79250,"dist_km":31.6,"city":false,"warm_m2":11.82,"own_value":true,"m2_median":77,"share_median":0.234,"m2_p25":59,"share_p25":0.304},"geometry":{"type":"Polygon","coordinates":[[[6.3874,51.3054],[6.3775,51.3045],[6.3718,51.3231],[6.3283,51.3146],[6.3192,51.3116],[6.321,51.3075],[6.314,51.2932],[6.325,51.279],[6.3072,51.2789],[6.2784,51.2857],[6.2682,51.2799],[6.2663,51.2718],[6.2636,51.2682],[6.2701,51.2674],[6.2786,51.2598],[6.2995,51.2327],[6.3205,51.2178],[6.3305,51.2165],[6.3305,51.2245],[6.3597,51.229],[6.3709,51.2175],[6.4144,51.2193],[6.4275,51.2245],[6.4433,51.235],[6.4513,51.2442],[6.458,51.2478],[6.4116,51.2739],[6.4255,51.2782],[6.4155,51.2892],[6.4077,51.2928],[6.4014,51.2997],[6.3874,51.3054]]]}},{"type":"Feature","properties":{"ags":"05166036","name":"Willich","ewz":50212,"dist_km":19.9,"city":false,"warm_m2":13.06,"own_value":true,"m2_median":69,"share_median":0.261,"m2_p25":53,"share_p25":0.339},"geometry":{"type":"Polygon","coordinates":[[[6.4986,51.2951],[6.492,51.3005],[6.4561,51.2883],[6.45,51.2875],[6.445,51.2846],[6.4116,51.2739],[6.4367,51.2605],[6.4781,51.2358],[6.5019,51.235],[6.5173,51.2279],[6.5303,51.2225],[6.5385,51.2325],[6.5617,51.23],[6.5648,51.2329],[6.5678,51.2408],[6.6015,51.2425],[6.6054,51.2477],[6.626,51.2503],[6.6162,51.2529],[6.6106,51.2634],[6.5964,51.2617],[6.5862,51.2793],[6.5853,51.2876],[6.5346,51.2903],[6.5001,51.2888],[6.4986,51.2951]]]}},{"type":"Feature","properties":{"ags":"05170004","name":"Alpen","ewz":12870,"dist_km":46.6,"city":false,"warm_m2":11.63,"own_value":true,"m2_median":79,"share_median":0.228,"m2_p25":61,"share_p25":0.295},"geometry":{"type":"Polygon","coordinates":[[[6.46,51.6269],[6.4502,51.6305],[6.4441,51.6282],[6.4209,51.6229],[6.4191,51.5832],[6.4325,51.583],[6.4304,51.5725],[6.4723,51.5675],[6.4958,51.5681],[6.5017,51.5647],[6.5154,51.5644],[6.5209,51.5547],[6.5334,51.5547],[6.5369,51.5607],[6.5409,51.5663],[6.5586,51.5756],[6.5491,51.5878],[6.5504,51.5974],[6.544,51.6084],[6.5448,51.6133],[6.555,51.619],[6.5558,51.6272],[6.5327,51.6318],[6.5117,51.6274],[6.5039,51.6227],[6.4938,51.6153],[6.4822,51.6133],[6.4741,51.6285],[6.46,51.6269]]]}},{"type":"Feature","properties":{"ags":"05170008","name":"Dinslaken","ewz":67949,"dist_km":39,"city":false,"warm_m2":11.77,"own_value":true,"m2_median":78,"share_median":0.232,"m2_p25":60,"share_p25":0.301},"geometry":{"type":"Polygon","coordinates":[[[6.8626,51.6008],[6.8514,51.6072],[6.8188,51.6041],[6.7934,51.5992],[6.7772,51.5922],[6.7576,51.588],[6.7316,51.5857],[6.7157,51.5887],[6.7162,51.5738],[6.6876,51.564],[6.6865,51.5602],[6.6964,51.5577],[6.7073,51.5508],[6.7197,51.5513],[6.7613,51.5329],[6.784,51.5332],[6.7819,51.5444],[6.805,51.5603],[6.8218,51.5653],[6.8144,51.5741],[6.828,51.5777],[6.8485,51.5851],[6.8591,51.59],[6.8625,51.5952],[6.8626,51.6008]]]}},{"type":"Feature","properties":{"ags":"05170016","name":"Hünxe","ewz":13980,"dist_km":48.3,"city":false,"warm_m2":11.37,"own_value":true,"m2_median":81,"share_median":0.222,"m2_p25":62,"share_p25":0.288},"geometry":{"type":"Polygon","coordinates":[[[6.7022,51.7113],[6.7035,51.7141],[6.6998,51.7134],[6.6956,51.7091],[6.6829,51.7004],[6.6785,51.6927],[6.6689,51.6845],[6.6899,51.6819],[6.7065,51.6765],[6.7135,51.6573],[6.7085,51.6481],[6.6899,51.6433],[6.6818,51.6401],[6.6884,51.6286],[6.6893,51.6207],[6.7023,51.6178],[6.7128,51.6075],[6.7214,51.5886],[6.7316,51.5857],[6.7576,51.588],[6.7772,51.5922],[6.7934,51.5992],[6.8188,51.6041],[6.8514,51.6072],[6.8508,51.6092],[6.8715,51.6222],[6.8664,51.6289],[6.8666,51.6397],[6.8468,51.6441],[6.8432,51.659],[6.8546,51.668],[6.8488,51.6731],[6.8235,51.6686],[6.7937,51.6662],[6.7869,51.6596],[6.7785,51.662],[6.7637,51.6876],[6.7626,51.7014],[6.7186,51.7],[6.7097,51.7123],[6.7022,51.7113]]]}},{"type":"Feature","properties":{"ags":"05170020","name":"Kamp-Lintfort","ewz":38731,"dist_km":38.5,"city":false,"warm_m2":11.56,"own_value":true,"m2_median":79,"share_median":0.228,"m2_p25":61,"share_p25":0.295},"geometry":{"type":"Polygon","coordinates":[[[6.5017,51.5647],[6.4987,51.5671],[6.4643,51.5511],[6.4871,51.5384],[6.469,51.5222],[6.4553,51.5296],[6.4486,51.5196],[6.4736,51.4953],[6.4814,51.4798],[6.4993,51.4767],[6.5131,51.4813],[6.5183,51.4778],[6.5443,51.4774],[6.5643,51.4735],[6.5785,51.4803],[6.5792,51.4811],[6.5701,51.4896],[6.5715,51.4969],[6.5836,51.5008],[6.5902,51.5205],[6.5878,51.5243],[6.581,51.5361],[6.5483,51.5284],[6.5385,51.5397],[6.5458,51.5496],[6.5334,51.5547],[6.5209,51.5547],[6.5154,51.5644],[6.5017,51.5647]]]}},{"type":"Feature","properties":{"ags":"05170024","name":"Moers","ewz":105606,"dist_km":28.9,"city":false,"warm_m2":11.72,"own_value":true,"m2_median":77,"share_median":0.232,"m2_p25":60,"share_p25":0.302},"geometry":{"type":"Polygon","coordinates":[[[6.6257,51.5039],[6.6067,51.5229],[6.5893,51.5221],[6.5902,51.5205],[6.5836,51.5008],[6.5715,51.4969],[6.5701,51.4896],[6.5792,51.4811],[6.5839,51.4736],[6.5898,51.4717],[6.5965,51.4591],[6.594,51.4486],[6.5795,51.4418],[6.5909,51.4332],[6.5881,51.4247],[6.5703,51.4172],[6.5757,51.4001],[6.5829,51.3922],[6.6062,51.3943],[6.606,51.3961],[6.6162,51.3958],[6.6357,51.393],[6.6354,51.3949],[6.6256,51.4111],[6.6296,51.4202],[6.6552,51.4088],[6.6633,51.4103],[6.6672,51.4384],[6.6779,51.45],[6.6763,51.4577],[6.6704,51.4591],[6.6644,51.4819],[6.6373,51.4988],[6.6257,51.5039]]]}},{"type":"Feature","properties":{"ags":"05170028","name":"Neukirchen-Vluyn","ewz":28110,"dist_km":29.4,"city":false,"warm_m2":12.02,"own_value":true,"m2_median":76,"share_median":0.238,"m2_p25":58,"share_p25":0.309},"geometry":{"type":"Polygon","coordinates":[[[6.5183,51.4778],[6.5131,51.4813],[6.4973,51.4732],[6.5073,51.4681],[6.5021,51.447],[6.5214,51.4405],[6.5147,51.4273],[6.5166,51.425],[6.5259,51.4239],[6.5286,51.4127],[6.5388,51.4055],[6.5484,51.3929],[6.5695,51.3925],[6.5809,51.3941],[6.5757,51.4001],[6.5703,51.4172],[6.5881,51.4247],[6.5909,51.4332],[6.5795,51.4418],[6.594,51.4486],[6.5965,51.4591],[6.5898,51.4717],[6.5839,51.4736],[6.5785,51.4803],[6.5643,51.4735],[6.5443,51.4774],[6.5183,51.4778]]]}},{"type":"Feature","properties":{"ags":"05170032","name":"Rheinberg","ewz":31096,"dist_km":40.4,"city":false,"warm_m2":11.23,"own_value":true,"m2_median":82,"share_median":0.221,"m2_p25":63,"share_p25":0.286},"geometry":{"type":"Polygon","coordinates":[[[6.5789,51.6177],[6.5762,51.6243],[6.5608,51.6161],[6.555,51.6196],[6.5457,51.614],[6.5444,51.6122],[6.5445,51.6067],[6.5504,51.5974],[6.5491,51.5878],[6.5586,51.5756],[6.5409,51.5663],[6.5369,51.5607],[6.5334,51.5547],[6.5458,51.5496],[6.5385,51.5397],[6.5483,51.5284],[6.581,51.5361],[6.5878,51.5243],[6.5893,51.5221],[6.6067,51.5229],[6.6257,51.5039],[6.629,51.5036],[6.6378,51.5094],[6.6709,51.5116],[6.6997,51.5244],[6.6832,51.5314],[6.6789,51.5345],[6.6766,51.5382],[6.6784,51.5478],[6.6876,51.564],[6.6858,51.5695],[6.6824,51.573],[6.672,51.5769],[6.6573,51.5778],[6.6471,51.5762],[6.6309,51.5698],[6.6223,51.5675],[6.6122,51.5671],[6.6057,51.5687],[6.5999,51.5728],[6.5948,51.6033],[6.5868,51.6193],[6.5789,51.6177]]]}},{"type":"Feature","properties":{"ags":"05170044","name":"Voerde (Niederrhein)","ewz":36282,"dist_km":42.9,"city":false,"warm_m2":10.75,"own_value":true,"m2_median":85,"share_median":0.211,"m2_p25":66,"share_p25":0.274},"geometry":{"type":"Polygon","coordinates":[[[6.6084,51.6369],[6.5913,51.6288],[6.5868,51.6214],[6.5875,51.617],[6.5948,51.6033],[6.5999,51.5728],[6.6033,51.5699],[6.6087,51.5678],[6.6185,51.5669],[6.6266,51.5685],[6.6506,51.5769],[6.6604,51.5779],[6.667,51.5776],[6.6745,51.5763],[6.6812,51.5738],[6.6858,51.5695],[6.6876,51.564],[6.7162,51.5738],[6.7157,51.5887],[6.7214,51.5886],[6.7128,51.6075],[6.7023,51.6178],[6.6893,51.6207],[6.6884,51.6286],[6.6781,51.6349],[6.6551,51.6348],[6.6272,51.6279],[6.6084,51.6369]]]}},{"type":"Feature","properties":{"ags":"05315000","name":"Köln","ewz":1087353,"dist_km":31.2,"city":false,"warm_m2":16.97,"own_value":true,"m2_median":54,"share_median":0.336,"m2_p25":41,"share_p25":0.436},"geometry":{"type":"Polygon","coordinates":[[[6.974,51.0186],[6.9731,51.0236],[6.9667,51.0306],[6.9577,51.0359],[6.9145,51.0564],[6.8936,51.0667],[6.8599,51.0741],[6.8542,51.0785],[6.8535,51.0843],[6.823,51.0739],[6.831,51.0585],[6.8048,51.0484],[6.8009,51.0595],[6.7874,51.0688],[6.7736,51.0644],[6.7724,51.0603],[6.7878,51.0501],[6.7983,51.037],[6.8203,51.038],[6.8398,51.0289],[6.8364,51.0185],[6.8408,51.0035],[6.8353,50.9997],[6.8397,50.9823],[6.819,50.9653],[6.824,50.9578],[6.8088,50.9486],[6.8158,50.9393],[6.8225,50.9277],[6.8374,50.9259],[6.8443,50.9101],[6.857,50.9043],[6.8794,50.9096],[6.9189,50.8919],[6.913,50.8829],[6.9209,50.8713],[6.919,50.8563],[6.9216,50.8483],[6.9298,50.8412],[6.9312,50.8375],[6.9467,50.8455],[6.956,50.8352],[6.9739,50.8439],[6.9809,50.8409],[6.9841,50.8441],[6.9952,50.8363],[7.0233,50.8393],[7.0271,50.847],[7.051,50.8502],[7.0613,50.8442],[7.0624,50.8296],[7.0906,50.8333],[7.1142,50.846],[7.1376,50.858],[7.1613,50.8673],[7.1527,50.8746],[7.1403,50.8874],[7.1373,50.9088],[7.1399,50.9228],[7.1367,50.9278],[7.1444,50.9422],[7.1113,50.9427],[7.103,50.9499],[7.0874,50.9593],[7.1013,50.9679],[7.0956,50.9852],[7.0676,50.99],[7.0765,51.0018],[7.0619,51.0134],[7.0679,51.0187],[7.0426,51.0194],[7.0159,51.0174],[7.0139,51.0231],[6.9853,51.0116],[6.974,51.0186]]]}},{"type":"Feature","properties":{"ags":"05316000","name":"Leverkusen","ewz":166414,"dist_km":24,"city":false,"warm_m2":13.51,"own_value":true,"m2_median":67,"share_median":0.269,"m2_p25":52,"share_p25":0.349},"geometry":{"type":"Polygon","coordinates":[[[7.0743,51.097],[7.0441,51.0971],[7.0423,51.0957],[7.0385,51.0949],[7.0308,51.0898],[7.0113,51.0818],[6.9906,51.0916],[6.9895,51.075],[6.9716,51.068],[6.9606,51.0723],[6.9391,51.0723],[6.9263,51.082],[6.9234,51.0808],[6.898,51.0649],[6.964,51.0325],[6.9722,51.0253],[6.974,51.0186],[6.9853,51.0116],[7.0139,51.0231],[7.0159,51.0174],[7.0426,51.0194],[7.0679,51.0187],[7.0733,51.0224],[7.0761,51.0225],[7.0855,51.0268],[7.0887,51.0256],[7.0941,51.0268],[7.0931,51.0339],[7.1053,51.0544],[7.1129,51.0608],[7.1156,51.0628],[7.0689,51.0678],[7.0576,51.0775],[7.0713,51.0884],[7.0743,51.097]]]}},{"type":"Feature","properties":{"ags":"05358024","name":"Jülich","ewz":33359,"dist_km":44.5,"city":false,"warm_m2":12.89,"own_value":true,"m2_median":71,"share_median":0.253,"m2_p25":55,"share_p25":0.328},"geometry":{"type":"Polygon","coordinates":[[[6.448,50.9595],[6.4319,50.9706],[6.3885,50.967],[6.3746,50.9805],[6.3609,50.9657],[6.3592,50.9673],[6.3581,50.9661],[6.3587,50.9642],[6.3543,50.9633],[6.321,50.9521],[6.311,50.9575],[6.2826,50.9481],[6.2677,50.9369],[6.2699,50.9348],[6.2646,50.9248],[6.2952,50.9207],[6.307,50.8949],[6.3323,50.8837],[6.3401,50.8854],[6.3684,50.8888],[6.3763,50.8965],[6.3879,50.8843],[6.3963,50.8851],[6.4079,50.8819],[6.4102,50.8795],[6.4225,50.8829],[6.4188,50.8955],[6.4358,50.9082],[6.436,50.9277],[6.4537,50.9342],[6.4549,50.9348],[6.448,50.9595]]]}},{"type":"Feature","properties":{"ags":"05358036","name":"Linnich","ewz":13056,"dist_km":44.9,"city":false,"warm_m2":11.48,"own_value":true,"m2_median":80,"share_median":0.225,"m2_p25":62,"share_p25":0.292},"geometry":{"type":"Polygon","coordinates":[[[6.2899,51.0249],[6.285,51.0104],[6.2732,50.9996],[6.2467,50.9923],[6.2367,50.9886],[6.2344,50.9857],[6.1947,50.9675],[6.1977,50.9525],[6.1945,50.9501],[6.1984,50.948],[6.2026,50.9439],[6.2229,50.9419],[6.2296,50.935],[6.2331,50.936],[6.262,50.9399],[6.2677,50.9369],[6.2826,50.9481],[6.311,50.9575],[6.321,50.9521],[6.3543,50.9633],[6.3587,50.9642],[6.3581,50.9661],[6.3592,50.9673],[6.3496,50.9759],[6.3367,50.9864],[6.3543,50.9929],[6.3587,51.0054],[6.3563,51.0165],[6.3223,51.0128],[6.2999,51.0159],[6.2983,51.0247],[6.2899,51.0249]]]}},{"type":"Feature","properties":{"ags":"05358040","name":"Merzenich","ewz":10409,"dist_km":44.9,"city":false,"warm_m2":12.87,"own_value":true,"m2_median":71,"share_median":0.252,"m2_p25":55,"share_p25":0.327},"geometry":{"type":"Polygon","coordinates":[[[6.536,50.8924],[6.5215,50.8757],[6.5205,50.8651],[6.5072,50.8524],[6.5188,50.8394],[6.5016,50.8229],[6.5291,50.8167],[6.5382,50.8054],[6.5436,50.8067],[6.5494,50.8016],[6.5735,50.8081],[6.5765,50.8212],[6.5981,50.825],[6.6142,50.8246],[6.6125,50.8294],[6.6116,50.8385],[6.5977,50.848],[6.5718,50.8468],[6.5531,50.8654],[6.5614,50.878],[6.5527,50.8927],[6.5508,50.8907],[6.536,50.8924]]]}},{"type":"Feature","properties":{"ags":"05358048","name":"Niederzier","ewz":14493,"dist_km":42.7,"city":false,"warm_m2":11.97,"own_value":true,"m2_median":77,"share_median":0.235,"m2_p25":59,"share_p25":0.305},"geometry":{"type":"Polygon","coordinates":[[[6.4944,50.9498],[6.4874,50.9513],[6.4828,50.9527],[6.4794,50.945],[6.4635,50.938],[6.4537,50.9342],[6.436,50.9277],[6.4358,50.9082],[6.4188,50.8955],[6.4225,50.8829],[6.4137,50.8806],[6.4187,50.8755],[6.429,50.8714],[6.4314,50.8694],[6.4334,50.8574],[6.4377,50.8473],[6.4503,50.8412],[6.4762,50.85],[6.4842,50.8462],[6.5072,50.8524],[6.5205,50.8651],[6.5215,50.8757],[6.536,50.8924],[6.524,50.8939],[6.518,50.9043],[6.52,50.9249],[6.5028,50.9309],[6.4944,50.9498]]]}},{"type":"Feature","properties":{"ags":"05358052","name":"Nörvenich","ewz":11387,"dist_km":48.1,"city":false,"warm_m2":12.17,"own_value":true,"m2_median":76,"share_median":0.238,"m2_p25":58,"share_p25":0.308},"geometry":{"type":"Polygon","coordinates":[[[6.6805,50.8359],[6.6771,50.8375],[6.6768,50.8313],[6.6482,50.834],[6.6241,50.822],[6.613,50.8283],[6.6142,50.8246],[6.5981,50.825],[6.5765,50.8212],[6.5735,50.8081],[6.5494,50.8016],[6.5436,50.8067],[6.5354,50.8042],[6.5239,50.7965],[6.5301,50.7849],[6.5384,50.7796],[6.531,50.7751],[6.5386,50.7655],[6.5433,50.7676],[6.546,50.7662],[6.572,50.7749],[6.5659,50.78],[6.5823,50.7858],[6.6034,50.788],[6.6085,50.7816],[6.6411,50.7787],[6.6586,50.7715],[6.6698,50.7682],[6.6807,50.7702],[6.6784,50.7741],[6.7126,50.7878],[6.7069,50.8026],[6.7111,50.8111],[6.7066,50.8353],[6.6864,50.836],[6.6805,50.8359]]]}},{"type":"Feature","properties":{"ags":"05358056","name":"Titz","ewz":8886,"dist_km":37.7,"city":false,"warm_m2":11.72,"own_value":true,"m2_median":78,"share_median":0.231,"m2_p25":60,"share_p25":0.3},"geometry":{"type":"Polygon","coordinates":[[[6.4572,51.0415],[6.431,51.0351],[6.399,51.0322],[6.3716,51.034],[6.3563,51.0165],[6.3587,51.0054],[6.3543,50.9929],[6.3367,50.9864],[6.3496,50.9759],[6.3609,50.9657],[6.3746,50.9805],[6.3885,50.967],[6.4319,50.9706],[6.448,50.9595],[6.4549,50.9348],[6.4635,50.938],[6.4794,50.945],[6.4828,50.9527],[6.4849,50.9522],[6.4887,50.9578],[6.4833,50.9671],[6.5004,50.9714],[6.4994,50.9769],[6.4925,50.9838],[6.4736,50.9839],[6.4705,50.9943],[6.4583,51.0081],[6.4665,51.0117],[6.4597,51.0231],[6.4798,51.0327],[6.4805,51.0342],[6.4592,51.0431],[6.4572,51.0415]]]}},{"type":"Feature","properties":{"ags":"05362004","name":"Bedburg","ewz":24645,"dist_km":28.5,"city":false,"warm_m2":13.08,"own_value":true,"m2_median":69,"share_median":0.259,"m2_p25":53,"share_p25":0.337},"geometry":{"type":"Polygon","coordinates":[[[6.6373,51.0268],[6.5824,51.018],[6.5487,51.0263],[6.5613,51.0352],[6.5533,51.0558],[6.5377,51.0521],[6.5266,51.0584],[6.5259,51.0572],[6.5189,51.0584],[6.4844,51.0424],[6.4798,51.0327],[6.4597,51.0231],[6.4665,51.0117],[6.4583,51.0081],[6.4705,50.9943],[6.4736,50.9839],[6.4925,50.9838],[6.4994,50.9769],[6.5001,50.9734],[6.5469,50.9762],[6.5593,50.9727],[6.561,50.9692],[6.5657,50.9693],[6.5732,50.9709],[6.5867,50.9811],[6.607,50.9907],[6.6299,50.995],[6.6368,50.988],[6.657,50.992],[6.6594,51.0012],[6.6539,51.0038],[6.6503,51.0071],[6.6478,51.0212],[6.6396,51.023],[6.6373,51.0268]]]}},{"type":"Feature","properties":{"ags":"05362008","name":"Bergheim","ewz":62172,"dist_km":29.3,"city":false,"warm_m2":13.02,"own_value":true,"m2_median":70,"share_median":0.258,"m2_p25":54,"share_p25":0.335},"geometry":{"type":"Polygon","coordinates":[[[6.6503,51.0222],[6.6478,51.0212],[6.6499,51.0079],[6.6519,51.0052],[6.6594,51.0012],[6.657,50.992],[6.6368,50.988],[6.6299,50.995],[6.607,50.9907],[6.5867,50.9811],[6.5732,50.9709],[6.5668,50.9694],[6.561,50.9692],[6.5629,50.9664],[6.5725,50.9587],[6.6027,50.9469],[6.6205,50.9378],[6.6548,50.916],[6.6598,50.9194],[6.6776,50.9243],[6.7314,50.9262],[6.7198,50.9287],[6.7304,50.9339],[6.7395,50.9466],[6.7399,50.9551],[6.7649,50.9683],[6.7549,50.9794],[6.7518,50.9919],[6.7598,50.9987],[6.7466,51.0063],[6.7252,50.9985],[6.7114,51.0069],[6.7141,51.0126],[6.7154,51.0151],[6.6819,51.0187],[6.6734,51.0159],[6.6503,51.0222]]]}},{"type":"Feature","properties":{"ags":"05362012","name":"Brühl","ewz":45515,"dist_km":45.1,"city":false,"warm_m2":16.03,"own_value":true,"m2_median":57,"share_median":0.314,"m2_p25":44,"share_p25":0.407},"geometry":{"type":"Polygon","coordinates":[[[6.9216,50.8483],[6.9196,50.8544],[6.9158,50.8508],[6.903,50.849],[6.8934,50.851],[6.875,50.8437],[6.85,50.8435],[6.833,50.8299],[6.8413,50.8257],[6.8462,50.8004],[6.852,50.7886],[6.8576,50.7896],[6.8639,50.7848],[6.8839,50.796],[6.9133,50.7991],[6.9338,50.8053],[6.9421,50.804],[6.9436,50.8048],[6.9348,50.8107],[6.9396,50.8119],[6.9298,50.8412],[6.9216,50.8483]]]}},{"type":"Feature","properties":{"ags":"05362016","name":"Elsdorf","ewz":21993,"dist_km":35.7,"city":false,"warm_m2":12.4,"own_value":true,"m2_median":74,"share_median":0.245,"m2_p25":57,"share_p25":0.318},"geometry":{"type":"Polygon","coordinates":[[[6.5593,50.9727],[6.5469,50.9762],[6.5001,50.9734],[6.5004,50.9714],[6.4833,50.9671],[6.4887,50.9578],[6.4849,50.9522],[6.4944,50.9498],[6.5028,50.9309],[6.52,50.9249],[6.518,50.9043],[6.524,50.8939],[6.5508,50.8907],[6.553,50.894],[6.5755,50.8968],[6.5951,50.9053],[6.6215,50.9027],[6.6176,50.8946],[6.6364,50.8918],[6.6486,50.9065],[6.6548,50.916],[6.6205,50.9378],[6.6027,50.9469],[6.5725,50.9587],[6.5629,50.9664],[6.5593,50.9727]]]}},{"type":"Feature","properties":{"ags":"05362020","name":"Erftstadt","ewz":50018,"dist_km":48,"city":false,"warm_m2":14.08,"own_value":true,"m2_median":65,"share_median":0.275,"m2_p25":50,"share_p25":0.357},"geometry":{"type":"Polygon","coordinates":[[[6.8029,50.8505],[6.7876,50.8471],[6.7797,50.8391],[6.764,50.8391],[6.7339,50.8559],[6.7103,50.8542],[6.6899,50.8475],[6.6864,50.836],[6.7066,50.8353],[6.7111,50.8111],[6.7069,50.8026],[6.7126,50.7878],[6.6784,50.7741],[6.6831,50.7648],[6.688,50.7626],[6.6938,50.7538],[6.6967,50.7558],[6.6993,50.7535],[6.704,50.7522],[6.7158,50.7537],[6.7241,50.7459],[6.7096,50.7353],[6.7276,50.73],[6.7552,50.7274],[6.776,50.7178],[6.7871,50.7329],[6.8035,50.7472],[6.8181,50.7656],[6.8382,50.7672],[6.8373,50.7781],[6.8446,50.786],[6.8488,50.7868],[6.852,50.7886],[6.8462,50.8004],[6.8413,50.8257],[6.833,50.8299],[6.8422,50.8369],[6.8295,50.8418],[6.8182,50.8553],[6.804,50.855],[6.8029,50.8505]]]}},{"type":"Feature","properties":{"ags":"05362024","name":"Frechen","ewz":53128,"dist_km":33.8,"city":false,"warm_m2":15.15,"own_value":true,"m2_median":60,"share_median":0.299,"m2_p25":46,"share_p25":0.389},"geometry":{"type":"Polygon","coordinates":[[[6.8153,50.94],[6.8051,50.9389],[6.8047,50.9407],[6.793,50.9395],[6.7904,50.9449],[6.7712,50.949],[6.7429,50.9439],[6.7395,50.9466],[6.7304,50.9339],[6.7198,50.9287],[6.7525,50.922],[6.7343,50.9069],[6.7433,50.8881],[6.7641,50.8761],[6.7796,50.8778],[6.7924,50.884],[6.8237,50.8908],[6.8434,50.8996],[6.8501,50.9057],[6.8539,50.9056],[6.8443,50.9101],[6.8374,50.9259],[6.8225,50.9277],[6.8158,50.9393],[6.8153,50.94]]]}},{"type":"Feature","properties":{"ags":"05362028","name":"Hürth","ewz":61252,"dist_km":38.6,"city":false,"warm_m2":16.12,"own_value":true,"m2_median":57,"share_median":0.317,"m2_p25":44,"share_p25":0.412},"geometry":{"type":"Polygon","coordinates":[[[6.9189,50.8919],[6.8794,50.9096],[6.857,50.9043],[6.8539,50.9056],[6.8501,50.9057],[6.8434,50.8996],[6.8237,50.8908],[6.7924,50.884],[6.7796,50.8778],[6.7797,50.8657],[6.802,50.8655],[6.804,50.855],[6.8182,50.8553],[6.8295,50.8418],[6.8422,50.8369],[6.85,50.8435],[6.875,50.8437],[6.8934,50.851],[6.903,50.849],[6.9174,50.8514],[6.9196,50.8544],[6.919,50.8563],[6.9209,50.8713],[6.913,50.8829],[6.9189,50.8919]]]}},{"type":"Feature","properties":{"ags":"05362032","name":"Kerpen","ewz":67627,"dist_km":39.6,"city":false,"warm_m2":13.95,"own_value":true,"m2_median":66,"share_median":0.274,"m2_p25":51,"share_p25":0.356},"geometry":{"type":"Polygon","coordinates":[[[6.7314,50.9262],[6.6776,50.9243],[6.6598,50.9194],[6.6486,50.9065],[6.6364,50.8918],[6.6176,50.8946],[6.6215,50.9027],[6.5951,50.9053],[6.5755,50.8968],[6.553,50.894],[6.5527,50.8927],[6.5614,50.878],[6.5531,50.8654],[6.5718,50.8468],[6.5977,50.848],[6.6116,50.8385],[6.6125,50.8294],[6.613,50.8283],[6.6241,50.822],[6.6482,50.834],[6.6768,50.8313],[6.6771,50.8375],[6.6805,50.8359],[6.6864,50.836],[6.6899,50.8475],[6.7103,50.8542],[6.7339,50.8559],[6.764,50.8391],[6.7797,50.8391],[6.7876,50.8471],[6.8029,50.8505],[6.802,50.8655],[6.7797,50.8657],[6.7796,50.8778],[6.7641,50.8761],[6.7433,50.8881],[6.7343,50.9069],[6.7525,50.922],[6.7314,50.9262]]]}},{"type":"Feature","properties":{"ags":"05362036","name":"Pulheim","ewz":56284,"dist_km":23.9,"city":false,"warm_m2":15.84,"own_value":true,"m2_median":57,"share_median":0.315,"m2_p25":44,"share_p25":0.41},"geometry":{"type":"Polygon","coordinates":[[[6.7623,51.0655],[6.7532,51.0661],[6.7526,51.0604],[6.7609,51.0502],[6.7617,51.0425],[6.7281,51.031],[6.7204,51.0225],[6.7141,51.0126],[6.7114,51.0069],[6.7252,50.9985],[6.7466,51.0063],[6.7598,50.9987],[6.7518,50.9919],[6.7549,50.9794],[6.7649,50.9683],[6.7399,50.9551],[6.7395,50.9466],[6.7429,50.9439],[6.7712,50.949],[6.7904,50.9449],[6.793,50.9395],[6.8047,50.9407],[6.8051,50.9389],[6.8153,50.94],[6.8088,50.9486],[6.824,50.9578],[6.819,50.9653],[6.8397,50.9823],[6.8353,50.9997],[6.8408,51.0035],[6.8364,51.0185],[6.8398,51.0289],[6.8203,51.038],[6.7983,51.037],[6.7878,51.0501],[6.7724,51.0603],[6.7729,51.0653],[6.7623,51.0655]]]}},{"type":"Feature","properties":{"ags":"05362040","name":"Wesseling","ewz":38355,"dist_km":46.3,"city":false,"warm_m2":15.04,"own_value":true,"m2_median":61,"share_median":0.294,"m2_p25":47,"share_p25":0.382},"geometry":{"type":"Polygon","coordinates":[[[6.956,50.8352],[6.9467,50.8455],[6.9312,50.8375],[6.9396,50.8119],[6.9348,50.8107],[6.9436,50.8048],[6.9421,50.804],[6.9515,50.8029],[6.9555,50.8031],[6.958,50.8043],[6.9662,50.7995],[6.9828,50.8008],[6.9898,50.7923],[7.0064,50.7978],[7.0104,50.7968],[7.0228,50.8006],[7.0302,50.8007],[7.0287,50.8132],[7.025,50.8183],[7.0128,50.8235],[6.9947,50.8252],[6.9823,50.8306],[6.9797,50.834],[6.9809,50.8409],[6.9739,50.8439],[6.956,50.8352]]]}},{"type":"Feature","properties":{"ags":"05370004","name":"Erkelenz","ewz":44572,"dist_km":35,"city":false,"warm_m2":12.56,"own_value":true,"m2_median":73,"share_median":0.248,"m2_p25":56,"share_p25":0.322},"geometry":{"type":"Polygon","coordinates":[[[6.349,51.106],[6.3237,51.1054],[6.3135,51.101],[6.2965,51.1123],[6.2795,51.1105],[6.2706,51.1157],[6.2345,51.1123],[6.2313,51.1076],[6.2003,51.1065],[6.2061,51.1021],[6.2058,51.0911],[6.2203,51.0856],[6.2353,51.0898],[6.2392,51.0803],[6.235,51.0686],[6.2605,51.068],[6.2767,51.0477],[6.2899,51.0465],[6.3012,51.0281],[6.2944,51.0274],[6.2958,51.0244],[6.2983,51.0247],[6.2999,51.0159],[6.3223,51.0128],[6.3563,51.0165],[6.3716,51.034],[6.399,51.0322],[6.431,51.0351],[6.4572,51.0415],[6.4772,51.0561],[6.4473,51.0625],[6.4445,51.0679],[6.4524,51.0744],[6.4506,51.0902],[6.444,51.0898],[6.4446,51.0887],[6.42,51.0862],[6.4046,51.0881],[6.3866,51.0976],[6.3604,51.0955],[6.3549,51.1026],[6.349,51.106]]]}},{"type":"Feature","properties":{"ags":"05370020","name":"Hückelhoven","ewz":41594,"dist_km":43.5,"city":false,"warm_m2":12.22,"own_value":true,"m2_median":75,"share_median":0.24,"m2_p25":58,"share_p25":0.311},"geometry":{"type":"Polygon","coordinates":[[[6.2058,51.0911],[6.1545,51.0761],[6.1526,51.0737],[6.1577,51.0658],[6.1684,51.0555],[6.185,51.0485],[6.1842,51.0419],[6.2136,51.0217],[6.215,51.0156],[6.2261,50.9995],[6.2254,50.9925],[6.2418,50.9869],[6.2467,50.9923],[6.2732,50.9996],[6.285,51.0104],[6.2899,51.0249],[6.2958,51.0244],[6.2944,51.0274],[6.3012,51.0281],[6.2899,51.0465],[6.2767,51.0477],[6.2605,51.068],[6.235,51.0686],[6.2392,51.0803],[6.2353,51.0898],[6.2203,51.0856],[6.2058,51.0911]]]}},{"type":"Feature","properties":{"ags":"05370036","name":"Wassenberg","ewz":19541,"dist_km":47.5,"city":false,"warm_m2":12.14,"own_value":true,"m2_median":76,"share_median":0.237,"m2_p25":58,"share_p25":0.308},"geometry":{"type":"Polygon","coordinates":[[[6.1534,51.1461],[6.126,51.1451],[6.1159,51.1391],[6.0919,51.135],[6.0808,51.1217],[6.0863,51.1175],[6.0968,51.1026],[6.117,51.0968],[6.136,51.0866],[6.1484,51.0814],[6.1547,51.0798],[6.1545,51.0761],[6.2058,51.0911],[6.2061,51.1021],[6.1883,51.1119],[6.1801,51.1206],[6.187,51.1407],[6.1711,51.138],[6.1534,51.1461]]]}},{"type":"Feature","properties":{"ags":"05370040","name":"Wegberg","ewz":27305,"dist_km":39.5,"city":false,"warm_m2":12.01,"own_value":true,"m2_median":76,"share_median":0.236,"m2_p25":59,"share_p25":0.307},"geometry":{"type":"Polygon","coordinates":[[[6.2626,51.1861],[6.2507,51.1899],[6.2486,51.1872],[6.2412,51.1876],[6.2186,51.1696],[6.2098,51.1663],[6.1748,51.1845],[6.1388,51.1733],[6.1754,51.1585],[6.1534,51.1461],[6.1711,51.138],[6.187,51.1407],[6.1801,51.1206],[6.1883,51.1119],[6.2003,51.1065],[6.2313,51.1076],[6.2345,51.1123],[6.2706,51.1157],[6.2795,51.1105],[6.2965,51.1123],[6.3135,51.101],[6.3237,51.1054],[6.349,51.106],[6.3511,51.1049],[6.3484,51.1197],[6.3544,51.1266],[6.3331,51.1349],[6.332,51.1423],[6.319,51.1501],[6.3019,51.1525],[6.3059,51.1652],[6.2941,51.1676],[6.282,51.1754],[6.2626,51.1861]]]}},{"type":"Feature","properties":{"ags":"05374016","name":"Hückeswagen","ewz":14770,"dist_km":39.1,"city":false,"warm_m2":11.08,"own_value":true,"m2_median":83,"share_median":0.218,"m2_p25":64,"share_p25":0.283},"geometry":{"type":"Polygon","coordinates":[[[7.3787,51.1728],[7.3813,51.1888],[7.3686,51.1968],[7.3505,51.1857],[7.3275,51.1801],[7.3054,51.1796],[7.2934,51.1614],[7.2972,51.151],[7.2875,51.144],[7.2785,51.1443],[7.2682,51.1457],[7.2698,51.1384],[7.2746,51.128],[7.2736,51.1148],[7.2799,51.1092],[7.2984,51.1046],[7.3283,51.1054],[7.3353,51.1202],[7.3262,51.1255],[7.3471,51.1316],[7.3674,51.1256],[7.3778,51.1413],[7.3948,51.1482],[7.3867,51.1558],[7.3837,51.1681],[7.3787,51.1728]]]}},{"type":"Feature","properties":{"ags":"05374020","name":"Lindlar","ewz":21836,"dist_km":45.1,"city":false,"warm_m2":12.4,"own_value":true,"m2_median":74,"share_median":0.243,"m2_p25":57,"share_p25":0.315},"geometry":{"type":"Polygon","coordinates":[[[7.4012,51.0767],[7.3985,51.079],[7.3784,51.0695],[7.3599,51.0539],[7.3322,51.0485],[7.3239,51.0471],[7.3131,51.0278],[7.3043,51.0265],[7.2914,51.0322],[7.2825,51.0222],[7.2827,51.0063],[7.2741,50.9976],[7.2637,50.9934],[7.2526,50.9866],[7.2529,50.9852],[7.2841,50.9712],[7.3004,50.9785],[7.3188,50.9766],[7.3306,50.9797],[7.3463,50.9888],[7.3652,50.9885],[7.3739,50.9935],[7.3845,50.9966],[7.3879,51.0052],[7.4292,51.0115],[7.4403,51.0219],[7.4397,51.0243],[7.4352,51.0302],[7.4499,51.0364],[7.4575,51.0459],[7.4629,51.0491],[7.4602,51.0497],[7.4579,51.0557],[7.4613,51.0635],[7.4547,51.0705],[7.4405,51.0756],[7.4348,51.0742],[7.4356,51.0706],[7.4243,51.0644],[7.4184,51.067],[7.4174,51.069],[7.412,51.0728],[7.4012,51.0767]]]}},{"type":"Feature","properties":{"ags":"05374036","name":"Radevormwald","ewz":22159,"dist_km":39.8,"city":false,"warm_m2":11.7,"own_value":true,"m2_median":78,"share_median":0.23,"m2_p25":60,"share_p25":0.299},"geometry":{"type":"Polygon","coordinates":[[[7.3476,51.2409],[7.3327,51.2503],[7.3067,51.2389],[7.3077,51.2351],[7.2969,51.2239],[7.3004,51.2101],[7.2958,51.2054],[7.2986,51.1958],[7.3038,51.1927],[7.3051,51.1922],[7.2997,51.1861],[7.3032,51.1855],[7.3073,51.1872],[7.3054,51.1796],[7.3275,51.1801],[7.3505,51.1857],[7.3686,51.1968],[7.3813,51.1888],[7.3787,51.1728],[7.3812,51.1701],[7.383,51.1697],[7.3895,51.1723],[7.39,51.1771],[7.4049,51.1872],[7.4079,51.182],[7.411,51.1781],[7.4227,51.1856],[7.4269,51.1866],[7.419,51.2008],[7.4278,51.203],[7.4305,51.209],[7.4302,51.2138],[7.4333,51.2144],[7.4297,51.2159],[7.4312,51.2189],[7.4176,51.2286],[7.4006,51.2235],[7.3953,51.2299],[7.3981,51.2342],[7.3877,51.2424],[7.379,51.2419],[7.3752,51.2447],[7.3705,51.2455],[7.3661,51.2441],[7.3642,51.2455],[7.3621,51.2437],[7.3476,51.2409]]]}},{"type":"Feature","properties":{"ags":"05374052","name":"Wipperfürth","ewz":21059,"dist_km":45.1,"city":false,"warm_m2":11.8,"own_value":true,"m2_median":78,"share_median":0.231,"m2_p25":60,"share_p25":0.3},"geometry":{"type":"Polygon","coordinates":[[[7.411,51.1781],[7.4079,51.182],[7.4049,51.1872],[7.39,51.1771],[7.3895,51.1723],[7.383,51.1697],[7.3812,51.1701],[7.3837,51.1681],[7.3867,51.1558],[7.3948,51.1482],[7.3778,51.1413],[7.3674,51.1256],[7.3471,51.1316],[7.3262,51.1255],[7.3353,51.1202],[7.3283,51.1054],[7.2984,51.1046],[7.2822,51.0873],[7.2746,51.0827],[7.2804,51.0791],[7.2938,51.0794],[7.2999,51.0691],[7.3096,51.0701],[7.3168,51.0795],[7.3294,51.0724],[7.3313,51.0616],[7.3238,51.0524],[7.3325,51.0523],[7.3299,51.0485],[7.3322,51.0485],[7.3599,51.0539],[7.3784,51.0695],[7.3985,51.079],[7.4012,51.0767],[7.412,51.0728],[7.4174,51.069],[7.4184,51.067],[7.4243,51.0644],[7.4356,51.0706],[7.4348,51.0742],[7.4405,51.0756],[7.4547,51.0705],[7.4684,51.0737],[7.4812,51.0825],[7.4801,51.0937],[7.4945,51.105],[7.4962,51.1061],[7.5043,51.1167],[7.5024,51.1304],[7.4927,51.125],[7.4804,51.1413],[7.4721,51.1396],[7.4752,51.143],[7.4698,51.1551],[7.4556,51.1599],[7.4405,51.1714],[7.4368,51.1801],[7.4272,51.1822],[7.4253,51.1838],[7.424,51.186],[7.411,51.1781]]]}},{"type":"Feature","properties":{"ags":"05378004","name":"Bergisch Gladbach","ewz":112660,"dist_km":37.7,"city":false,"warm_m2":14.7,"own_value":true,"m2_median":62,"share_median":0.29,"m2_p25":48,"share_p25":0.376},"geometry":{"type":"Polygon","coordinates":[[[7.0855,51.0268],[7.0761,51.0225],[7.0733,51.0224],[7.0679,51.0187],[7.0619,51.0134],[7.0765,51.0018],[7.0676,50.99],[7.0956,50.9852],[7.1013,50.9679],[7.0874,50.9593],[7.103,50.9499],[7.1113,50.9427],[7.1444,50.9422],[7.1367,50.9278],[7.1399,50.9228],[7.1395,50.9197],[7.1675,50.9346],[7.1757,50.9319],[7.1936,50.9433],[7.2365,50.9635],[7.2474,50.9754],[7.2402,50.9835],[7.2502,50.9879],[7.2328,50.9918],[7.2156,51.002],[7.2005,51.0046],[7.1989,51.0184],[7.1911,51.0126],[7.1446,51.0166],[7.1201,51.0105],[7.1055,51.0108],[7.0998,51.0124],[7.1045,51.017],[7.0983,51.0242],[7.092,51.0261],[7.0887,51.0256],[7.0855,51.0268]]]}},{"type":"Feature","properties":{"ags":"05378008","name":"Burscheid","ewz":19005,"dist_km":26.6,"city":false,"warm_m2":12.44,"own_value":true,"m2_median":73,"share_median":0.247,"m2_p25":56,"share_p25":0.321},"geometry":{"type":"Polygon","coordinates":[[[7.1667,51.0909],[7.1582,51.1003],[7.1647,51.1149],[7.159,51.1187],[7.1396,51.1072],[7.1184,51.1068],[7.0743,51.097],[7.0713,51.0884],[7.0576,51.0775],[7.0689,51.0678],[7.1156,51.0628],[7.1227,51.066],[7.1387,51.0662],[7.1461,51.0741],[7.1475,51.0792],[7.1502,51.0815],[7.1527,51.0839],[7.1538,51.0857],[7.1667,51.0909]]]}},{"type":"Feature","properties":{"ags":"05378012","name":"Kürten","ewz":20158,"dist_km":38,"city":false,"warm_m2":12.47,"own_value":true,"m2_median":73,"share_median":0.246,"m2_p25":56,"share_p25":0.319},"geometry":{"type":"Polygon","coordinates":[[[7.2804,51.0791],[7.2746,51.0827],[7.2611,51.0806],[7.2368,51.0744],[7.2118,51.0719],[7.2008,51.0662],[7.195,51.0657],[7.1954,51.0587],[7.2096,51.0514],[7.1918,51.0458],[7.1862,51.0306],[7.1989,51.0184],[7.2005,51.0046],[7.2156,51.002],[7.2328,50.9918],[7.2463,50.9916],[7.2526,50.9866],[7.2637,50.9934],[7.2741,50.9976],[7.2827,51.0063],[7.2825,51.0222],[7.2914,51.0322],[7.3043,51.0265],[7.3131,51.0278],[7.3239,51.0471],[7.3299,51.0485],[7.3325,51.0523],[7.3238,51.0524],[7.3313,51.0616],[7.3294,51.0724],[7.3168,51.0795],[7.3096,51.0701],[7.2999,51.0691],[7.2938,51.0794],[7.2804,51.0791]]]}},{"type":"Feature","properties":{"ags":"05378016","name":"Leichlingen (Rhld.)","ewz":28202,"dist_km":22.8,"city":false,"warm_m2":13.34,"own_value":true,"m2_median":68,"share_median":0.266,"m2_p25":52,"share_p25":0.345},"geometry":{"type":"Polygon","coordinates":[[[7.0967,51.134],[7.0869,51.1356],[7.0761,51.1362],[7.0774,51.1281],[7.0585,51.1242],[7.0451,51.1315],[7.0231,51.1296],[7.0124,51.1238],[7.0039,51.1229],[6.9983,51.1199],[6.9977,51.118],[6.9997,51.1149],[6.9926,51.1087],[6.9906,51.0916],[7.0029,51.0853],[7.0073,51.0843],[7.0096,51.0819],[7.0122,51.0819],[7.0308,51.0898],[7.0385,51.0949],[7.0423,51.0957],[7.0441,51.0971],[7.0743,51.097],[7.1184,51.1068],[7.1396,51.1072],[7.159,51.1187],[7.1563,51.1217],[7.1443,51.1191],[7.1368,51.1184],[7.1358,51.1167],[7.1308,51.1182],[7.1194,51.1227],[7.1171,51.1328],[7.1045,51.1366],[7.0967,51.134]]]}},{"type":"Feature","properties":{"ags":"05378020","name":"Odenthal","ewz":15385,"dist_km":31.6,"city":false,"warm_m2":13.32,"own_value":true,"m2_median":68,"share_median":0.264,"m2_p25":53,"share_p25":0.342},"geometry":{"type":"Polygon","coordinates":[[[7.1679,51.0708],[7.1621,51.0745],[7.1387,51.0662],[7.1227,51.066],[7.1129,51.0608],[7.1053,51.0544],[7.0931,51.0339],[7.0941,51.0268],[7.092,51.0261],[7.0983,51.0242],[7.1045,51.017],[7.0998,51.0124],[7.1055,51.0108],[7.1201,51.0105],[7.1446,51.0166],[7.1911,51.0126],[7.1989,51.0184],[7.1862,51.0306],[7.1918,51.0458],[7.2096,51.0514],[7.1954,51.0587],[7.195,51.0657],[7.1868,51.0684],[7.1679,51.0708]]]}},{"type":"Feature","properties":{"ags":"05378024","name":"Overath","ewz":27489,"dist_km":46.5,"city":false,"warm_m2":13.04,"own_value":true,"m2_median":71,"share_median":0.255,"m2_p25":54,"share_p25":0.331},"geometry":{"type":"Polygon","coordinates":[[[7.2529,50.9852],[7.2502,50.9879],[7.2402,50.9835],[7.2474,50.9754],[7.2365,50.9635],[7.1936,50.9433],[7.2181,50.9288],[7.2353,50.9326],[7.249,50.9282],[7.2581,50.9229],[7.2595,50.9192],[7.2751,50.911],[7.3017,50.9069],[7.3072,50.9094],[7.3242,50.917],[7.3458,50.9122],[7.3592,50.9227],[7.3633,50.9347],[7.3858,50.9343],[7.3985,50.9498],[7.3941,50.9535],[7.3872,50.9589],[7.3553,50.951],[7.3259,50.9778],[7.3188,50.9766],[7.3004,50.9785],[7.2841,50.9712],[7.2529,50.9852]]]}},{"type":"Feature","properties":{"ags":"05378028","name":"Rösrath","ewz":29206,"dist_km":44.5,"city":false,"warm_m2":13.95,"own_value":true,"m2_median":66,"share_median":0.273,"m2_p25":51,"share_p25":0.355},"geometry":{"type":"Polygon","coordinates":[[[7.1936,50.9433],[7.1757,50.9319],[7.1675,50.9346],[7.1395,50.9197],[7.1373,50.9088],[7.1403,50.8874],[7.1527,50.8746],[7.1613,50.8673],[7.1649,50.8687],[7.1895,50.8741],[7.1984,50.8753],[7.2035,50.8852],[7.2283,50.9003],[7.236,50.9139],[7.2466,50.9258],[7.249,50.9282],[7.2353,50.9326],[7.2181,50.9288],[7.1936,50.9433]]]}},{"type":"Feature","properties":{"ags":"05378032","name":"Wermelskirchen","ewz":34673,"dist_km":31.9,"city":false,"warm_m2":12.01,"own_value":true,"m2_median":76,"share_median":0.238,"m2_p25":58,"share_p25":0.309},"geometry":{"type":"Polygon","coordinates":[[[7.2368,51.1582],[7.2198,51.1608],[7.1983,51.1516],[7.1848,51.1559],[7.1713,51.1527],[7.1664,51.1539],[7.1698,51.1391],[7.1594,51.1335],[7.1693,51.1268],[7.174,51.1285],[7.1717,51.1255],[7.1563,51.1217],[7.1647,51.1149],[7.1582,51.1003],[7.1667,51.0909],[7.1538,51.0857],[7.1527,51.0839],[7.1502,51.0815],[7.1475,51.0792],[7.1461,51.0741],[7.1387,51.0662],[7.1621,51.0745],[7.1679,51.0708],[7.1868,51.0684],[7.2008,51.0662],[7.2118,51.0719],[7.2368,51.0744],[7.2611,51.0806],[7.2822,51.0873],[7.2984,51.1046],[7.2799,51.1092],[7.2736,51.1148],[7.2746,51.128],[7.2698,51.1384],[7.2618,51.1469],[7.2531,51.1579],[7.2368,51.1582]]]}},{"type":"Feature","properties":{"ags":"05382044","name":"Niederkassel","ewz":39424,"dist_km":49.6,"city":false,"warm_m2":14.93,"own_value":true,"m2_median":62,"share_median":0.291,"m2_p25":48,"share_p25":0.378},"geometry":{"type":"Polygon","coordinates":[[[7.0906,50.8333],[7.0624,50.8296],[7.0613,50.8442],[7.051,50.8502],[7.0271,50.847],[7.0233,50.8393],[6.9952,50.8363],[6.9841,50.8441],[6.9797,50.834],[6.9823,50.8306],[6.9947,50.8252],[7.0128,50.8235],[7.025,50.8183],[7.0297,50.81],[7.0302,50.7938],[7.0488,50.7781],[7.0756,50.7675],[7.0819,50.7729],[7.0891,50.79],[7.0851,50.799],[7.0944,50.8047],[7.085,50.8172],[7.1007,50.82],[7.0906,50.8333]]]}},{"type":"Feature","properties":{"ags":"05512000","name":"Bottrop","ewz":118705,"dist_km":39.6,"city":false,"warm_m2":10.84,"own_value":true,"m2_median":84,"share_median":0.213,"m2_p25":65,"share_p25":0.277},"geometry":{"type":"Polygon","coordinates":[[[6.9478,51.6346],[6.9388,51.6388],[6.9308,51.6446],[6.9,51.6348],[6.8677,51.6311],[6.8715,51.6222],[6.8508,51.6092],[6.8626,51.6008],[6.8625,51.5952],[6.8586,51.5897],[6.8436,51.5829],[6.8332,51.5796],[6.8382,51.5763],[6.844,51.575],[6.8484,51.571],[6.8566,51.5681],[6.8598,51.5575],[6.8852,51.5362],[6.8939,51.5164],[6.9098,51.505],[6.9307,51.4992],[6.9282,51.4969],[6.9551,51.5018],[6.9883,51.5087],[6.9865,51.5134],[6.9993,51.5325],[6.9959,51.54],[6.9804,51.5458],[6.956,51.551],[6.9384,51.5561],[6.9318,51.5626],[6.9273,51.5695],[6.9301,51.5851],[6.947,51.5891],[6.9602,51.5987],[6.9797,51.6058],[6.9827,51.6233],[6.9662,51.635],[6.9478,51.6346]]]}},{"type":"Feature","properties":{"ags":"05513000","name":"Gelsenkirchen","ewz":265885,"dist_km":43,"city":false,"warm_m2":9.57,"own_value":true,"m2_median":96,"share_median":0.188,"m2_p25":74,"share_p25":0.244},"geometry":{"type":"Polygon","coordinates":[[[7.0324,51.6308],[7.0078,51.6257],[6.9877,51.6228],[6.9875,51.6221],[6.994,51.6113],[6.9941,51.5995],[7.011,51.5885],[7.0112,51.5752],[7.0199,51.5527],[7.0288,51.5451],[7.014,51.5382],[7.0102,51.5327],[7.0134,51.5322],[7.0156,51.5264],[7.0207,51.5181],[7.0503,51.5113],[7.0605,51.4972],[7.0738,51.4936],[7.0711,51.485],[7.1042,51.4813],[7.1375,51.4906],[7.1394,51.5001],[7.1381,51.5088],[7.1385,51.5239],[7.1234,51.5469],[7.1294,51.5514],[7.1305,51.5524],[7.1451,51.5522],[7.139,51.5726],[7.1224,51.5855],[7.1058,51.5941],[7.0751,51.5889],[7.0773,51.6053],[7.0673,51.6151],[7.0325,51.625],[7.0324,51.6308]]]}},{"type":"Feature","properties":{"ags":"05562014","name":"Gladbeck","ewz":75799,"dist_km":41.9,"city":false,"warm_m2":9.91,"own_value":true,"m2_median":93,"share_median":0.195,"m2_p25":71,"share_p25":0.252},"geometry":{"type":"Polygon","coordinates":[[[6.9941,51.5995],[6.994,51.6113],[6.9875,51.6221],[6.9875,51.6236],[6.9827,51.6233],[6.9797,51.6058],[6.9602,51.5987],[6.947,51.5891],[6.9301,51.5851],[6.9273,51.5695],[6.9318,51.5626],[6.94,51.5553],[6.956,51.551],[6.9804,51.5458],[6.9969,51.5395],[6.9987,51.5337],[7.0024,51.5341],[7.0102,51.5327],[7.014,51.5382],[7.0288,51.5451],[7.0199,51.5527],[7.0112,51.5752],[7.011,51.5885],[6.9941,51.5995]]]}},{"type":"Feature","properties":{"ags":"05562020","name":"Herten","ewz":62204,"dist_km":47.9,"city":false,"warm_m2":9.88,"own_value":true,"m2_median":93,"share_median":0.193,"m2_p25":72,"share_p25":0.25},"geometry":{"type":"Polygon","coordinates":[[[7.1796,51.5527],[7.168,51.584],[7.1684,51.5953],[7.1605,51.6063],[7.163,51.614],[7.1568,51.6258],[7.1344,51.6334],[7.123,51.6283],[7.1063,51.6289],[7.0755,51.6225],[7.0673,51.6151],[7.0773,51.6053],[7.0751,51.5889],[7.1058,51.5941],[7.1224,51.5855],[7.139,51.5726],[7.1451,51.5522],[7.1796,51.5527]]]}},{"type":"Feature","properties":{"ags":"05911000","name":"Bochum","ewz":366385,"dist_km":41.3,"city":false,"warm_m2":11.59,"own_value":true,"m2_median":79,"share_median":0.228,"m2_p25":61,"share_p25":0.295},"geometry":{"type":"Polygon","coordinates":[[[7.2957,51.53],[7.294,51.532],[7.2862,51.5261],[7.2604,51.5263],[7.2277,51.5174],[7.2075,51.5219],[7.1973,51.5206],[7.1925,51.5093],[7.1693,51.5043],[7.1606,51.5088],[7.1448,51.5056],[7.1394,51.5001],[7.1375,51.4906],[7.1042,51.4813],[7.114,51.4657],[7.1095,51.4594],[7.1211,51.455],[7.1333,51.4418],[7.1238,51.4309],[7.1447,51.4232],[7.1547,51.4143],[7.1736,51.415],[7.1808,51.42],[7.1914,51.4182],[7.1987,51.4192],[7.2059,51.4183],[7.2209,51.4123],[7.236,51.412],[7.2526,51.4133],[7.2832,51.4377],[7.2898,51.4439],[7.2872,51.4543],[7.2967,51.4569],[7.342,51.4558],[7.349,51.466],[7.3491,51.4763],[7.3482,51.4827],[7.3476,51.4842],[7.3371,51.4972],[7.3219,51.4896],[7.3173,51.5058],[7.3036,51.5039],[7.304,51.5161],[7.3146,51.5223],[7.3106,51.5243],[7.2957,51.53]]]}},{"type":"Feature","properties":{"ags":"05914000","name":"Hagen","ewz":190490,"dist_km":50.4,"city":false,"warm_m2":9.69,"own_value":true,"m2_median":95,"share_median":0.189,"m2_p25":73,"share_p25":0.245},"geometry":{"type":"Polygon","coordinates":[[[7.495,51.4156],[7.4872,51.4176],[7.4691,51.4167],[7.4628,51.415],[7.4545,51.4089],[7.4511,51.3994],[7.4353,51.3904],[7.4295,51.3957],[7.4185,51.4008],[7.4128,51.401],[7.4063,51.3975],[7.4078,51.3823],[7.3916,51.3657],[7.3845,51.3524],[7.3763,51.3434],[7.3961,51.333],[7.3986,51.3317],[7.4153,51.3284],[7.424,51.3198],[7.4055,51.3081],[7.4078,51.2976],[7.4324,51.2898],[7.435,51.2911],[7.4378,51.2996],[7.4276,51.2999],[7.441,51.3153],[7.4623,51.3186],[7.4789,51.3172],[7.4851,51.3157],[7.5039,51.3159],[7.5058,51.3023],[7.4956,51.293],[7.479,51.2861],[7.4898,51.2756],[7.5185,51.2738],[7.5173,51.2649],[7.5236,51.2655],[7.5656,51.2813],[7.5689,51.2908],[7.5832,51.2959],[7.5834,51.3046],[7.5817,51.3089],[7.5767,51.3301],[7.5831,51.3358],[7.5877,51.3368],[7.5891,51.3389],[7.5929,51.339],[7.5936,51.3441],[7.5938,51.3512],[7.5848,51.3778],[7.5878,51.3904],[7.5667,51.3985],[7.5336,51.3953],[7.5361,51.4068],[7.5239,51.4083],[7.5085,51.4179],[7.495,51.4156]]]}},{"type":"Feature","properties":{"ags":"05916000","name":"Herne","ewz":157896,"dist_km":45.6,"city":false,"warm_m2":10.26,"own_value":true,"m2_median":90,"share_median":0.201,"m2_p25":69,"share_p25":0.261},"geometry":{"type":"Polygon","coordinates":[[[7.294,51.532],[7.2963,51.5418],[7.2859,51.5457],[7.2832,51.5571],[7.265,51.5612],[7.2641,51.5686],[7.2479,51.5696],[7.2437,51.5703],[7.2417,51.5734],[7.2337,51.5704],[7.2262,51.5644],[7.1796,51.5527],[7.1451,51.5522],[7.1305,51.5524],[7.1294,51.5514],[7.1234,51.5469],[7.1385,51.5239],[7.1381,51.5088],[7.1448,51.5056],[7.1606,51.5088],[7.1693,51.5043],[7.1925,51.5093],[7.1973,51.5206],[7.2075,51.5219],[7.2277,51.5174],[7.2604,51.5263],[7.2862,51.5261],[7.294,51.532]]]}},{"type":"Feature","properties":{"ags":"05954004","name":"Breckerfeld","ewz":9120,"dist_km":47.2,"city":false,"warm_m2":10.63,"own_value":true,"m2_median":87,"share_median":0.208,"m2_p25":67,"share_p25":0.27},"geometry":{"type":"Polygon","coordinates":[[[7.4789,51.3172],[7.4623,51.3186],[7.441,51.3153],[7.4276,51.2999],[7.4378,51.2996],[7.435,51.2911],[7.4312,51.288],[7.4049,51.2758],[7.4186,51.2618],[7.4239,51.2607],[7.4174,51.2568],[7.4122,51.2499],[7.3971,51.2494],[7.3876,51.2562],[7.3701,51.2498],[7.3642,51.2455],[7.3661,51.2441],[7.3705,51.2455],[7.3752,51.2447],[7.379,51.2419],[7.3877,51.2424],[7.3981,51.2342],[7.3953,51.2299],[7.4006,51.2235],[7.4176,51.2286],[7.4312,51.2189],[7.4297,51.2159],[7.4351,51.2132],[7.4377,51.2151],[7.4408,51.2188],[7.4406,51.2249],[7.4528,51.2302],[7.4818,51.2332],[7.4947,51.2404],[7.5013,51.2425],[7.4969,51.2488],[7.5125,51.2638],[7.5173,51.2649],[7.5185,51.2738],[7.4898,51.2756],[7.479,51.2861],[7.4956,51.293],[7.5058,51.3023],[7.5039,51.3159],[7.4851,51.3157],[7.4789,51.3172]]]}},{"type":"Feature","properties":{"ags":"05954008","name":"Ennepetal","ewz":30502,"dist_km":40.6,"city":false,"warm_m2":10.06,"own_value":true,"m2_median":91,"share_median":0.198,"m2_p25":70,"share_p25":0.257},"geometry":{"type":"Polygon","coordinates":[[[7.3986,51.3317],[7.3934,51.3232],[7.3543,51.3181],[7.3409,51.3036],[7.3195,51.3081],[7.309,51.3076],[7.307,51.3006],[7.316,51.2925],[7.3191,51.2725],[7.3037,51.2649],[7.2994,51.2527],[7.3047,51.2524],[7.3026,51.249],[7.297,51.247],[7.3067,51.2389],[7.3327,51.2503],[7.3476,51.2409],[7.3621,51.2437],[7.3701,51.2498],[7.3876,51.2562],[7.3971,51.2494],[7.4122,51.2499],[7.4174,51.2568],[7.4239,51.2607],[7.4186,51.2618],[7.4049,51.2758],[7.4312,51.288],[7.4324,51.2898],[7.4078,51.2976],[7.4055,51.3081],[7.424,51.3198],[7.4153,51.3284],[7.3986,51.3317]]]}},{"type":"Feature","properties":{"ags":"05954012","name":"Gevelsberg","ewz":31198,"dist_km":40.8,"city":false,"warm_m2":10.27,"own_value":true,"m2_median":89,"share_median":0.202,"m2_p25":69,"share_p25":0.262},"geometry":{"type":"Polygon","coordinates":[[[7.3763,51.3467],[7.3677,51.3512],[7.3527,51.3477],[7.3459,51.3588],[7.3306,51.3664],[7.3116,51.3603],[7.3148,51.3491],[7.3037,51.3382],[7.3161,51.3318],[7.3004,51.3265],[7.3015,51.3149],[7.2981,51.3121],[7.3061,51.3076],[7.3195,51.3081],[7.3409,51.3036],[7.3543,51.3181],[7.3934,51.3232],[7.3961,51.333],[7.3763,51.3434],[7.3763,51.3467]]]}},{"type":"Feature","properties":{"ags":"05954016","name":"Hattingen","ewz":54620,"dist_km":32.1,"city":false,"warm_m2":10.89,"own_value":true,"m2_median":84,"share_median":0.215,"m2_p25":64,"share_p25":0.28},"geometry":{"type":"Polygon","coordinates":[[[7.1547,51.4143],[7.1447,51.4232],[7.13,51.4131],[7.111,51.4059],[7.1184,51.3942],[7.1166,51.3857],[7.1223,51.3782],[7.1377,51.3778],[7.1404,51.3751],[7.149,51.3749],[7.1594,51.3651],[7.1473,51.3515],[7.1455,51.3421],[7.1696,51.3174],[7.1754,51.3098],[7.2046,51.3203],[7.2065,51.3309],[7.2272,51.3413],[7.2297,51.3453],[7.2326,51.3533],[7.2322,51.3599],[7.219,51.3701],[7.2556,51.3832],[7.2468,51.401],[7.2526,51.4133],[7.236,51.412],[7.2209,51.4123],[7.2075,51.4179],[7.2001,51.4191],[7.192,51.4181],[7.1808,51.42],[7.1736,51.415],[7.1547,51.4143]]]}},{"type":"Feature","properties":{"ags":"05954020","name":"Herdecke","ewz":22665,"dist_km":48.6,"city":false,"warm_m2":11.1,"own_value":true,"m2_median":83,"share_median":0.217,"m2_p25":64,"share_p25":0.281},"geometry":{"type":"Polygon","coordinates":[[[7.4638,51.4349],[7.4517,51.4368],[7.4236,51.4329],[7.4236,51.4307],[7.388,51.4219],[7.3851,51.4153],[7.3547,51.4044],[7.3615,51.3984],[7.3597,51.3977],[7.37,51.3934],[7.3845,51.3895],[7.3989,51.394],[7.4122,51.4008],[7.4156,51.4013],[7.4212,51.3999],[7.4295,51.3957],[7.4353,51.3904],[7.4511,51.3994],[7.4545,51.4089],[7.4594,51.413],[7.4653,51.4161],[7.4638,51.4349]]]}},{"type":"Feature","properties":{"ags":"05954024","name":"Schwelm","ewz":28711,"dist_km":35.4,"city":false,"warm_m2":10.45,"own_value":true,"m2_median":87,"share_median":0.206,"m2_p25":67,"share_p25":0.268},"geometry":{"type":"Polygon","coordinates":[[[7.2989,51.3136],[7.2941,51.3172],[7.2686,51.3037],[7.2624,51.3043],[7.2539,51.2882],[7.2752,51.2775],[7.2673,51.2614],[7.2857,51.2496],[7.2994,51.2527],[7.3037,51.2649],[7.3191,51.2725],[7.316,51.2925],[7.307,51.3006],[7.309,51.3076],[7.3061,51.3076],[7.2981,51.3121],[7.2989,51.3136]]]}},{"type":"Feature","properties":{"ags":"05954028","name":"Sprockhövel","ewz":24956,"dist_km":35.4,"city":false,"warm_m2":11.09,"own_value":true,"m2_median":82,"share_median":0.219,"m2_p25":63,"share_p25":0.284},"geometry":{"type":"Polygon","coordinates":[[[7.2675,51.3749],[7.266,51.3812],[7.2556,51.3832],[7.219,51.3701],[7.2322,51.3599],[7.2326,51.3533],[7.2297,51.3453],[7.2272,51.3413],[7.2065,51.3309],[7.2046,51.3203],[7.1754,51.3098],[7.1779,51.3069],[7.1805,51.3063],[7.1699,51.2988],[7.1903,51.2951],[7.223,51.3063],[7.2563,51.3169],[7.2644,51.3084],[7.2624,51.3043],[7.2686,51.3037],[7.2941,51.3172],[7.2989,51.3136],[7.3015,51.3149],[7.3004,51.3265],[7.3161,51.3318],[7.3037,51.3382],[7.3148,51.3491],[7.3116,51.3603],[7.2997,51.3663],[7.2978,51.3767],[7.2758,51.37],[7.2675,51.3749]]]}},{"type":"Feature","properties":{"ags":"05954032","name":"Wetter (Ruhr)","ewz":27450,"dist_km":42.9,"city":false,"warm_m2":10.47,"own_value":true,"m2_median":88,"share_median":0.205,"m2_p25":68,"share_p25":0.267},"geometry":{"type":"Polygon","coordinates":[[[7.3486,51.4032],[7.3461,51.4103],[7.3325,51.4093],[7.3179,51.4005],[7.3087,51.3794],[7.2978,51.3767],[7.2997,51.3663],[7.3116,51.3603],[7.3306,51.3664],[7.3459,51.3588],[7.3527,51.3477],[7.3677,51.3512],[7.3763,51.3467],[7.3845,51.3524],[7.3916,51.3657],[7.4078,51.3823],[7.4063,51.3975],[7.3989,51.394],[7.3845,51.3895],[7.3658,51.3949],[7.3503,51.4021],[7.3486,51.4032]]]}},{"type":"Feature","properties":{"ags":"05954036","name":"Witten","ewz":95724,"dist_km":44.1,"city":false,"warm_m2":10.73,"own_value":true,"m2_median":86,"share_median":0.21,"m2_p25":66,"share_p25":0.273},"geometry":{"type":"Polygon","coordinates":[[[7.4224,51.438],[7.4149,51.4504],[7.3886,51.4634],[7.389,51.4739],[7.3713,51.4826],[7.35,51.4822],[7.3482,51.4827],[7.3491,51.4763],[7.349,51.466],[7.342,51.4558],[7.2967,51.4569],[7.2872,51.4543],[7.2898,51.4439],[7.2832,51.4377],[7.2526,51.4133],[7.2468,51.401],[7.2556,51.3832],[7.266,51.3812],[7.2675,51.3749],[7.2758,51.37],[7.2978,51.3767],[7.3087,51.3794],[7.3179,51.4005],[7.3325,51.4093],[7.3461,51.4103],[7.3486,51.4032],[7.3597,51.3977],[7.3615,51.3984],[7.3547,51.4044],[7.3851,51.4153],[7.388,51.4219],[7.4236,51.4307],[7.4224,51.438]]]}},{"type":"Feature","properties":{"ags":"05962012","name":"Halver","ewz":16284,"dist_km":49.4,"city":false,"warm_m2":9.82,"own_value":true,"m2_median":94,"share_median":0.192,"m2_p25":72,"share_p25":0.249},"geometry":{"type":"Polygon","coordinates":[[[7.5031,51.2225],[7.4965,51.2374],[7.4942,51.2398],[7.4818,51.2332],[7.4528,51.2302],[7.4406,51.2249],[7.4408,51.2188],[7.4377,51.2151],[7.4351,51.2132],[7.4333,51.2144],[7.4302,51.2138],[7.4305,51.209],[7.4278,51.203],[7.419,51.2008],[7.4269,51.1866],[7.424,51.186],[7.4253,51.1838],[7.4272,51.1822],[7.4368,51.1801],[7.4405,51.1714],[7.4556,51.1599],[7.4698,51.1551],[7.4752,51.143],[7.4721,51.1396],[7.4804,51.1413],[7.4927,51.125],[7.5024,51.1304],[7.522,51.1443],[7.5252,51.1469],[7.5416,51.1628],[7.5463,51.1756],[7.5789,51.1893],[7.5779,51.19],[7.5714,51.1987],[7.5578,51.2001],[7.5535,51.2167],[7.5588,51.2205],[7.5542,51.2213],[7.5429,51.2311],[7.5451,51.2271],[7.5031,51.2225]]]}}]}