{"type":"FeatureCollection","meta":{"city":"Köln","station":[6.9585,50.943],"radius_km":45,"wage":{"median":4498,"p25":3342},"net":{"median":2866,"p25":2243},"share":0.3,"flat_m2":60,"stops":{"0":{"flats":254140,"rent_zensus":9.9,"rent_recent":11.06,"rent_asking":13.79,"rent_old_method":14.54,"small_premium":1.042,"nk_cold":1.4,"nk_warm":1.2,"dist_km":3.1,"rent":16.97,"rent_prev":16.55,"personas":{"median":{"net":2866,"cost":1018,"share":0.355,"share_ticket":0.375,"m2":51,"share_prev":0.346,"m2_old":87},"p25":{"net":2243,"cost":1018,"share":0.454,"share_ticket":0.48,"m2":40,"share_prev":0.443,"m2_old":68}}},"10":{"flats":274522,"rent_zensus":8.14,"rent_recent":9.94,"rent_asking":12.76,"rent_old_method":12.05,"small_premium":1.032,"nk_cold":1.4,"nk_warm":1.2,"dist_km":10.1,"rent":15.77,"rent_prev":13.84,"personas":{"median":{"net":2866,"cost":946,"share":0.33,"share_ticket":0.35,"m2":55,"share_prev":0.29,"m2_old":106},"p25":{"net":2243,"cost":946,"share":0.422,"share_ticket":0.448,"m2":43,"share_prev":0.37,"m2_old":83}}},"20":{"flats":241835,"rent_zensus":7.6,"rent_recent":8.62,"rent_asking":11.28,"rent_old_method":11.19,"small_premium":1.043,"nk_cold":1.4,"nk_warm":1.17,"dist_km":20.8,"rent":14.34,"rent_prev":13.07,"personas":{"median":{"net":2871,"cost":860,"share":0.3,"share_ticket":0.32,"m2":60,"share_prev":0.273,"m2_old":113},"p25":{"net":2247,"cost":860,"share":0.383,"share_ticket":0.409,"m2":47,"share_prev":0.349,"m2_old":89}}},"30":{"flats":489952,"rent_zensus":7.91,"rent_recent":8.97,"rent_asking":11.57,"rent_old_method":11.55,"small_premium":1.046,"nk_cold":1.4,"nk_warm":1.13,"dist_km":30.3,"rent":14.63,"rent_prev":13.48,"personas":{"median":{"net":2892,"cost":878,"share":0.304,"share_ticket":0.324,"m2":59,"share_prev":0.28,"m2_old":109},"p25":{"net":2266,"cost":878,"share":0.387,"share_ticket":0.413,"m2":46,"share_prev":0.357,"m2_old":85}}},"40":{"flats":453563,"rent_zensus":7.04,"rent_recent":7.77,"rent_asking":10.24,"rent_old_method":10.32,"small_premium":1.034,"nk_cold":1.39,"nk_warm":1.12,"dist_km":39.4,"rent":13.1,"rent_prev":12.06,"personas":{"median":{"net":2913,"cost":786,"share":0.27,"share_ticket":0.29,"m2":67,"share_prev":0.248,"m2_old":122},"p25":{"net":2284,"cost":786,"share":0.344,"share_ticket":0.37,"m2":52,"share_prev":0.317,"m2_old":96}}}}},"features":[{"type":"Feature","properties":{"ags":"05111000","name":"Düsseldorf","ewz":631217,"dist_km":35,"city":false,"warm_m2":16.38,"own_value":true,"m2_median":53,"share_median":0.339,"m2_p25":42,"share_p25":0.432},"geometry":{"type":"Polygon","coordinates":[[[6.7671,51.3474],[6.7508,51.3514],[6.7244,51.3406],[6.7149,51.3332],[6.7269,51.3266],[6.7319,51.3219],[6.7344,51.3157],[6.7342,51.31],[6.7299,51.3012],[6.7061,51.2796],[6.7025,51.2746],[6.7024,51.272],[6.705,51.2667],[6.7101,51.2628],[6.727,51.2565],[6.7171,51.2459],[6.6973,51.2376],[6.6949,51.2347],[6.6898,51.2316],[6.6929,51.2285],[6.7182,51.2242],[6.7317,51.2058],[6.7332,51.1858],[6.7506,51.1809],[6.7796,51.1854],[6.7849,51.1848],[6.7908,51.1825],[6.7975,51.1743],[6.794,51.1489],[6.7989,51.1445],[6.8057,51.143],[6.8153,51.1442],[6.821,51.1474],[6.8403,51.1622],[6.8539,51.1607],[6.8573,51.1544],[6.8483,51.1393],[6.856,51.1262],[6.8619,51.1292],[6.869,51.1292],[6.8926,51.1306],[6.9068,51.1275],[6.9106,51.127],[6.9251,51.1365],[6.9235,51.1424],[6.9,51.1516],[6.8955,51.1737],[6.9125,51.1781],[6.9155,51.1869],[6.9095,51.1952],[6.9038,51.2031],[6.9106,51.211],[6.8789,51.2149],[6.8726,51.2199],[6.8736,51.2406],[6.8785,51.2424],[6.8833,51.2418],[6.884,51.2386],[6.8994,51.2371],[6.9083,51.2421],[6.919,51.2404],[6.9267,51.2425],[6.9307,51.241],[6.9298,51.2383],[6.9312,51.2382],[6.9315,51.2444],[6.9277,51.265],[6.9349,51.2744],[6.9356,51.276],[6.9307,51.2754],[6.9285,51.2729],[6.9174,51.2742],[6.9039,51.2651],[6.8776,51.2682],[6.8514,51.276],[6.8248,51.2757],[6.8021,51.2825],[6.8032,51.3063],[6.8175,51.321],[6.8025,51.3284],[6.8052,51.3488],[6.7946,51.3503],[6.783,51.3426],[6.7671,51.3474]]]}},{"type":"Feature","properties":{"ags":"05116000","name":"Mönchengladbach","ewz":268943,"dist_km":45.5,"city":false,"warm_m2":12.15,"own_value":true,"m2_median":72,"share_median":0.249,"m2_p25":57,"share_p25":0.318},"geometry":{"type":"Polygon","coordinates":[[[6.4781,51.2358],[6.458,51.2478],[6.4513,51.2442],[6.4433,51.235],[6.4275,51.2245],[6.4144,51.2193],[6.3709,51.2175],[6.3597,51.229],[6.3305,51.2245],[6.3304,51.2062],[6.3158,51.198],[6.3148,51.1792],[6.2911,51.1756],[6.2941,51.1676],[6.3059,51.1652],[6.3019,51.1525],[6.319,51.1501],[6.332,51.1423],[6.3331,51.1349],[6.3544,51.1266],[6.3484,51.1197],[6.3511,51.1049],[6.3549,51.1026],[6.3604,51.0955],[6.3866,51.0976],[6.4046,51.0881],[6.42,51.0862],[6.4446,51.0887],[6.4418,51.0945],[6.4373,51.1051],[6.4637,51.1174],[6.4796,51.1127],[6.4753,51.121],[6.4665,51.1303],[6.4695,51.1397],[6.4789,51.1452],[6.4927,51.1502],[6.5289,51.1445],[6.5298,51.1451],[6.5371,51.1451],[6.5277,51.169],[6.5159,51.1835],[6.4913,51.1707],[6.4799,51.1763],[6.4938,51.1936],[6.4879,51.2092],[6.4891,51.2276],[6.5221,51.2257],[6.5173,51.2279],[6.5019,51.235],[6.4781,51.2358]]]}},{"type":"Feature","properties":{"ags":"05120000","name":"Remscheid","ewz":112970,"dist_km":32.7,"city":false,"warm_m2":10.3,"own_value":true,"m2_median":84,"share_median":0.213,"m2_p25":66,"share_p25":0.272},"geometry":{"type":"Polygon","coordinates":[[[7.2411,51.2228],[7.2336,51.2254],[7.2036,51.2119],[7.1942,51.2162],[7.1655,51.211],[7.1526,51.194],[7.1422,51.1907],[7.1524,51.1744],[7.1482,51.1717],[7.1361,51.1664],[7.1384,51.163],[7.1359,51.1565],[7.1345,51.1494],[7.1385,51.1451],[7.1449,51.1433],[7.1634,51.1552],[7.1713,51.1527],[7.1848,51.1559],[7.1983,51.1516],[7.2198,51.1608],[7.2368,51.1582],[7.2531,51.1579],[7.2618,51.1469],[7.2682,51.1457],[7.2785,51.1443],[7.2875,51.144],[7.2972,51.151],[7.2934,51.1614],[7.3054,51.1796],[7.3073,51.1872],[7.3032,51.1855],[7.2997,51.1861],[7.3051,51.1922],[7.3038,51.1927],[7.2986,51.1958],[7.2958,51.2054],[7.2847,51.2099],[7.2656,51.209],[7.2579,51.2193],[7.2411,51.2228]]]}},{"type":"Feature","properties":{"ags":"05122000","name":"Solingen","ewz":161545,"dist_km":25.8,"city":false,"warm_m2":11.71,"own_value":true,"m2_median":74,"share_median":0.244,"m2_p25":58,"share_p25":0.311},"geometry":{"type":"Polygon","coordinates":[[[7.1361,51.1664],[7.1136,51.1843],[7.1032,51.2057],[7.1046,51.2152],[7.0925,51.2203],[7.0668,51.2173],[7.0469,51.2075],[7.036,51.195],[7.0138,51.1818],[6.9895,51.174],[6.9849,51.1716],[6.966,51.1667],[6.9609,51.164],[6.9511,51.147],[6.9712,51.1493],[6.9837,51.1446],[6.9961,51.1442],[6.9949,51.1234],[6.9977,51.118],[6.9983,51.1199],[7.0039,51.1229],[7.0124,51.1238],[7.0231,51.1296],[7.0451,51.1315],[7.0585,51.1242],[7.0774,51.1281],[7.0761,51.1362],[7.0869,51.1356],[7.0967,51.134],[7.1045,51.1366],[7.1171,51.1328],[7.1194,51.1227],[7.1308,51.1182],[7.1358,51.1167],[7.1368,51.1184],[7.1443,51.1191],[7.1563,51.1217],[7.1717,51.1255],[7.174,51.1285],[7.1693,51.1268],[7.1594,51.1335],[7.1698,51.1391],[7.1664,51.1539],[7.1634,51.1552],[7.1449,51.1433],[7.1385,51.1451],[7.1345,51.1494],[7.1359,51.1565],[7.1384,51.163],[7.1361,51.1664]]]}},{"type":"Feature","properties":{"ags":"05124000","name":"Wuppertal","ewz":358938,"dist_km":36.2,"city":false,"warm_m2":11.26,"own_value":true,"m2_median":77,"share_median":0.233,"m2_p25":61,"share_p25":0.297},"geometry":{"type":"Polygon","coordinates":[[[7.2644,51.3084],[7.2563,51.3169],[7.223,51.3063],[7.1903,51.2951],[7.1699,51.2988],[7.1805,51.3063],[7.1779,51.3069],[7.1673,51.3129],[7.1447,51.3066],[7.1161,51.3047],[7.0967,51.294],[7.0971,51.2836],[7.0822,51.28],[7.0762,51.2701],[7.058,51.256],[7.0468,51.2564],[7.0406,51.2506],[7.0278,51.2482],[7.0216,51.2489],[7.015,51.2447],[7.022,51.2423],[7.0219,51.2435],[7.0381,51.2356],[7.0449,51.2263],[7.0359,51.2154],[7.0469,51.2075],[7.0668,51.2173],[7.0925,51.2203],[7.1046,51.2152],[7.1032,51.2057],[7.1136,51.1843],[7.1361,51.1664],[7.1482,51.1717],[7.1524,51.1744],[7.1422,51.1907],[7.1526,51.194],[7.1655,51.211],[7.1942,51.2162],[7.2036,51.2119],[7.2336,51.2254],[7.2411,51.2228],[7.2579,51.2193],[7.2656,51.209],[7.2847,51.2099],[7.2958,51.2054],[7.3004,51.2101],[7.2969,51.2239],[7.3077,51.2351],[7.297,51.247],[7.3026,51.249],[7.3047,51.2524],[7.2857,51.2496],[7.2673,51.2614],[7.2752,51.2775],[7.2539,51.2882],[7.2644,51.3084]]]}},{"type":"Feature","properties":{"ags":"05158004","name":"Erkrath","ewz":43801,"dist_km":30.9,"city":false,"warm_m2":12.81,"own_value":true,"m2_median":68,"share_median":0.266,"m2_p25":53,"share_p25":0.339},"geometry":{"type":"Polygon","coordinates":[[[6.884,51.2386],[6.8833,51.2418],[6.8785,51.2424],[6.8736,51.2406],[6.8726,51.2199],[6.8789,51.2149],[6.9106,51.211],[6.9038,51.2031],[6.9095,51.1952],[6.9223,51.1935],[6.9446,51.1989],[6.9689,51.2005],[6.9868,51.203],[6.982,51.2182],[6.9802,51.22],[6.9646,51.2246],[6.9394,51.2273],[6.9308,51.2362],[6.9312,51.2382],[6.9298,51.2383],[6.9307,51.241],[6.9267,51.2425],[6.919,51.2404],[6.9083,51.2421],[6.8994,51.2371],[6.884,51.2386]]]}},{"type":"Feature","properties":{"ags":"05158008","name":"Haan","ewz":30558,"dist_km":30,"city":false,"warm_m2":13.09,"own_value":true,"m2_median":66,"share_median":0.272,"m2_p25":52,"share_p25":0.347},"geometry":{"type":"Polygon","coordinates":[[[7.0208,51.2405],[7.0066,51.2436],[7.0037,51.2304],[6.9842,51.2172],[6.982,51.2182],[6.9868,51.203],[6.9689,51.2005],[6.9555,51.199],[6.9778,51.1908],[6.9821,51.1776],[6.9815,51.1722],[6.9859,51.1721],[6.9895,51.174],[7.0138,51.1818],[7.036,51.195],[7.0469,51.2075],[7.0359,51.2154],[7.0449,51.2263],[7.0381,51.2356],[7.0219,51.2435],[7.0208,51.2405]]]}},{"type":"Feature","properties":{"ags":"05158012","name":"Heiligenhaus","ewz":26590,"dist_km":42.7,"city":false,"warm_m2":11.81,"own_value":true,"m2_median":74,"share_median":0.243,"m2_p25":58,"share_p25":0.309},"geometry":{"type":"Polygon","coordinates":[[[6.9983,51.3575],[6.9923,51.3594],[6.9773,51.3559],[6.9642,51.3477],[6.9493,51.351],[6.933,51.3498],[6.9203,51.3442],[6.9227,51.331],[6.9398,51.3204],[6.9313,51.3123],[6.9346,51.3048],[6.9569,51.297],[6.9784,51.3019],[6.9841,51.3058],[6.9934,51.3238],[7.004,51.3243],[7.0111,51.3305],[7.0015,51.3479],[7.0039,51.3546],[7.0044,51.3562],[7.0036,51.3577],[6.9983,51.3575]]]}},{"type":"Feature","properties":{"ags":"05158016","name":"Hilden","ewz":55689,"dist_km":25.1,"city":false,"warm_m2":14.47,"own_value":true,"m2_median":60,"share_median":0.301,"m2_p25":47,"share_p25":0.385},"geometry":{"type":"Polygon","coordinates":[[[6.9555,51.199],[6.9446,51.1989],[6.9223,51.1935],[6.9155,51.1869],[6.9125,51.1781],[6.8955,51.1737],[6.9,51.1516],[6.9235,51.1424],[6.9235,51.1407],[6.9311,51.1406],[6.9296,51.1429],[6.9368,51.1438],[6.9412,51.1461],[6.9511,51.147],[6.9609,51.164],[6.966,51.1667],[6.9849,51.1716],[6.9859,51.1721],[6.9815,51.1722],[6.9821,51.1776],[6.9778,51.1908],[6.9555,51.199]]]}},{"type":"Feature","properties":{"ags":"05158020","name":"Langenfeld (Rhld.)","ewz":59908,"dist_km":18.6,"city":false,"warm_m2":14,"own_value":true,"m2_median":61,"share_median":0.293,"m2_p25":48,"share_p25":0.374},"geometry":{"type":"Polygon","coordinates":[[[6.9837,51.1446],[6.9712,51.1493],[6.9511,51.147],[6.9412,51.1461],[6.9368,51.1438],[6.9296,51.1429],[6.9311,51.1406],[6.9235,51.1407],[6.9251,51.1365],[6.9106,51.127],[6.9097,51.119],[6.9037,51.1113],[6.9237,51.0994],[6.928,51.0838],[6.9263,51.082],[6.9391,51.0723],[6.9606,51.0723],[6.9716,51.068],[6.9895,51.075],[6.9909,51.1058],[6.9926,51.1087],[6.9997,51.1149],[6.9949,51.1234],[6.9961,51.1442],[6.9837,51.1446]]]}},{"type":"Feature","properties":{"ags":"05158024","name":"Mettmann","ewz":39197,"dist_km":35.1,"city":false,"warm_m2":13.17,"own_value":true,"m2_median":66,"share_median":0.272,"m2_p25":52,"share_p25":0.347},"geometry":{"type":"Polygon","coordinates":[[[7.0409,51.2548],[7.0324,51.265],[7.0087,51.2822],[7.0061,51.2884],[6.9806,51.2948],[6.9685,51.2932],[6.9613,51.2894],[6.9575,51.2843],[6.936,51.2802],[6.9349,51.2744],[6.9277,51.265],[6.9315,51.2444],[6.9308,51.2362],[6.9394,51.2273],[6.9646,51.2246],[6.9802,51.22],[6.9842,51.2172],[7.0037,51.2304],[7.0066,51.2436],[7.0208,51.2405],[7.022,51.2423],[7.015,51.2447],[7.0216,51.2489],[7.0278,51.2482],[7.0406,51.2506],[7.0409,51.2548]]]}},{"type":"Feature","properties":{"ags":"05158026","name":"Monheim am Rhein","ewz":43524,"dist_km":17.1,"city":false,"warm_m2":14.02,"own_value":true,"m2_median":61,"share_median":0.293,"m2_p25":48,"share_p25":0.375},"geometry":{"type":"Polygon","coordinates":[[[6.8619,51.1292],[6.856,51.1262],[6.8825,51.1093],[6.8786,51.0976],[6.8535,51.0843],[6.8542,51.0785],[6.8577,51.0753],[6.8628,51.073],[6.8848,51.069],[6.898,51.0649],[6.9234,51.0808],[6.928,51.0838],[6.9237,51.0994],[6.9037,51.1113],[6.9097,51.119],[6.9068,51.1275],[6.8926,51.1306],[6.869,51.1292],[6.8619,51.1292]]]}},{"type":"Feature","properties":{"ags":"05158028","name":"Ratingen","ewz":87513,"dist_km":41.8,"city":false,"warm_m2":13.93,"own_value":true,"m2_median":63,"share_median":0.286,"m2_p25":49,"share_p25":0.365},"geometry":{"type":"Polygon","coordinates":[[[6.9011,51.3669],[6.892,51.3713],[6.8766,51.3635],[6.8534,51.3622],[6.831,51.3512],[6.8305,51.3523],[6.828,51.3516],[6.8244,51.353],[6.818,51.3528],[6.8068,51.3486],[6.8052,51.3488],[6.8025,51.3284],[6.8175,51.321],[6.8032,51.3063],[6.8021,51.2825],[6.8248,51.2757],[6.8514,51.276],[6.8776,51.2682],[6.9039,51.2651],[6.9174,51.2742],[6.9285,51.2729],[6.9307,51.2754],[6.9356,51.276],[6.936,51.2802],[6.9575,51.2843],[6.9613,51.2894],[6.9685,51.2932],[6.9806,51.2948],[6.982,51.3002],[6.9784,51.3019],[6.9569,51.297],[6.9346,51.3048],[6.9313,51.3123],[6.9398,51.3204],[6.9227,51.331],[6.9203,51.3442],[6.9272,51.3474],[6.9037,51.3674],[6.9011,51.3669]]]}},{"type":"Feature","properties":{"ags":"05158032","name":"Velbert","ewz":82462,"dist_km":44.6,"city":false,"warm_m2":11.24,"own_value":true,"m2_median":78,"share_median":0.231,"m2_p25":61,"share_p25":0.294},"geometry":{"type":"Polygon","coordinates":[[[7.1377,51.3778],[7.1223,51.3782],[7.1177,51.3803],[7.0901,51.3689],[7.0801,51.3746],[7.0548,51.3633],[7.0359,51.3619],[7.021,51.3655],[7.0077,51.3577],[7.0036,51.3577],[7.0044,51.3562],[7.0039,51.3546],[7.0015,51.3479],[7.0111,51.3305],[7.004,51.3243],[7.0177,51.3198],[7.036,51.3219],[7.0448,51.3048],[7.0635,51.3005],[7.0726,51.2937],[7.0967,51.294],[7.1161,51.3047],[7.1447,51.3066],[7.1673,51.3129],[7.1696,51.3174],[7.1455,51.3421],[7.1473,51.3515],[7.1594,51.3651],[7.149,51.3749],[7.1404,51.3751],[7.1377,51.3778]]]}},{"type":"Feature","properties":{"ags":"05158036","name":"Wülfrath","ewz":21009,"dist_km":39.2,"city":false,"warm_m2":11.6,"own_value":true,"m2_median":75,"share_median":0.239,"m2_p25":59,"share_p25":0.305},"geometry":{"type":"Polygon","coordinates":[[[7.004,51.3243],[6.9934,51.3238],[6.9841,51.3058],[6.982,51.3002],[6.9806,51.2948],[7.0061,51.2884],[7.0087,51.2822],[7.0324,51.265],[7.0409,51.2548],[7.0468,51.2564],[7.058,51.256],[7.0762,51.2701],[7.0822,51.28],[7.0971,51.2836],[7.0967,51.294],[7.0726,51.2937],[7.0635,51.3005],[7.0448,51.3048],[7.036,51.3219],[7.0177,51.3198],[7.004,51.3243]]]}},{"type":"Feature","properties":{"ags":"05162004","name":"Dormagen","ewz":65170,"dist_km":21.5,"city":false,"warm_m2":13.41,"own_value":true,"m2_median":64,"share_median":0.28,"m2_p25":50,"share_p25":0.358},"geometry":{"type":"Polygon","coordinates":[[[6.8483,51.1393],[6.8573,51.1544],[6.8539,51.1607],[6.8403,51.1622],[6.8199,51.1465],[6.8134,51.1437],[6.8041,51.1431],[6.7976,51.1453],[6.7689,51.1454],[6.7629,51.1384],[6.7718,51.1316],[6.73,51.1172],[6.7152,51.1166],[6.7148,51.1185],[6.7122,51.1183],[6.7049,51.1128],[6.6977,51.1099],[6.6967,51.0987],[6.709,51.0942],[6.7106,51.0848],[6.7083,51.0765],[6.7413,51.0771],[6.7532,51.0661],[6.7623,51.0655],[6.7729,51.0653],[6.7736,51.0644],[6.7874,51.0688],[6.8009,51.0595],[6.8048,51.0484],[6.831,51.0585],[6.823,51.0739],[6.8535,51.0843],[6.8786,51.0976],[6.8825,51.1093],[6.856,51.1262],[6.8483,51.1393]]]}},{"type":"Feature","properties":{"ags":"05162008","name":"Grevenbroich","ewz":64588,"dist_km":30.3,"city":false,"warm_m2":12.45,"own_value":true,"m2_median":70,"share_median":0.258,"m2_p25":55,"share_p25":0.33},"geometry":{"type":"Polygon","coordinates":[[[6.6681,51.1315],[6.6539,51.1351],[6.6356,51.1449],[6.6282,51.1532],[6.6149,51.1511],[6.6145,51.149],[6.6069,51.1417],[6.5935,51.1513],[6.586,51.1515],[6.5842,51.1458],[6.5939,51.1441],[6.5939,51.1404],[6.5825,51.1415],[6.575,51.1386],[6.5795,51.1301],[6.5781,51.1197],[6.5321,51.0898],[6.5361,51.0781],[6.5281,51.0674],[6.5266,51.0584],[6.5377,51.0521],[6.5533,51.0558],[6.5613,51.0352],[6.5487,51.0263],[6.5824,51.018],[6.6373,51.0268],[6.6367,51.0399],[6.6269,51.0465],[6.6389,51.061],[6.6586,51.0771],[6.6479,51.0831],[6.6479,51.0927],[6.6555,51.1037],[6.6653,51.0999],[6.6829,51.1114],[6.6964,51.1012],[6.6977,51.1099],[6.7049,51.1128],[6.7122,51.1183],[6.7148,51.1185],[6.7111,51.1242],[6.7097,51.1326],[6.6864,51.1351],[6.6716,51.131],[6.6681,51.1315]]]}},{"type":"Feature","properties":{"ags":"05162012","name":"Jüchen","ewz":24141,"dist_km":36.8,"city":false,"warm_m2":12.03,"own_value":true,"m2_median":72,"share_median":0.248,"m2_p25":57,"share_p25":0.317},"geometry":{"type":"Polygon","coordinates":[[[6.5786,51.1514],[6.5697,51.1585],[6.5431,51.1403],[6.5341,51.1451],[6.5289,51.1445],[6.4927,51.1502],[6.4789,51.1452],[6.4695,51.1397],[6.4665,51.1303],[6.4753,51.121],[6.4796,51.1127],[6.4637,51.1174],[6.4373,51.1051],[6.4418,51.0945],[6.444,51.0898],[6.4506,51.0902],[6.4524,51.0744],[6.4445,51.0679],[6.4473,51.0625],[6.4772,51.0561],[6.4592,51.0431],[6.4805,51.0342],[6.4844,51.0424],[6.5189,51.0584],[6.5259,51.0572],[6.5281,51.0674],[6.5361,51.0781],[6.5321,51.0898],[6.5781,51.1197],[6.5795,51.1301],[6.575,51.1386],[6.5825,51.1415],[6.5939,51.1404],[6.5939,51.1441],[6.5842,51.1458],[6.586,51.1515],[6.5786,51.1514]]]}},{"type":"Feature","properties":{"ags":"05162016","name":"Kaarst","ewz":44208,"dist_km":39.9,"city":false,"warm_m2":14.27,"own_value":true,"m2_median":61,"share_median":0.294,"m2_p25":48,"share_p25":0.375},"geometry":{"type":"Polygon","coordinates":[[[6.6554,51.2467],[6.6511,51.2522],[6.6463,51.2608],[6.626,51.2503],[6.6054,51.2477],[6.6015,51.2425],[6.5678,51.2408],[6.5648,51.2329],[6.5596,51.2281],[6.5692,51.2178],[6.5691,51.2056],[6.5791,51.1906],[6.6007,51.1787],[6.6214,51.1805],[6.6348,51.1846],[6.6336,51.2074],[6.6449,51.2098],[6.6415,51.2298],[6.659,51.2295],[6.6767,51.2325],[6.6554,51.2467]]]}},{"type":"Feature","properties":{"ags":"05162020","name":"Korschenbroich","ewz":34324,"dist_km":40.2,"city":false,"warm_m2":12.89,"own_value":true,"m2_median":68,"share_median":0.265,"m2_p25":53,"share_p25":0.338},"geometry":{"type":"Polygon","coordinates":[[[6.5596,51.2281],[6.5617,51.23],[6.5385,51.2325],[6.5303,51.2225],[6.5221,51.2257],[6.4891,51.2276],[6.4879,51.2092],[6.4938,51.1936],[6.4799,51.1763],[6.4913,51.1707],[6.5159,51.1835],[6.5277,51.169],[6.5371,51.1451],[6.5341,51.1451],[6.5431,51.1403],[6.5697,51.1585],[6.5786,51.1514],[6.5935,51.1513],[6.6069,51.1417],[6.6145,51.149],[6.6151,51.1597],[6.626,51.1704],[6.6214,51.1805],[6.6007,51.1787],[6.5791,51.1906],[6.5691,51.2056],[6.5692,51.2178],[6.5596,51.2281]]]}},{"type":"Feature","properties":{"ags":"05162022","name":"Meerbusch","ewz":57440,"dist_km":43.6,"city":false,"warm_m2":15.61,"own_value":true,"m2_median":56,"share_median":0.321,"m2_p25":44,"share_p25":0.409},"geometry":{"type":"Polygon","coordinates":[[[6.7344,51.3157],[6.7305,51.3235],[6.7235,51.3288],[6.7062,51.3367],[6.6994,51.327],[6.6939,51.3237],[6.676,51.321],[6.6529,51.3095],[6.6224,51.3086],[6.6217,51.2911],[6.6002,51.2874],[6.5862,51.2793],[6.5964,51.2617],[6.6106,51.2634],[6.6162,51.2529],[6.626,51.2503],[6.6463,51.2608],[6.6511,51.2522],[6.6554,51.2467],[6.6767,51.2325],[6.6949,51.2347],[6.6973,51.2376],[6.7171,51.2459],[6.727,51.2565],[6.7173,51.2595],[6.7068,51.265],[6.7033,51.2691],[6.7025,51.2746],[6.7061,51.2796],[6.7257,51.2968],[6.7313,51.3033],[6.7342,51.31],[6.7344,51.3157]]]}},{"type":"Feature","properties":{"ags":"05162024","name":"Neuss","ewz":155163,"dist_km":31.3,"city":false,"warm_m2":13.7,"own_value":true,"m2_median":63,"share_median":0.284,"m2_p25":50,"share_p25":0.362},"geometry":{"type":"Polygon","coordinates":[[[6.6929,51.2285],[6.6898,51.2316],[6.6949,51.2347],[6.659,51.2295],[6.6415,51.2298],[6.6449,51.2098],[6.6336,51.2074],[6.6348,51.1846],[6.6214,51.1805],[6.626,51.1704],[6.6151,51.1597],[6.6149,51.1511],[6.6282,51.1532],[6.6356,51.1449],[6.6539,51.1351],[6.6681,51.1315],[6.6716,51.131],[6.6864,51.1351],[6.7097,51.1326],[6.7111,51.1242],[6.7143,51.1206],[6.7152,51.1166],[6.73,51.1172],[6.7718,51.1316],[6.7629,51.1384],[6.7689,51.1454],[6.7976,51.1453],[6.794,51.1489],[6.7975,51.1743],[6.7908,51.1825],[6.782,51.1852],[6.7744,51.185],[6.7506,51.1809],[6.7332,51.1858],[6.7317,51.2058],[6.7182,51.2242],[6.6929,51.2285]]]}},{"type":"Feature","properties":{"ags":"05162028","name":"Rommerskirchen","ewz":13688,"dist_km":22.8,"city":false,"warm_m2":12.9,"own_value":true,"m2_median":67,"share_median":0.269,"m2_p25":52,"share_p25":0.344},"geometry":{"type":"Polygon","coordinates":[[[6.6964,51.1012],[6.6829,51.1114],[6.6653,51.0999],[6.6555,51.1037],[6.6479,51.0927],[6.6479,51.0831],[6.6586,51.0771],[6.6389,51.061],[6.6269,51.0465],[6.6367,51.0399],[6.6373,51.0268],[6.6396,51.023],[6.6503,51.0222],[6.6734,51.0159],[6.6819,51.0187],[6.7154,51.0151],[6.7204,51.0225],[6.7281,51.031],[6.7617,51.0425],[6.7609,51.0502],[6.7526,51.0604],[6.7532,51.0661],[6.7413,51.0771],[6.7083,51.0765],[6.7106,51.0848],[6.709,51.0942],[6.6967,51.0987],[6.6964,51.1012]]]}},{"type":"Feature","properties":{"ags":"05166036","name":"Willich","ewz":50212,"dist_km":47.1,"city":false,"warm_m2":13.06,"own_value":true,"m2_median":67,"share_median":0.267,"m2_p25":53,"share_p25":0.341},"geometry":{"type":"Polygon","coordinates":[[[6.4986,51.2951],[6.492,51.3005],[6.4561,51.2883],[6.45,51.2875],[6.445,51.2846],[6.4116,51.2739],[6.4367,51.2605],[6.4781,51.2358],[6.5019,51.235],[6.5173,51.2279],[6.5303,51.2225],[6.5385,51.2325],[6.5617,51.23],[6.5648,51.2329],[6.5678,51.2408],[6.6015,51.2425],[6.6054,51.2477],[6.626,51.2503],[6.6162,51.2529],[6.6106,51.2634],[6.5964,51.2617],[6.5862,51.2793],[6.5853,51.2876],[6.5346,51.2903],[6.5001,51.2888],[6.4986,51.2951]]]}},{"type":"Feature","properties":{"ags":"05314000","name":"Bonn","ewz":335789,"dist_km":28.5,"city":false,"warm_m2":16.02,"own_value":true,"m2_median":54,"share_median":0.333,"m2_p25":42,"share_p25":0.425},"geometry":{"type":"Polygon","coordinates":[[[7.1397,50.7691],[7.1253,50.7744],[7.1212,50.7725],[7.1127,50.7711],[7.1086,50.7684],[7.1068,50.7635],[7.0999,50.7616],[7.093,50.7627],[7.0756,50.7675],[7.066,50.7711],[7.0513,50.7649],[7.0415,50.7596],[7.037,50.7552],[7.0404,50.7532],[7.0298,50.7261],[7.0403,50.7192],[7.0289,50.7131],[7.0274,50.7026],[7.0356,50.6866],[7.0313,50.6778],[7.0443,50.6743],[7.0346,50.6621],[7.0249,50.6651],[7.0269,50.655],[7.0507,50.6396],[7.0561,50.6319],[7.0689,50.6331],[7.0767,50.6428],[7.1053,50.6597],[7.1206,50.6567],[7.128,50.6473],[7.1564,50.6547],[7.1771,50.6527],[7.1889,50.6485],[7.1941,50.6427],[7.1985,50.6482],[7.2034,50.6501],[7.2055,50.649],[7.2107,50.6498],[7.1766,50.6871],[7.1682,50.7035],[7.1966,50.7131],[7.1913,50.7266],[7.2091,50.7369],[7.2036,50.7446],[7.172,50.7524],[7.1452,50.7624],[7.1397,50.7691]]]}},{"type":"Feature","properties":{"ags":"05315000","name":"Köln","ewz":1087353,"dist_km":1.7,"city":true,"warm_m2":16.97,"own_value":true,"m2_median":51,"share_median":0.355,"m2_p25":40,"share_p25":0.454},"geometry":{"type":"Polygon","coordinates":[[[6.974,51.0186],[6.9731,51.0236],[6.9667,51.0306],[6.9577,51.0359],[6.9145,51.0564],[6.8936,51.0667],[6.8599,51.0741],[6.8542,51.0785],[6.8535,51.0843],[6.823,51.0739],[6.831,51.0585],[6.8048,51.0484],[6.8009,51.0595],[6.7874,51.0688],[6.7736,51.0644],[6.7724,51.0603],[6.7878,51.0501],[6.7983,51.037],[6.8203,51.038],[6.8398,51.0289],[6.8364,51.0185],[6.8408,51.0035],[6.8353,50.9997],[6.8397,50.9823],[6.819,50.9653],[6.824,50.9578],[6.8088,50.9486],[6.8158,50.9393],[6.8225,50.9277],[6.8374,50.9259],[6.8443,50.9101],[6.857,50.9043],[6.8794,50.9096],[6.9189,50.8919],[6.913,50.8829],[6.9209,50.8713],[6.919,50.8563],[6.9216,50.8483],[6.9298,50.8412],[6.9312,50.8375],[6.9467,50.8455],[6.956,50.8352],[6.9739,50.8439],[6.9809,50.8409],[6.9841,50.8441],[6.9952,50.8363],[7.0233,50.8393],[7.0271,50.847],[7.051,50.8502],[7.0613,50.8442],[7.0624,50.8296],[7.0906,50.8333],[7.1142,50.846],[7.1376,50.858],[7.1613,50.8673],[7.1527,50.8746],[7.1403,50.8874],[7.1373,50.9088],[7.1399,50.9228],[7.1367,50.9278],[7.1444,50.9422],[7.1113,50.9427],[7.103,50.9499],[7.0874,50.9593],[7.1013,50.9679],[7.0956,50.9852],[7.0676,50.99],[7.0765,51.0018],[7.0619,51.0134],[7.0679,51.0187],[7.0426,51.0194],[7.0159,51.0174],[7.0139,51.0231],[6.9853,51.0116],[6.974,51.0186]]]}},{"type":"Feature","properties":{"ags":"05316000","name":"Leverkusen","ewz":166414,"dist_km":13.1,"city":false,"warm_m2":13.51,"own_value":true,"m2_median":64,"share_median":0.283,"m2_p25":50,"share_p25":0.361},"geometry":{"type":"Polygon","coordinates":[[[7.0743,51.097],[7.0441,51.0971],[7.0423,51.0957],[7.0385,51.0949],[7.0308,51.0898],[7.0113,51.0818],[6.9906,51.0916],[6.9895,51.075],[6.9716,51.068],[6.9606,51.0723],[6.9391,51.0723],[6.9263,51.082],[6.9234,51.0808],[6.898,51.0649],[6.964,51.0325],[6.9722,51.0253],[6.974,51.0186],[6.9853,51.0116],[7.0139,51.0231],[7.0159,51.0174],[7.0426,51.0194],[7.0679,51.0187],[7.0733,51.0224],[7.0761,51.0225],[7.0855,51.0268],[7.0887,51.0256],[7.0941,51.0268],[7.0931,51.0339],[7.1053,51.0544],[7.1129,51.0608],[7.1156,51.0628],[7.0689,51.0678],[7.0576,51.0775],[7.0713,51.0884],[7.0743,51.097]]]}},{"type":"Feature","properties":{"ags":"05358004","name":"Aldenhoven","ewz":14231,"dist_km":49.5,"city":false,"warm_m2":11.93,"own_value":true,"m2_median":74,"share_median":0.244,"m2_p25":58,"share_p25":0.311},"geometry":{"type":"Polygon","coordinates":[[[6.262,50.9399],[6.2331,50.936],[6.2242,50.9322],[6.2286,50.9208],[6.1997,50.8979],[6.2082,50.8902],[6.219,50.886],[6.2302,50.8635],[6.2352,50.865],[6.2531,50.8623],[6.3,50.884],[6.3091,50.873],[6.3154,50.8648],[6.3314,50.8742],[6.3304,50.8801],[6.3309,50.8826],[6.3323,50.8837],[6.307,50.8949],[6.2952,50.9207],[6.2646,50.9248],[6.2699,50.9348],[6.262,50.9399]]]}},{"type":"Feature","properties":{"ags":"05358008","name":"Düren","ewz":93323,"dist_km":37.9,"city":false,"warm_m2":12.51,"own_value":true,"m2_median":70,"share_median":0.258,"m2_p25":55,"share_p25":0.329},"geometry":{"type":"Polygon","coordinates":[[[6.4268,50.8559],[6.4237,50.8578],[6.393,50.8397],[6.389,50.8339],[6.3861,50.8288],[6.413,50.814],[6.4191,50.8076],[6.4008,50.7836],[6.4039,50.7735],[6.4077,50.7746],[6.4089,50.7739],[6.4098,50.7667],[6.4476,50.7512],[6.4533,50.7436],[6.4555,50.7446],[6.4854,50.759],[6.5092,50.7598],[6.5252,50.7798],[6.5301,50.7849],[6.5239,50.7965],[6.5354,50.8042],[6.5382,50.8054],[6.5291,50.8167],[6.5016,50.8229],[6.5188,50.8394],[6.5072,50.8524],[6.4842,50.8462],[6.4762,50.85],[6.4503,50.8412],[6.4377,50.8473],[6.4334,50.8574],[6.4268,50.8559]]]}},{"type":"Feature","properties":{"ags":"05358012","name":"Heimbach","ewz":4349,"dist_km":48.6,"city":false,"warm_m2":10.86,"own_value":true,"m2_median":81,"share_median":0.222,"m2_p25":64,"share_p25":0.283},"geometry":{"type":"Polygon","coordinates":[[[6.4994,50.6558],[6.4771,50.6638],[6.4416,50.6597],[6.4176,50.6459],[6.4239,50.6365],[6.4167,50.6359],[6.4135,50.6411],[6.4062,50.6403],[6.4103,50.6331],[6.3968,50.6282],[6.3918,50.6237],[6.3946,50.6134],[6.4094,50.6049],[6.4138,50.6008],[6.4174,50.6121],[6.4249,50.6179],[6.4469,50.6163],[6.4704,50.6113],[6.491,50.6005],[6.5235,50.5982],[6.5409,50.6064],[6.5495,50.5989],[6.5609,50.6043],[6.5552,50.6113],[6.5664,50.6216],[6.5594,50.6262],[6.57,50.6358],[6.5769,50.6402],[6.5667,50.6563],[6.5444,50.6613],[6.5316,50.6595],[6.517,50.6526],[6.4994,50.6558]]]}},{"type":"Feature","properties":{"ags":"05358016","name":"Hürtgenwald","ewz":8993,"dist_km":48.3,"city":false,"warm_m2":10.81,"own_value":true,"m2_median":81,"share_median":0.221,"m2_p25":64,"share_p25":0.282},"geometry":{"type":"Polygon","coordinates":[[[6.4533,50.7436],[6.4476,50.7512],[6.4098,50.7667],[6.4089,50.7739],[6.4077,50.7746],[6.4039,50.7735],[6.3911,50.7668],[6.3726,50.7572],[6.3656,50.7587],[6.3498,50.7575],[6.3275,50.7374],[6.3243,50.7265],[6.3083,50.7027],[6.3129,50.6905],[6.2862,50.6864],[6.2844,50.6822],[6.2845,50.6776],[6.2978,50.6692],[6.3182,50.6671],[6.3236,50.6559],[6.3324,50.6515],[6.3472,50.6559],[6.376,50.6691],[6.3755,50.6714],[6.3742,50.674],[6.3882,50.6735],[6.3929,50.6805],[6.3955,50.6846],[6.4017,50.685],[6.4078,50.6877],[6.4149,50.6838],[6.4231,50.6807],[6.4311,50.6788],[6.4375,50.6789],[6.4454,50.681],[6.4458,50.6871],[6.4535,50.6988],[6.437,50.7073],[6.4339,50.7073],[6.4239,50.7128],[6.4189,50.7301],[6.4406,50.7358],[6.4465,50.7422],[6.4533,50.7436]]]}},{"type":"Feature","properties":{"ags":"05358020","name":"Inden","ewz":7608,"dist_km":42,"city":false,"warm_m2":11.89,"own_value":true,"m2_median":74,"share_median":0.244,"m2_p25":58,"share_p25":0.312},"geometry":{"type":"Polygon","coordinates":[[[6.3963,50.8851],[6.3879,50.8843],[6.3763,50.8965],[6.3684,50.8888],[6.3401,50.8854],[6.3309,50.8826],[6.3304,50.8801],[6.3314,50.8742],[6.3154,50.8648],[6.3201,50.859],[6.3161,50.8532],[6.3368,50.844],[6.34,50.8348],[6.3891,50.8368],[6.393,50.8397],[6.4237,50.8578],[6.4268,50.8559],[6.4334,50.8574],[6.4313,50.8649],[6.4321,50.8681],[6.43,50.8707],[6.4187,50.8755],[6.4137,50.8806],[6.4102,50.8795],[6.4079,50.8819],[6.3963,50.8851]]]}},{"type":"Feature","properties":{"ags":"05358024","name":"Jülich","ewz":33359,"dist_km":42.3,"city":false,"warm_m2":12.89,"own_value":true,"m2_median":68,"share_median":0.265,"m2_p25":53,"share_p25":0.338},"geometry":{"type":"Polygon","coordinates":[[[6.448,50.9595],[6.4319,50.9706],[6.3885,50.967],[6.3746,50.9805],[6.3609,50.9657],[6.3592,50.9673],[6.3581,50.9661],[6.3587,50.9642],[6.3543,50.9633],[6.321,50.9521],[6.311,50.9575],[6.2826,50.9481],[6.2677,50.9369],[6.2699,50.9348],[6.2646,50.9248],[6.2952,50.9207],[6.307,50.8949],[6.3323,50.8837],[6.3401,50.8854],[6.3684,50.8888],[6.3763,50.8965],[6.3879,50.8843],[6.3963,50.8851],[6.4079,50.8819],[6.4102,50.8795],[6.4225,50.8829],[6.4188,50.8955],[6.4358,50.9082],[6.436,50.9277],[6.4537,50.9342],[6.4549,50.9348],[6.448,50.9595]]]}},{"type":"Feature","properties":{"ags":"05358028","name":"Kreuzau","ewz":17756,"dist_km":40.9,"city":false,"warm_m2":12.16,"own_value":true,"m2_median":72,"share_median":0.25,"m2_p25":56,"share_p25":0.319},"geometry":{"type":"Polygon","coordinates":[[[6.5386,50.7655],[6.5311,50.7743],[6.5312,50.7757],[6.5352,50.7769],[6.5384,50.7796],[6.5252,50.7798],[6.5092,50.7598],[6.4854,50.759],[6.4555,50.7446],[6.4465,50.7422],[6.4406,50.7358],[6.4189,50.7301],[6.4239,50.7128],[6.4339,50.7073],[6.457,50.7085],[6.4764,50.7121],[6.4874,50.7028],[6.4965,50.7042],[6.5144,50.6964],[6.5455,50.6996],[6.5328,50.7042],[6.5177,50.7373],[6.5488,50.7559],[6.5475,50.7653],[6.5433,50.7676],[6.5386,50.7655]]]}},{"type":"Feature","properties":{"ags":"05358032","name":"Langerwehe","ewz":14467,"dist_km":45,"city":false,"warm_m2":12.6,"own_value":true,"m2_median":70,"share_median":0.258,"m2_p25":55,"share_p25":0.329},"geometry":{"type":"Polygon","coordinates":[[[6.3891,50.8368],[6.34,50.8348],[6.334,50.8297],[6.3406,50.8172],[6.3255,50.8084],[6.3226,50.7999],[6.2984,50.792],[6.3116,50.7855],[6.3142,50.7719],[6.3323,50.7752],[6.344,50.7845],[6.3516,50.7786],[6.361,50.7608],[6.3726,50.7572],[6.3911,50.7668],[6.4042,50.7731],[6.4008,50.7836],[6.4191,50.8076],[6.413,50.814],[6.3861,50.8288],[6.389,50.8339],[6.3891,50.8368]]]}},{"type":"Feature","properties":{"ags":"05358036","name":"Linnich","ewz":13056,"dist_km":47.9,"city":false,"warm_m2":11.48,"own_value":true,"m2_median":77,"share_median":0.235,"m2_p25":60,"share_p25":0.299},"geometry":{"type":"Polygon","coordinates":[[[6.2899,51.0249],[6.285,51.0104],[6.2732,50.9996],[6.2467,50.9923],[6.2367,50.9886],[6.2344,50.9857],[6.1947,50.9675],[6.1977,50.9525],[6.1945,50.9501],[6.1984,50.948],[6.2026,50.9439],[6.2229,50.9419],[6.2296,50.935],[6.2331,50.936],[6.262,50.9399],[6.2677,50.9369],[6.2826,50.9481],[6.311,50.9575],[6.321,50.9521],[6.3543,50.9633],[6.3587,50.9642],[6.3581,50.9661],[6.3592,50.9673],[6.3496,50.9759],[6.3367,50.9864],[6.3543,50.9929],[6.3587,51.0054],[6.3563,51.0165],[6.3223,51.0128],[6.2999,51.0159],[6.2983,51.0247],[6.2899,51.0249]]]}},{"type":"Feature","properties":{"ags":"05358040","name":"Merzenich","ewz":10409,"dist_km":31.3,"city":false,"warm_m2":12.87,"own_value":true,"m2_median":67,"share_median":0.267,"m2_p25":53,"share_p25":0.34},"geometry":{"type":"Polygon","coordinates":[[[6.536,50.8924],[6.5215,50.8757],[6.5205,50.8651],[6.5072,50.8524],[6.5188,50.8394],[6.5016,50.8229],[6.5291,50.8167],[6.5382,50.8054],[6.5436,50.8067],[6.5494,50.8016],[6.5735,50.8081],[6.5765,50.8212],[6.5981,50.825],[6.6142,50.8246],[6.6125,50.8294],[6.6116,50.8385],[6.5977,50.848],[6.5718,50.8468],[6.5531,50.8654],[6.5614,50.878],[6.5527,50.8927],[6.5508,50.8907],[6.536,50.8924]]]}},{"type":"Feature","properties":{"ags":"05358044","name":"Nideggen","ewz":10397,"dist_km":44.6,"city":false,"warm_m2":12.41,"own_value":true,"m2_median":71,"share_median":0.255,"m2_p25":55,"share_p25":0.325},"geometry":{"type":"Polygon","coordinates":[[[6.5455,50.6996],[6.5144,50.6964],[6.4965,50.7042],[6.4874,50.7028],[6.4764,50.7121],[6.457,50.7085],[6.437,50.7073],[6.4535,50.6988],[6.4458,50.6871],[6.4463,50.6827],[6.444,50.6802],[6.434,50.6788],[6.4231,50.6807],[6.4149,50.6838],[6.4066,50.6877],[6.4026,50.6853],[6.3947,50.6842],[6.3929,50.6805],[6.3882,50.6735],[6.3742,50.674],[6.3755,50.6714],[6.3779,50.6649],[6.3747,50.6611],[6.3781,50.6535],[6.4105,50.6421],[6.4135,50.6411],[6.4167,50.6359],[6.4239,50.6365],[6.4176,50.6459],[6.4416,50.6597],[6.4771,50.6638],[6.4994,50.6558],[6.517,50.6526],[6.5316,50.6595],[6.5444,50.6613],[6.5667,50.6563],[6.5996,50.6725],[6.6013,50.6778],[6.5922,50.6887],[6.5928,50.6968],[6.5696,50.6936],[6.5455,50.6996]]]}},{"type":"Feature","properties":{"ags":"05358048","name":"Niederzier","ewz":14493,"dist_km":34.7,"city":false,"warm_m2":11.97,"own_value":true,"m2_median":73,"share_median":0.247,"m2_p25":57,"share_p25":0.316},"geometry":{"type":"Polygon","coordinates":[[[6.4944,50.9498],[6.4874,50.9513],[6.4828,50.9527],[6.4794,50.945],[6.4635,50.938],[6.4537,50.9342],[6.436,50.9277],[6.4358,50.9082],[6.4188,50.8955],[6.4225,50.8829],[6.4137,50.8806],[6.4187,50.8755],[6.429,50.8714],[6.4314,50.8694],[6.4334,50.8574],[6.4377,50.8473],[6.4503,50.8412],[6.4762,50.85],[6.4842,50.8462],[6.5072,50.8524],[6.5205,50.8651],[6.5215,50.8757],[6.536,50.8924],[6.524,50.8939],[6.518,50.9043],[6.52,50.9249],[6.5028,50.9309],[6.4944,50.9498]]]}},{"type":"Feature","properties":{"ags":"05358052","name":"Nörvenich","ewz":11387,"dist_km":28.7,"city":false,"warm_m2":12.17,"own_value":true,"m2_median":71,"share_median":0.253,"m2_p25":56,"share_p25":0.323},"geometry":{"type":"Polygon","coordinates":[[[6.6805,50.8359],[6.6771,50.8375],[6.6768,50.8313],[6.6482,50.834],[6.6241,50.822],[6.613,50.8283],[6.6142,50.8246],[6.5981,50.825],[6.5765,50.8212],[6.5735,50.8081],[6.5494,50.8016],[6.5436,50.8067],[6.5354,50.8042],[6.5239,50.7965],[6.5301,50.7849],[6.5384,50.7796],[6.531,50.7751],[6.5386,50.7655],[6.5433,50.7676],[6.546,50.7662],[6.572,50.7749],[6.5659,50.78],[6.5823,50.7858],[6.6034,50.788],[6.6085,50.7816],[6.6411,50.7787],[6.6586,50.7715],[6.6698,50.7682],[6.6807,50.7702],[6.6784,50.7741],[6.7126,50.7878],[6.7069,50.8026],[6.7111,50.8111],[6.7066,50.8353],[6.6864,50.836],[6.6805,50.8359]]]}},{"type":"Feature","properties":{"ags":"05358056","name":"Titz","ewz":8886,"dist_km":39,"city":false,"warm_m2":11.72,"own_value":true,"m2_median":75,"share_median":0.242,"m2_p25":58,"share_p25":0.308},"geometry":{"type":"Polygon","coordinates":[[[6.4572,51.0415],[6.431,51.0351],[6.399,51.0322],[6.3716,51.034],[6.3563,51.0165],[6.3587,51.0054],[6.3543,50.9929],[6.3367,50.9864],[6.3496,50.9759],[6.3609,50.9657],[6.3746,50.9805],[6.3885,50.967],[6.4319,50.9706],[6.448,50.9595],[6.4549,50.9348],[6.4635,50.938],[6.4794,50.945],[6.4828,50.9527],[6.4849,50.9522],[6.4887,50.9578],[6.4833,50.9671],[6.5004,50.9714],[6.4994,50.9769],[6.4925,50.9838],[6.4736,50.9839],[6.4705,50.9943],[6.4583,51.0081],[6.4665,51.0117],[6.4597,51.0231],[6.4798,51.0327],[6.4805,51.0342],[6.4592,51.0431],[6.4572,51.0415]]]}},{"type":"Feature","properties":{"ags":"05358060","name":"Vettweiß","ewz":9952,"dist_km":33,"city":false,"warm_m2":12.17,"own_value":true,"m2_median":71,"share_median":0.252,"m2_p25":56,"share_p25":0.322},"geometry":{"type":"Polygon","coordinates":[[[6.6807,50.7702],[6.6698,50.7682],[6.6586,50.7715],[6.6411,50.7787],[6.6085,50.7816],[6.6034,50.788],[6.5823,50.7858],[6.5659,50.78],[6.572,50.7749],[6.546,50.7662],[6.5475,50.7653],[6.5488,50.7559],[6.5177,50.7373],[6.5328,50.7042],[6.5455,50.6996],[6.5696,50.6936],[6.5928,50.6968],[6.5902,50.7086],[6.6038,50.7108],[6.6224,50.7224],[6.6298,50.7321],[6.6738,50.7153],[6.6775,50.715],[6.6803,50.716],[6.7005,50.7314],[6.6999,50.7495],[6.6921,50.7556],[6.688,50.7626],[6.6831,50.7648],[6.6807,50.7702]]]}},{"type":"Feature","properties":{"ags":"05362004","name":"Bedburg","ewz":24645,"dist_km":29.3,"city":false,"warm_m2":13.08,"own_value":true,"m2_median":66,"share_median":0.272,"m2_p25":52,"share_p25":0.347},"geometry":{"type":"Polygon","coordinates":[[[6.6373,51.0268],[6.5824,51.018],[6.5487,51.0263],[6.5613,51.0352],[6.5533,51.0558],[6.5377,51.0521],[6.5266,51.0584],[6.5259,51.0572],[6.5189,51.0584],[6.4844,51.0424],[6.4798,51.0327],[6.4597,51.0231],[6.4665,51.0117],[6.4583,51.0081],[6.4705,50.9943],[6.4736,50.9839],[6.4925,50.9838],[6.4994,50.9769],[6.5001,50.9734],[6.5469,50.9762],[6.5593,50.9727],[6.561,50.9692],[6.5657,50.9693],[6.5732,50.9709],[6.5867,50.9811],[6.607,50.9907],[6.6299,50.995],[6.6368,50.988],[6.657,50.992],[6.6594,51.0012],[6.6539,51.0038],[6.6503,51.0071],[6.6478,51.0212],[6.6396,51.023],[6.6373,51.0268]]]}},{"type":"Feature","properties":{"ags":"05362008","name":"Bergheim","ewz":62172,"dist_km":21.1,"city":false,"warm_m2":13.02,"own_value":true,"m2_median":66,"share_median":0.272,"m2_p25":52,"share_p25":0.348},"geometry":{"type":"Polygon","coordinates":[[[6.6503,51.0222],[6.6478,51.0212],[6.6499,51.0079],[6.6519,51.0052],[6.6594,51.0012],[6.657,50.992],[6.6368,50.988],[6.6299,50.995],[6.607,50.9907],[6.5867,50.9811],[6.5732,50.9709],[6.5668,50.9694],[6.561,50.9692],[6.5629,50.9664],[6.5725,50.9587],[6.6027,50.9469],[6.6205,50.9378],[6.6548,50.916],[6.6598,50.9194],[6.6776,50.9243],[6.7314,50.9262],[6.7198,50.9287],[6.7304,50.9339],[6.7395,50.9466],[6.7399,50.9551],[6.7649,50.9683],[6.7549,50.9794],[6.7518,50.9919],[6.7598,50.9987],[6.7466,51.0063],[6.7252,50.9985],[6.7114,51.0069],[6.7141,51.0126],[6.7154,51.0151],[6.6819,51.0187],[6.6734,51.0159],[6.6503,51.0222]]]}},{"type":"Feature","properties":{"ags":"05362012","name":"Brühl","ewz":45515,"dist_km":14.6,"city":false,"warm_m2":16.03,"own_value":true,"m2_median":54,"share_median":0.336,"m2_p25":42,"share_p25":0.429},"geometry":{"type":"Polygon","coordinates":[[[6.9216,50.8483],[6.9196,50.8544],[6.9158,50.8508],[6.903,50.849],[6.8934,50.851],[6.875,50.8437],[6.85,50.8435],[6.833,50.8299],[6.8413,50.8257],[6.8462,50.8004],[6.852,50.7886],[6.8576,50.7896],[6.8639,50.7848],[6.8839,50.796],[6.9133,50.7991],[6.9338,50.8053],[6.9421,50.804],[6.9436,50.8048],[6.9348,50.8107],[6.9396,50.8119],[6.9298,50.8412],[6.9216,50.8483]]]}},{"type":"Feature","properties":{"ags":"05362016","name":"Elsdorf","ewz":21993,"dist_km":27.8,"city":false,"warm_m2":12.4,"own_value":true,"m2_median":70,"share_median":0.258,"m2_p25":55,"share_p25":0.329},"geometry":{"type":"Polygon","coordinates":[[[6.5593,50.9727],[6.5469,50.9762],[6.5001,50.9734],[6.5004,50.9714],[6.4833,50.9671],[6.4887,50.9578],[6.4849,50.9522],[6.4944,50.9498],[6.5028,50.9309],[6.52,50.9249],[6.518,50.9043],[6.524,50.8939],[6.5508,50.8907],[6.553,50.894],[6.5755,50.8968],[6.5951,50.9053],[6.6215,50.9027],[6.6176,50.8946],[6.6364,50.8918],[6.6486,50.9065],[6.6548,50.916],[6.6205,50.9378],[6.6027,50.9469],[6.5725,50.9587],[6.5629,50.9664],[6.5593,50.9727]]]}},{"type":"Feature","properties":{"ags":"05362020","name":"Erftstadt","ewz":50018,"dist_km":21.3,"city":false,"warm_m2":14.08,"own_value":true,"m2_median":61,"share_median":0.294,"m2_p25":48,"share_p25":0.376},"geometry":{"type":"Polygon","coordinates":[[[6.8029,50.8505],[6.7876,50.8471],[6.7797,50.8391],[6.764,50.8391],[6.7339,50.8559],[6.7103,50.8542],[6.6899,50.8475],[6.6864,50.836],[6.7066,50.8353],[6.7111,50.8111],[6.7069,50.8026],[6.7126,50.7878],[6.6784,50.7741],[6.6831,50.7648],[6.688,50.7626],[6.6938,50.7538],[6.6967,50.7558],[6.6993,50.7535],[6.704,50.7522],[6.7158,50.7537],[6.7241,50.7459],[6.7096,50.7353],[6.7276,50.73],[6.7552,50.7274],[6.776,50.7178],[6.7871,50.7329],[6.8035,50.7472],[6.8181,50.7656],[6.8382,50.7672],[6.8373,50.7781],[6.8446,50.786],[6.8488,50.7868],[6.852,50.7886],[6.8462,50.8004],[6.8413,50.8257],[6.833,50.8299],[6.8422,50.8369],[6.8295,50.8418],[6.8182,50.8553],[6.804,50.855],[6.8029,50.8505]]]}},{"type":"Feature","properties":{"ags":"05362024","name":"Frechen","ewz":53128,"dist_km":12.1,"city":false,"warm_m2":15.15,"own_value":true,"m2_median":57,"share_median":0.317,"m2_p25":44,"share_p25":0.405},"geometry":{"type":"Polygon","coordinates":[[[6.8153,50.94],[6.8051,50.9389],[6.8047,50.9407],[6.793,50.9395],[6.7904,50.9449],[6.7712,50.949],[6.7429,50.9439],[6.7395,50.9466],[6.7304,50.9339],[6.7198,50.9287],[6.7525,50.922],[6.7343,50.9069],[6.7433,50.8881],[6.7641,50.8761],[6.7796,50.8778],[6.7924,50.884],[6.8237,50.8908],[6.8434,50.8996],[6.8501,50.9057],[6.8539,50.9056],[6.8443,50.9101],[6.8374,50.9259],[6.8225,50.9277],[6.8158,50.9393],[6.8153,50.94]]]}},{"type":"Feature","properties":{"ags":"05362028","name":"Hürth","ewz":61252,"dist_km":10.9,"city":false,"warm_m2":16.12,"own_value":true,"m2_median":53,"share_median":0.337,"m2_p25":42,"share_p25":0.431},"geometry":{"type":"Polygon","coordinates":[[[6.9189,50.8919],[6.8794,50.9096],[6.857,50.9043],[6.8539,50.9056],[6.8501,50.9057],[6.8434,50.8996],[6.8237,50.8908],[6.7924,50.884],[6.7796,50.8778],[6.7797,50.8657],[6.802,50.8655],[6.804,50.855],[6.8182,50.8553],[6.8295,50.8418],[6.8422,50.8369],[6.85,50.8435],[6.875,50.8437],[6.8934,50.851],[6.903,50.849],[6.9174,50.8514],[6.9196,50.8544],[6.919,50.8563],[6.9209,50.8713],[6.913,50.8829],[6.9189,50.8919]]]}},{"type":"Feature","properties":{"ags":"05362032","name":"Kerpen","ewz":67627,"dist_km":22.4,"city":false,"warm_m2":13.95,"own_value":true,"m2_median":62,"share_median":0.291,"m2_p25":48,"share_p25":0.372},"geometry":{"type":"Polygon","coordinates":[[[6.7314,50.9262],[6.6776,50.9243],[6.6598,50.9194],[6.6486,50.9065],[6.6364,50.8918],[6.6176,50.8946],[6.6215,50.9027],[6.5951,50.9053],[6.5755,50.8968],[6.553,50.894],[6.5527,50.8927],[6.5614,50.878],[6.5531,50.8654],[6.5718,50.8468],[6.5977,50.848],[6.6116,50.8385],[6.6125,50.8294],[6.613,50.8283],[6.6241,50.822],[6.6482,50.834],[6.6768,50.8313],[6.6771,50.8375],[6.6805,50.8359],[6.6864,50.836],[6.6899,50.8475],[6.7103,50.8542],[6.7339,50.8559],[6.764,50.8391],[6.7797,50.8391],[6.7876,50.8471],[6.8029,50.8505],[6.802,50.8655],[6.7797,50.8657],[6.7796,50.8778],[6.7641,50.8761],[6.7433,50.8881],[6.7343,50.9069],[6.7525,50.922],[6.7314,50.9262]]]}},{"type":"Feature","properties":{"ags":"05362036","name":"Pulheim","ewz":56284,"dist_km":13.4,"city":false,"warm_m2":15.84,"own_value":true,"m2_median":54,"share_median":0.332,"m2_p25":42,"share_p25":0.424},"geometry":{"type":"Polygon","coordinates":[[[6.7623,51.0655],[6.7532,51.0661],[6.7526,51.0604],[6.7609,51.0502],[6.7617,51.0425],[6.7281,51.031],[6.7204,51.0225],[6.7141,51.0126],[6.7114,51.0069],[6.7252,50.9985],[6.7466,51.0063],[6.7598,50.9987],[6.7518,50.9919],[6.7549,50.9794],[6.7649,50.9683],[6.7399,50.9551],[6.7395,50.9466],[6.7429,50.9439],[6.7712,50.949],[6.7904,50.9449],[6.793,50.9395],[6.8047,50.9407],[6.8051,50.9389],[6.8153,50.94],[6.8088,50.9486],[6.824,50.9578],[6.819,50.9653],[6.8397,50.9823],[6.8353,50.9997],[6.8408,51.0035],[6.8364,51.0185],[6.8398,51.0289],[6.8203,51.038],[6.7983,51.037],[6.7878,51.0501],[6.7724,51.0603],[6.7729,51.0653],[6.7623,51.0655]]]}},{"type":"Feature","properties":{"ags":"05362040","name":"Wesseling","ewz":38355,"dist_km":13.8,"city":false,"warm_m2":15.04,"own_value":true,"m2_median":57,"share_median":0.315,"m2_p25":45,"share_p25":0.402},"geometry":{"type":"Polygon","coordinates":[[[6.956,50.8352],[6.9467,50.8455],[6.9312,50.8375],[6.9396,50.8119],[6.9348,50.8107],[6.9436,50.8048],[6.9421,50.804],[6.9515,50.8029],[6.9555,50.8031],[6.958,50.8043],[6.9662,50.7995],[6.9828,50.8008],[6.9898,50.7923],[7.0064,50.7978],[7.0104,50.7968],[7.0228,50.8006],[7.0302,50.8007],[7.0287,50.8132],[7.025,50.8183],[7.0128,50.8235],[6.9947,50.8252],[6.9823,50.8306],[6.9797,50.834],[6.9809,50.8409],[6.9739,50.8439],[6.956,50.8352]]]}},{"type":"Feature","properties":{"ags":"05366004","name":"Bad Münstereifel","ewz":17568,"dist_km":46.9,"city":false,"warm_m2":12.6,"own_value":true,"m2_median":70,"share_median":0.258,"m2_p25":55,"share_p25":0.329},"geometry":{"type":"Polygon","coordinates":[[[6.9215,50.5653],[6.8944,50.5614],[6.8717,50.5702],[6.8548,50.5636],[6.8322,50.5665],[6.8185,50.5618],[6.8121,50.5752],[6.8136,50.5873],[6.8221,50.5955],[6.7996,50.6091],[6.7842,50.6085],[6.7699,50.6028],[6.7573,50.592],[6.7319,50.5776],[6.6911,50.5394],[6.7174,50.5257],[6.7383,50.5258],[6.7442,50.5183],[6.7582,50.5182],[6.7517,50.4901],[6.7683,50.4843],[6.8009,50.4913],[6.8062,50.4882],[6.8121,50.4722],[6.8365,50.4655],[6.855,50.4542],[6.8586,50.4533],[6.8667,50.4563],[6.8767,50.4648],[6.8944,50.467],[6.8999,50.471],[6.9056,50.485],[6.8979,50.4923],[6.9071,50.5026],[6.8886,50.507],[6.8978,50.5177],[6.8845,50.5199],[6.8861,50.5293],[6.9126,50.5274],[6.9165,50.528],[6.9314,50.5356],[6.922,50.5543],[6.9279,50.5586],[6.9215,50.5653]]]}},{"type":"Feature","properties":{"ags":"05366016","name":"Euskirchen","ewz":60256,"dist_km":36.2,"city":false,"warm_m2":13.71,"own_value":true,"m2_median":64,"share_median":0.283,"m2_p25":50,"share_p25":0.361},"geometry":{"type":"Polygon","coordinates":[[[6.7633,50.6941],[6.7558,50.6961],[6.7564,50.6973],[6.7472,50.6994],[6.7325,50.7007],[6.7094,50.6832],[6.7223,50.6755],[6.7328,50.677],[6.7129,50.65],[6.7118,50.6457],[6.7123,50.6434],[6.7149,50.644],[6.7185,50.6272],[6.7351,50.6141],[6.7507,50.6124],[6.7695,50.6156],[6.7699,50.6028],[6.7842,50.6085],[6.7996,50.6091],[6.8221,50.5955],[6.8136,50.5873],[6.8121,50.5752],[6.8185,50.5618],[6.8322,50.5665],[6.8548,50.5636],[6.8717,50.5702],[6.8944,50.5614],[6.9215,50.5653],[6.9238,50.5684],[6.9347,50.571],[6.8909,50.5745],[6.8913,50.5874],[6.8852,50.5984],[6.8984,50.6041],[6.9095,50.6145],[6.9154,50.6293],[6.8985,50.6357],[6.8845,50.6359],[6.8731,50.6386],[6.8723,50.6474],[6.857,50.6541],[6.8755,50.6746],[6.8709,50.6893],[6.8584,50.6952],[6.8543,50.6956],[6.8411,50.703],[6.806,50.6995],[6.8046,50.6918],[6.7945,50.6893],[6.7596,50.6905],[6.7633,50.6941]]]}},{"type":"Feature","properties":{"ags":"05366028","name":"Mechernich","ewz":28900,"dist_km":45,"city":false,"warm_m2":12.77,"own_value":true,"m2_median":69,"share_median":0.262,"m2_p25":54,"share_p25":0.334},"geometry":{"type":"Polygon","coordinates":[[[6.7083,50.6424],[6.6848,50.6461],[6.6681,50.6306],[6.6308,50.6379],[6.6222,50.6501],[6.5936,50.6412],[6.5847,50.6433],[6.57,50.6358],[6.5594,50.6262],[6.5664,50.6216],[6.5552,50.6113],[6.5609,50.6043],[6.5495,50.5989],[6.5446,50.6028],[6.552,50.5833],[6.5358,50.5751],[6.5473,50.5637],[6.55,50.5562],[6.569,50.5597],[6.5733,50.5734],[6.5849,50.5749],[6.6066,50.5633],[6.6026,50.5436],[6.6078,50.5294],[6.6118,50.5264],[6.6367,50.5307],[6.6431,50.5219],[6.6594,50.5241],[6.6705,50.5365],[6.6911,50.5394],[6.7319,50.5776],[6.7573,50.592],[6.7699,50.6028],[6.7695,50.6156],[6.7507,50.6124],[6.7351,50.6141],[6.7185,50.6272],[6.7149,50.644],[6.7083,50.6424]]]}},{"type":"Feature","properties":{"ags":"05366040","name":"Weilerswist","ewz":17826,"dist_km":23.9,"city":false,"warm_m2":14.1,"own_value":true,"m2_median":61,"share_median":0.294,"m2_p25":48,"share_p25":0.375},"geometry":{"type":"Polygon","coordinates":[[[6.8598,50.7645],[6.8668,50.7718],[6.8639,50.7848],[6.8576,50.7896],[6.8488,50.7868],[6.8446,50.786],[6.8373,50.7781],[6.8382,50.7672],[6.8181,50.7656],[6.8035,50.7472],[6.7826,50.7279],[6.7749,50.7162],[6.7669,50.699],[6.7596,50.6905],[6.7945,50.6893],[6.8046,50.6918],[6.806,50.6995],[6.8411,50.703],[6.8543,50.6956],[6.8634,50.7058],[6.8672,50.7079],[6.8926,50.7142],[6.8949,50.722],[6.9158,50.7341],[6.9134,50.7353],[6.9022,50.7503],[6.8927,50.7477],[6.8821,50.746],[6.878,50.7482],[6.8726,50.7533],[6.8598,50.7645]]]}},{"type":"Feature","properties":{"ags":"05366044","name":"Zülpich","ewz":21375,"dist_km":35,"city":false,"warm_m2":12.81,"own_value":true,"m2_median":68,"share_median":0.265,"m2_p25":53,"share_p25":0.338},"geometry":{"type":"Polygon","coordinates":[[[6.776,50.7178],[6.7552,50.7274],[6.7276,50.73],[6.7096,50.7353],[6.7241,50.7459],[6.7158,50.7537],[6.704,50.7522],[6.6993,50.7535],[6.6967,50.7558],[6.6938,50.7538],[6.6999,50.7495],[6.7005,50.7314],[6.6792,50.7152],[6.6738,50.7153],[6.6298,50.7321],[6.6224,50.7224],[6.6038,50.7108],[6.5902,50.7086],[6.5928,50.6968],[6.5922,50.6887],[6.6013,50.6778],[6.5996,50.6725],[6.5667,50.6563],[6.5769,50.6402],[6.5847,50.6433],[6.5936,50.6412],[6.6222,50.6501],[6.6308,50.6379],[6.6681,50.6306],[6.6848,50.6461],[6.7083,50.6424],[6.7123,50.6434],[6.7129,50.65],[6.7328,50.677],[6.7223,50.6755],[6.7094,50.6832],[6.7325,50.7007],[6.7472,50.6994],[6.7564,50.6973],[6.7558,50.6961],[6.7633,50.6941],[6.7706,50.7052],[6.776,50.7178]]]}},{"type":"Feature","properties":{"ags":"05370004","name":"Erkelenz","ewz":44572,"dist_km":44.6,"city":false,"warm_m2":12.56,"own_value":true,"m2_median":70,"share_median":0.258,"m2_p25":55,"share_p25":0.329},"geometry":{"type":"Polygon","coordinates":[[[6.349,51.106],[6.3237,51.1054],[6.3135,51.101],[6.2965,51.1123],[6.2795,51.1105],[6.2706,51.1157],[6.2345,51.1123],[6.2313,51.1076],[6.2003,51.1065],[6.2061,51.1021],[6.2058,51.0911],[6.2203,51.0856],[6.2353,51.0898],[6.2392,51.0803],[6.235,51.0686],[6.2605,51.068],[6.2767,51.0477],[6.2899,51.0465],[6.3012,51.0281],[6.2944,51.0274],[6.2958,51.0244],[6.2983,51.0247],[6.2999,51.0159],[6.3223,51.0128],[6.3563,51.0165],[6.3716,51.034],[6.399,51.0322],[6.431,51.0351],[6.4572,51.0415],[6.4772,51.0561],[6.4473,51.0625],[6.4445,51.0679],[6.4524,51.0744],[6.4506,51.0902],[6.444,51.0898],[6.4446,51.0887],[6.42,51.0862],[6.4046,51.0881],[6.3866,51.0976],[6.3604,51.0955],[6.3549,51.1026],[6.349,51.106]]]}},{"type":"Feature","properties":{"ags":"05374008","name":"Engelskirchen","ewz":19637,"dist_km":32.6,"city":false,"warm_m2":11.86,"own_value":true,"m2_median":73,"share_median":0.246,"m2_p25":57,"share_p25":0.313},"geometry":{"type":"Polygon","coordinates":[[[7.496,50.9842],[7.4992,50.9951],[7.5154,51.0044],[7.5043,51.0144],[7.4872,51.0231],[7.4624,51.0246],[7.4444,51.0188],[7.4403,51.0219],[7.4292,51.0115],[7.3879,51.0052],[7.3845,50.9966],[7.3739,50.9935],[7.3652,50.9885],[7.3463,50.9888],[7.3306,50.9797],[7.3259,50.9778],[7.3553,50.951],[7.3872,50.9589],[7.3941,50.9535],[7.4116,50.9486],[7.4281,50.9478],[7.4341,50.9523],[7.4408,50.9559],[7.4649,50.9641],[7.4681,50.9719],[7.4932,50.9822],[7.496,50.9842]]]}},{"type":"Feature","properties":{"ags":"05374012","name":"Gummersbach","ewz":51845,"dist_km":41.3,"city":false,"warm_m2":11.94,"own_value":true,"m2_median":73,"share_median":0.246,"m2_p25":57,"share_p25":0.313},"geometry":{"type":"Polygon","coordinates":[[[7.7021,51.0791],[7.6918,51.0865],[7.6869,51.0832],[7.6264,51.0685],[7.6099,51.0776],[7.6144,51.0648],[7.5832,51.0467],[7.5681,51.055],[7.5413,51.0547],[7.5265,51.0513],[7.5121,51.053],[7.498,51.047],[7.4741,51.0476],[7.467,51.0517],[7.4575,51.0459],[7.4499,51.0364],[7.4352,51.0302],[7.4397,51.0243],[7.4444,51.0188],[7.4624,51.0246],[7.4872,51.0231],[7.5043,51.0144],[7.5154,51.0044],[7.4992,50.9951],[7.496,50.9842],[7.4934,50.981],[7.5197,50.9747],[7.529,50.9777],[7.5537,50.9778],[7.551,50.9846],[7.5829,50.994],[7.5946,50.9943],[7.594,50.9961],[7.6124,50.9998],[7.6193,50.9999],[7.6343,51.0036],[7.6422,51.0032],[7.6384,51.009],[7.6249,51.012],[7.6204,51.0284],[7.6375,51.0412],[7.6527,51.0424],[7.6667,51.0491],[7.67,51.0604],[7.6818,51.0588],[7.7019,51.0627],[7.7125,51.0722],[7.7154,51.0728],[7.7084,51.0776],[7.7021,51.0791]]]}},{"type":"Feature","properties":{"ags":"05374016","name":"Hückeswagen","ewz":14770,"dist_km":35.4,"city":false,"warm_m2":11.08,"own_value":true,"m2_median":79,"share_median":0.229,"m2_p25":62,"share_p25":0.292},"geometry":{"type":"Polygon","coordinates":[[[7.3787,51.1728],[7.3813,51.1888],[7.3686,51.1968],[7.3505,51.1857],[7.3275,51.1801],[7.3054,51.1796],[7.2934,51.1614],[7.2972,51.151],[7.2875,51.144],[7.2785,51.1443],[7.2682,51.1457],[7.2698,51.1384],[7.2746,51.128],[7.2736,51.1148],[7.2799,51.1092],[7.2984,51.1046],[7.3283,51.1054],[7.3353,51.1202],[7.3262,51.1255],[7.3471,51.1316],[7.3674,51.1256],[7.3778,51.1413],[7.3948,51.1482],[7.3867,51.1558],[7.3837,51.1681],[7.3787,51.1728]]]}},{"type":"Feature","properties":{"ags":"05374020","name":"Lindlar","ewz":21836,"dist_km":29.7,"city":false,"warm_m2":12.4,"own_value":true,"m2_median":70,"share_median":0.257,"m2_p25":55,"share_p25":0.329},"geometry":{"type":"Polygon","coordinates":[[[7.4012,51.0767],[7.3985,51.079],[7.3784,51.0695],[7.3599,51.0539],[7.3322,51.0485],[7.3239,51.0471],[7.3131,51.0278],[7.3043,51.0265],[7.2914,51.0322],[7.2825,51.0222],[7.2827,51.0063],[7.2741,50.9976],[7.2637,50.9934],[7.2526,50.9866],[7.2529,50.9852],[7.2841,50.9712],[7.3004,50.9785],[7.3188,50.9766],[7.3306,50.9797],[7.3463,50.9888],[7.3652,50.9885],[7.3739,50.9935],[7.3845,50.9966],[7.3879,51.0052],[7.4292,51.0115],[7.4403,51.0219],[7.4397,51.0243],[7.4352,51.0302],[7.4499,51.0364],[7.4575,51.0459],[7.4629,51.0491],[7.4602,51.0497],[7.4579,51.0557],[7.4613,51.0635],[7.4547,51.0705],[7.4405,51.0756],[7.4348,51.0742],[7.4356,51.0706],[7.4243,51.0644],[7.4184,51.067],[7.4174,51.069],[7.412,51.0728],[7.4012,51.0767]]]}},{"type":"Feature","properties":{"ags":"05374024","name":"Marienheide","ewz":13681,"dist_km":43.4,"city":false,"warm_m2":11.17,"own_value":true,"m2_median":78,"share_median":0.229,"m2_p25":62,"share_p25":0.292},"geometry":{"type":"Polygon","coordinates":[[[7.4993,51.1049],[7.4945,51.105],[7.4801,51.0937],[7.4812,51.0825],[7.4684,51.0737],[7.4547,51.0705],[7.4613,51.0635],[7.4579,51.0557],[7.4602,51.0497],[7.4629,51.0491],[7.467,51.0517],[7.4741,51.0476],[7.498,51.047],[7.5121,51.053],[7.5265,51.0513],[7.5413,51.0547],[7.5681,51.055],[7.5832,51.0467],[7.6144,51.0648],[7.6099,51.0776],[7.5994,51.0875],[7.6063,51.098],[7.6022,51.1005],[7.5997,51.0998],[7.5987,51.1009],[7.5957,51.102],[7.5869,51.1031],[7.5821,51.1066],[7.5168,51.1007],[7.4993,51.1049]]]}},{"type":"Feature","properties":{"ags":"05374032","name":"Nümbrecht","ewz":17700,"dist_km":40.9,"city":false,"warm_m2":11.36,"own_value":true,"m2_median":77,"share_median":0.234,"m2_p25":60,"share_p25":0.298},"geometry":{"type":"Polygon","coordinates":[[[7.6049,50.9336],[7.5866,50.9391],[7.5678,50.94],[7.5426,50.9339],[7.5266,50.9351],[7.5122,50.9306],[7.4898,50.941],[7.4718,50.9385],[7.4668,50.9323],[7.4614,50.9315],[7.4623,50.9294],[7.4711,50.9244],[7.477,50.9155],[7.4774,50.9065],[7.468,50.898],[7.4649,50.8834],[7.4622,50.8787],[7.4909,50.8742],[7.5062,50.8598],[7.5044,50.8525],[7.5066,50.8513],[7.5101,50.8535],[7.535,50.8589],[7.5418,50.8596],[7.5554,50.8589],[7.5644,50.8719],[7.5831,50.8801],[7.5887,50.8924],[7.6151,50.9002],[7.6064,50.9128],[7.6176,50.9288],[7.6178,50.9304],[7.6102,50.9323],[7.6049,50.9336]]]}},{"type":"Feature","properties":{"ags":"05374036","name":"Radevormwald","ewz":22159,"dist_km":41.1,"city":false,"warm_m2":11.7,"own_value":true,"m2_median":75,"share_median":0.241,"m2_p25":59,"share_p25":0.307},"geometry":{"type":"Polygon","coordinates":[[[7.3476,51.2409],[7.3327,51.2503],[7.3067,51.2389],[7.3077,51.2351],[7.2969,51.2239],[7.3004,51.2101],[7.2958,51.2054],[7.2986,51.1958],[7.3038,51.1927],[7.3051,51.1922],[7.2997,51.1861],[7.3032,51.1855],[7.3073,51.1872],[7.3054,51.1796],[7.3275,51.1801],[7.3505,51.1857],[7.3686,51.1968],[7.3813,51.1888],[7.3787,51.1728],[7.3812,51.1701],[7.383,51.1697],[7.3895,51.1723],[7.39,51.1771],[7.4049,51.1872],[7.4079,51.182],[7.411,51.1781],[7.4227,51.1856],[7.4269,51.1866],[7.419,51.2008],[7.4278,51.203],[7.4305,51.209],[7.4302,51.2138],[7.4333,51.2144],[7.4297,51.2159],[7.4312,51.2189],[7.4176,51.2286],[7.4006,51.2235],[7.3953,51.2299],[7.3981,51.2342],[7.3877,51.2424],[7.379,51.2419],[7.3752,51.2447],[7.3705,51.2455],[7.3661,51.2441],[7.3642,51.2455],[7.3621,51.2437],[7.3476,51.2409]]]}},{"type":"Feature","properties":{"ags":"05374040","name":"Reichshof","ewz":18728,"dist_km":51.9,"city":false,"warm_m2":10.79,"own_value":true,"m2_median":82,"share_median":0.22,"m2_p25":64,"share_p25":0.28},"geometry":{"type":"Polygon","coordinates":[[[7.7222,51.0092],[7.7112,51.0066],[7.6949,51.0059],[7.6787,51.0001],[7.6433,51.0001],[7.6422,51.0032],[7.6343,51.0036],[7.6193,50.9999],[7.6124,50.9998],[7.594,50.9961],[7.597,50.9918],[7.5892,50.9809],[7.6035,50.9574],[7.605,50.9462],[7.6153,50.9339],[7.6102,50.9323],[7.6178,50.9304],[7.6237,50.9285],[7.639,50.9177],[7.6429,50.9066],[7.6714,50.9027],[7.6771,50.9027],[7.6912,50.9119],[7.7058,50.9083],[7.7277,50.9173],[7.7358,50.9157],[7.7573,50.9202],[7.7762,50.929],[7.7859,50.9399],[7.7921,50.9514],[7.7843,50.9615],[7.7803,50.98],[7.767,50.9805],[7.7489,50.9778],[7.7383,50.9905],[7.7264,50.9972],[7.7277,51.0051],[7.7244,51.0097],[7.7222,51.0092]]]}},{"type":"Feature","properties":{"ags":"05374044","name":"Waldbröl","ewz":20081,"dist_km":47,"city":false,"warm_m2":11.18,"own_value":true,"m2_median":79,"share_median":0.229,"m2_p25":62,"share_p25":0.292},"geometry":{"type":"Polygon","coordinates":[[[7.6714,50.9027],[7.6429,50.9066],[7.639,50.9177],[7.6237,50.9285],[7.6176,50.9288],[7.6064,50.9128],[7.6151,50.9002],[7.5887,50.8924],[7.5831,50.8801],[7.5644,50.8719],[7.5554,50.8589],[7.5363,50.8591],[7.5254,50.8574],[7.5126,50.854],[7.5292,50.8421],[7.5303,50.8362],[7.5289,50.8314],[7.5484,50.8307],[7.5735,50.8425],[7.5955,50.8287],[7.61,50.8314],[7.6204,50.8203],[7.6394,50.8339],[7.6487,50.8351],[7.6475,50.8429],[7.6637,50.8562],[7.6595,50.8605],[7.6684,50.878],[7.6792,50.8911],[7.6801,50.9023],[7.6714,50.9027]]]}},{"type":"Feature","properties":{"ags":"05374048","name":"Wiehl","ewz":25356,"dist_km":40,"city":false,"warm_m2":11.93,"own_value":true,"m2_median":73,"share_median":0.246,"m2_p25":57,"share_p25":0.313},"geometry":{"type":"Polygon","coordinates":[[[7.5946,50.9943],[7.5829,50.994],[7.551,50.9846],[7.5537,50.9778],[7.529,50.9777],[7.5197,50.9747],[7.4934,50.981],[7.4932,50.9822],[7.4681,50.9719],[7.4649,50.9641],[7.4408,50.9559],[7.4341,50.9523],[7.4281,50.9478],[7.4617,50.9355],[7.4614,50.9315],[7.4668,50.9323],[7.4718,50.9385],[7.4898,50.941],[7.5122,50.9306],[7.5266,50.9351],[7.5426,50.9339],[7.5678,50.94],[7.5866,50.9391],[7.6049,50.9336],[7.6153,50.9339],[7.605,50.9462],[7.6035,50.9574],[7.5892,50.9809],[7.597,50.9918],[7.5946,50.9943]]]}},{"type":"Feature","properties":{"ags":"05374052","name":"Wipperfürth","ewz":21059,"dist_km":37.7,"city":false,"warm_m2":11.8,"own_value":true,"m2_median":74,"share_median":0.243,"m2_p25":58,"share_p25":0.31},"geometry":{"type":"Polygon","coordinates":[[[7.411,51.1781],[7.4079,51.182],[7.4049,51.1872],[7.39,51.1771],[7.3895,51.1723],[7.383,51.1697],[7.3812,51.1701],[7.3837,51.1681],[7.3867,51.1558],[7.3948,51.1482],[7.3778,51.1413],[7.3674,51.1256],[7.3471,51.1316],[7.3262,51.1255],[7.3353,51.1202],[7.3283,51.1054],[7.2984,51.1046],[7.2822,51.0873],[7.2746,51.0827],[7.2804,51.0791],[7.2938,51.0794],[7.2999,51.0691],[7.3096,51.0701],[7.3168,51.0795],[7.3294,51.0724],[7.3313,51.0616],[7.3238,51.0524],[7.3325,51.0523],[7.3299,51.0485],[7.3322,51.0485],[7.3599,51.0539],[7.3784,51.0695],[7.3985,51.079],[7.4012,51.0767],[7.412,51.0728],[7.4174,51.069],[7.4184,51.067],[7.4243,51.0644],[7.4356,51.0706],[7.4348,51.0742],[7.4405,51.0756],[7.4547,51.0705],[7.4684,51.0737],[7.4812,51.0825],[7.4801,51.0937],[7.4945,51.105],[7.4962,51.1061],[7.5043,51.1167],[7.5024,51.1304],[7.4927,51.125],[7.4804,51.1413],[7.4721,51.1396],[7.4752,51.143],[7.4698,51.1551],[7.4556,51.1599],[7.4405,51.1714],[7.4368,51.1801],[7.4272,51.1822],[7.4253,51.1838],[7.424,51.186],[7.411,51.1781]]]}},{"type":"Feature","properties":{"ags":"05378004","name":"Bergisch Gladbach","ewz":112660,"dist_km":15.4,"city":false,"warm_m2":14.7,"own_value":true,"m2_median":58,"share_median":0.308,"m2_p25":46,"share_p25":0.393},"geometry":{"type":"Polygon","coordinates":[[[7.0855,51.0268],[7.0761,51.0225],[7.0733,51.0224],[7.0679,51.0187],[7.0619,51.0134],[7.0765,51.0018],[7.0676,50.99],[7.0956,50.9852],[7.1013,50.9679],[7.0874,50.9593],[7.103,50.9499],[7.1113,50.9427],[7.1444,50.9422],[7.1367,50.9278],[7.1399,50.9228],[7.1395,50.9197],[7.1675,50.9346],[7.1757,50.9319],[7.1936,50.9433],[7.2365,50.9635],[7.2474,50.9754],[7.2402,50.9835],[7.2502,50.9879],[7.2328,50.9918],[7.2156,51.002],[7.2005,51.0046],[7.1989,51.0184],[7.1911,51.0126],[7.1446,51.0166],[7.1201,51.0105],[7.1055,51.0108],[7.0998,51.0124],[7.1045,51.017],[7.0983,51.0242],[7.092,51.0261],[7.0887,51.0256],[7.0855,51.0268]]]}},{"type":"Feature","properties":{"ags":"05378008","name":"Burscheid","ewz":19005,"dist_km":20.2,"city":false,"warm_m2":12.44,"own_value":true,"m2_median":69,"share_median":0.26,"m2_p25":54,"share_p25":0.332},"geometry":{"type":"Polygon","coordinates":[[[7.1667,51.0909],[7.1582,51.1003],[7.1647,51.1149],[7.159,51.1187],[7.1396,51.1072],[7.1184,51.1068],[7.0743,51.097],[7.0713,51.0884],[7.0576,51.0775],[7.0689,51.0678],[7.1156,51.0628],[7.1227,51.066],[7.1387,51.0662],[7.1461,51.0741],[7.1475,51.0792],[7.1502,51.0815],[7.1527,51.0839],[7.1538,51.0857],[7.1667,51.0909]]]}},{"type":"Feature","properties":{"ags":"05378012","name":"Kürten","ewz":20158,"dist_km":23.3,"city":false,"warm_m2":12.47,"own_value":true,"m2_median":69,"share_median":0.26,"m2_p25":54,"share_p25":0.332},"geometry":{"type":"Polygon","coordinates":[[[7.2804,51.0791],[7.2746,51.0827],[7.2611,51.0806],[7.2368,51.0744],[7.2118,51.0719],[7.2008,51.0662],[7.195,51.0657],[7.1954,51.0587],[7.2096,51.0514],[7.1918,51.0458],[7.1862,51.0306],[7.1989,51.0184],[7.2005,51.0046],[7.2156,51.002],[7.2328,50.9918],[7.2463,50.9916],[7.2526,50.9866],[7.2637,50.9934],[7.2741,50.9976],[7.2827,51.0063],[7.2825,51.0222],[7.2914,51.0322],[7.3043,51.0265],[7.3131,51.0278],[7.3239,51.0471],[7.3299,51.0485],[7.3325,51.0523],[7.3238,51.0524],[7.3313,51.0616],[7.3294,51.0724],[7.3168,51.0795],[7.3096,51.0701],[7.2999,51.0691],[7.2938,51.0794],[7.2804,51.0791]]]}},{"type":"Feature","properties":{"ags":"05378016","name":"Leichlingen (Rhld.)","ewz":28202,"dist_km":19.9,"city":false,"warm_m2":13.34,"own_value":true,"m2_median":65,"share_median":0.279,"m2_p25":50,"share_p25":0.356},"geometry":{"type":"Polygon","coordinates":[[[7.0967,51.134],[7.0869,51.1356],[7.0761,51.1362],[7.0774,51.1281],[7.0585,51.1242],[7.0451,51.1315],[7.0231,51.1296],[7.0124,51.1238],[7.0039,51.1229],[6.9983,51.1199],[6.9977,51.118],[6.9997,51.1149],[6.9926,51.1087],[6.9906,51.0916],[7.0029,51.0853],[7.0073,51.0843],[7.0096,51.0819],[7.0122,51.0819],[7.0308,51.0898],[7.0385,51.0949],[7.0423,51.0957],[7.0441,51.0971],[7.0743,51.097],[7.1184,51.1068],[7.1396,51.1072],[7.159,51.1187],[7.1563,51.1217],[7.1443,51.1191],[7.1368,51.1184],[7.1358,51.1167],[7.1308,51.1182],[7.1194,51.1227],[7.1171,51.1328],[7.1045,51.1366],[7.0967,51.134]]]}},{"type":"Feature","properties":{"ags":"05378020","name":"Odenthal","ewz":15385,"dist_km":16.8,"city":false,"warm_m2":13.32,"own_value":true,"m2_median":65,"share_median":0.279,"m2_p25":51,"share_p25":0.356},"geometry":{"type":"Polygon","coordinates":[[[7.1679,51.0708],[7.1621,51.0745],[7.1387,51.0662],[7.1227,51.066],[7.1129,51.0608],[7.1053,51.0544],[7.0931,51.0339],[7.0941,51.0268],[7.092,51.0261],[7.0983,51.0242],[7.1045,51.017],[7.0998,51.0124],[7.1055,51.0108],[7.1201,51.0105],[7.1446,51.0166],[7.1911,51.0126],[7.1989,51.0184],[7.1862,51.0306],[7.1918,51.0458],[7.2096,51.0514],[7.1954,51.0587],[7.195,51.0657],[7.1868,51.0684],[7.1679,51.0708]]]}},{"type":"Feature","properties":{"ags":"05378024","name":"Overath","ewz":27489,"dist_km":23.9,"city":false,"warm_m2":13.04,"own_value":true,"m2_median":66,"share_median":0.272,"m2_p25":52,"share_p25":0.347},"geometry":{"type":"Polygon","coordinates":[[[7.2529,50.9852],[7.2502,50.9879],[7.2402,50.9835],[7.2474,50.9754],[7.2365,50.9635],[7.1936,50.9433],[7.2181,50.9288],[7.2353,50.9326],[7.249,50.9282],[7.2581,50.9229],[7.2595,50.9192],[7.2751,50.911],[7.3017,50.9069],[7.3072,50.9094],[7.3242,50.917],[7.3458,50.9122],[7.3592,50.9227],[7.3633,50.9347],[7.3858,50.9343],[7.3985,50.9498],[7.3941,50.9535],[7.3872,50.9589],[7.3553,50.951],[7.3259,50.9778],[7.3188,50.9766],[7.3004,50.9785],[7.2841,50.9712],[7.2529,50.9852]]]}},{"type":"Feature","properties":{"ags":"05378028","name":"Rösrath","ewz":29206,"dist_km":16.5,"city":false,"warm_m2":13.95,"own_value":true,"m2_median":62,"share_median":0.292,"m2_p25":48,"share_p25":0.373},"geometry":{"type":"Polygon","coordinates":[[[7.1936,50.9433],[7.1757,50.9319],[7.1675,50.9346],[7.1395,50.9197],[7.1373,50.9088],[7.1403,50.8874],[7.1527,50.8746],[7.1613,50.8673],[7.1649,50.8687],[7.1895,50.8741],[7.1984,50.8753],[7.2035,50.8852],[7.2283,50.9003],[7.236,50.9139],[7.2466,50.9258],[7.249,50.9282],[7.2353,50.9326],[7.2181,50.9288],[7.1936,50.9433]]]}},{"type":"Feature","properties":{"ags":"05378032","name":"Wermelskirchen","ewz":34673,"dist_km":26.4,"city":false,"warm_m2":12.01,"own_value":true,"m2_median":72,"share_median":0.25,"m2_p25":56,"share_p25":0.319},"geometry":{"type":"Polygon","coordinates":[[[7.2368,51.1582],[7.2198,51.1608],[7.1983,51.1516],[7.1848,51.1559],[7.1713,51.1527],[7.1664,51.1539],[7.1698,51.1391],[7.1594,51.1335],[7.1693,51.1268],[7.174,51.1285],[7.1717,51.1255],[7.1563,51.1217],[7.1647,51.1149],[7.1582,51.1003],[7.1667,51.0909],[7.1538,51.0857],[7.1527,51.0839],[7.1502,51.0815],[7.1475,51.0792],[7.1461,51.0741],[7.1387,51.0662],[7.1621,51.0745],[7.1679,51.0708],[7.1868,51.0684],[7.2008,51.0662],[7.2118,51.0719],[7.2368,51.0744],[7.2611,51.0806],[7.2822,51.0873],[7.2984,51.1046],[7.2799,51.1092],[7.2736,51.1148],[7.2746,51.128],[7.2698,51.1384],[7.2618,51.1469],[7.2531,51.1579],[7.2368,51.1582]]]}},{"type":"Feature","properties":{"ags":"05382004","name":"Alfter","ewz":23949,"dist_km":26.4,"city":false,"warm_m2":14.86,"own_value":true,"m2_median":58,"share_median":0.309,"m2_p25":46,"share_p25":0.395},"geometry":{"type":"Polygon","coordinates":[[[7.0351,50.7562],[7.0167,50.7497],[6.9989,50.743],[6.9966,50.7451],[6.9861,50.7392],[6.9788,50.7288],[6.9622,50.7188],[6.9582,50.7144],[6.9683,50.6961],[6.9778,50.6975],[6.9923,50.687],[6.9967,50.6733],[7.0189,50.6665],[7.0249,50.6651],[7.0346,50.6621],[7.0443,50.6743],[7.0313,50.6778],[7.0356,50.6866],[7.0274,50.7026],[7.0289,50.7131],[7.0403,50.7192],[7.0298,50.7261],[7.0404,50.7532],[7.0351,50.7562]]]}},{"type":"Feature","properties":{"ags":"05382008","name":"Bad Honnef","ewz":26025,"dist_km":38.9,"city":false,"warm_m2":15.62,"own_value":true,"m2_median":56,"share_median":0.322,"m2_p25":44,"share_p25":0.411},"geometry":{"type":"Polygon","coordinates":[[[7.3039,50.6866],[7.298,50.6869],[7.2889,50.6745],[7.2698,50.6768],[7.2479,50.6708],[7.2244,50.6722],[7.2202,50.667],[7.2099,50.6658],[7.1996,50.6618],[7.2091,50.6523],[7.2115,50.6482],[7.2129,50.6235],[7.2163,50.6244],[7.2157,50.6279],[7.2274,50.6269],[7.2621,50.6256],[7.2663,50.6264],[7.2973,50.6318],[7.3147,50.6374],[7.3146,50.6386],[7.3226,50.6419],[7.338,50.6422],[7.359,50.6495],[7.3558,50.6652],[7.3629,50.6712],[7.3252,50.6709],[7.3209,50.6777],[7.3039,50.6866]]]}},{"type":"Feature","properties":{"ags":"05382012","name":"Bornheim","ewz":49074,"dist_km":20.4,"city":false,"warm_m2":14.97,"own_value":true,"m2_median":58,"share_median":0.313,"m2_p25":45,"share_p25":0.4},"geometry":{"type":"Polygon","coordinates":[[[6.958,50.8043],[6.9543,50.8029],[6.9493,50.8031],[6.9338,50.8053],[6.9133,50.7991],[6.8839,50.796],[6.8639,50.7848],[6.8668,50.7718],[6.8598,50.7645],[6.8726,50.7533],[6.8807,50.7464],[6.8927,50.7477],[6.9022,50.7503],[6.9134,50.7353],[6.9183,50.7332],[6.9374,50.7274],[6.9622,50.7188],[6.9788,50.7288],[6.9861,50.7392],[6.9966,50.7451],[6.9989,50.743],[7.0167,50.7497],[7.0351,50.7562],[7.037,50.7552],[7.0415,50.7596],[7.0513,50.7649],[7.066,50.7711],[7.0488,50.7781],[7.0302,50.7938],[7.0302,50.8007],[7.0228,50.8006],[7.0104,50.7968],[7.0064,50.7978],[6.9898,50.7923],[6.9828,50.8008],[6.9662,50.7995],[6.958,50.8043]]]}},{"type":"Feature","properties":{"ags":"05382016","name":"Eitorf","ewz":19269,"dist_km":39.4,"city":false,"warm_m2":12.18,"own_value":true,"m2_median":72,"share_median":0.251,"m2_p25":56,"share_p25":0.32},"geometry":{"type":"Polygon","coordinates":[[[7.4678,50.8173],[7.4635,50.8182],[7.4407,50.8132],[7.4133,50.8038],[7.392,50.7991],[7.3925,50.7924],[7.38,50.7854],[7.3818,50.7778],[7.3838,50.7752],[7.3877,50.7676],[7.3889,50.7632],[7.4117,50.7616],[7.4251,50.7335],[7.425,50.7232],[7.4392,50.7111],[7.4565,50.7181],[7.4643,50.7186],[7.4683,50.7185],[7.4798,50.7183],[7.5079,50.7304],[7.5201,50.729],[7.5346,50.7403],[7.5238,50.7439],[7.5048,50.7575],[7.4974,50.774],[7.4837,50.7857],[7.4869,50.793],[7.4728,50.8044],[7.4737,50.8176],[7.4678,50.8173]]]}},{"type":"Feature","properties":{"ags":"05382020","name":"Hennef (Sieg)","ewz":48190,"dist_km":33,"city":false,"warm_m2":14.07,"own_value":true,"m2_median":62,"share_median":0.291,"m2_p25":48,"share_p25":0.372},"geometry":{"type":"Polygon","coordinates":[[[7.306,50.8131],[7.3007,50.8115],[7.2975,50.8128],[7.2898,50.8065],[7.2796,50.8017],[7.2807,50.792],[7.278,50.7901],[7.2666,50.7967],[7.263,50.7974],[7.256,50.7965],[7.2466,50.7913],[7.2425,50.7906],[7.2421,50.7611],[7.2292,50.7508],[7.2396,50.747],[7.2427,50.7413],[7.2593,50.735],[7.2824,50.7337],[7.3196,50.7123],[7.3328,50.7006],[7.3538,50.6985],[7.3571,50.6979],[7.3624,50.7011],[7.3672,50.7067],[7.374,50.7182],[7.3875,50.7175],[7.4114,50.7169],[7.4234,50.71],[7.4392,50.7111],[7.425,50.7232],[7.4251,50.7335],[7.4117,50.7616],[7.3889,50.7632],[7.3877,50.7676],[7.3838,50.7752],[7.3768,50.7809],[7.3666,50.782],[7.3704,50.7904],[7.3635,50.8034],[7.3418,50.8026],[7.3364,50.8093],[7.306,50.8131]]]}},{"type":"Feature","properties":{"ags":"05382024","name":"Königswinter","ewz":41642,"dist_km":33.2,"city":false,"warm_m2":14.92,"own_value":true,"m2_median":58,"share_median":0.309,"m2_p25":46,"share_p25":0.394},"geometry":{"type":"Polygon","coordinates":[[[7.2427,50.7413],[7.2412,50.7451],[7.2378,50.7478],[7.2393,50.7447],[7.234,50.7455],[7.2301,50.7436],[7.2206,50.7444],[7.2134,50.743],[7.207,50.7395],[7.2091,50.7369],[7.1913,50.7266],[7.1966,50.7131],[7.1682,50.7035],[7.1766,50.6871],[7.1996,50.6618],[7.2099,50.6658],[7.2202,50.667],[7.2244,50.6722],[7.2479,50.6708],[7.2698,50.6768],[7.2889,50.6745],[7.298,50.6869],[7.3039,50.6866],[7.3209,50.6777],[7.3252,50.6709],[7.3629,50.6712],[7.3654,50.673],[7.3693,50.6725],[7.37,50.678],[7.3651,50.6876],[7.3683,50.6971],[7.3602,50.6971],[7.3538,50.6985],[7.3328,50.7006],[7.3196,50.7123],[7.2824,50.7337],[7.2593,50.735],[7.2427,50.7413]]]}},{"type":"Feature","properties":{"ags":"05382028","name":"Lohmar","ewz":30894,"dist_km":21.4,"city":false,"warm_m2":13.88,"own_value":true,"m2_median":62,"share_median":0.29,"m2_p25":49,"share_p25":0.37},"geometry":{"type":"Polygon","coordinates":[[[7.2595,50.9192],[7.2581,50.9229],[7.249,50.9282],[7.2466,50.9258],[7.236,50.9139],[7.2283,50.9003],[7.2035,50.8852],[7.1984,50.8753],[7.191,50.8733],[7.2096,50.8595],[7.213,50.8554],[7.2134,50.8522],[7.2104,50.849],[7.2028,50.8457],[7.191,50.8273],[7.2022,50.8188],[7.2236,50.8133],[7.2402,50.813],[7.2488,50.8131],[7.2681,50.8229],[7.2856,50.8294],[7.291,50.8419],[7.2994,50.8553],[7.2898,50.8624],[7.2756,50.8634],[7.2813,50.875],[7.3049,50.8799],[7.3005,50.9062],[7.3017,50.9069],[7.2751,50.911],[7.2595,50.9192]]]}},{"type":"Feature","properties":{"ags":"05382032","name":"Meckenheim","ewz":25031,"dist_km":36.9,"city":false,"warm_m2":14.14,"own_value":true,"m2_median":62,"share_median":0.292,"m2_p25":48,"share_p25":0.372},"geometry":{"type":"Polygon","coordinates":[[[7.0561,50.6319],[7.0507,50.6396],[7.0269,50.655],[7.0249,50.6651],[7.0189,50.6665],[6.9928,50.6495],[7.0027,50.6383],[6.9872,50.6301],[6.9992,50.6189],[7.0078,50.6115],[7.0059,50.607],[6.9977,50.5995],[6.9563,50.577],[6.9836,50.5657],[6.9981,50.565],[7.0159,50.577],[7.0353,50.5944],[7.0468,50.6019],[7.0379,50.6054],[7.0425,50.6167],[7.0642,50.6244],[7.064,50.6323],[7.0561,50.6319]]]}},{"type":"Feature","properties":{"ags":"05382036","name":"Much","ewz":14953,"dist_km":31.9,"city":false,"warm_m2":12.6,"own_value":true,"m2_median":69,"share_median":0.261,"m2_p25":54,"share_p25":0.333},"geometry":{"type":"Polygon","coordinates":[[[7.4116,50.9486],[7.3985,50.9498],[7.3858,50.9343],[7.3633,50.9347],[7.3592,50.9227],[7.3458,50.9122],[7.3242,50.917],[7.3072,50.9094],[7.3034,50.9073],[7.3313,50.9044],[7.3437,50.8963],[7.3424,50.8841],[7.3522,50.8754],[7.3616,50.8755],[7.3785,50.8608],[7.4028,50.8544],[7.4074,50.8463],[7.4064,50.8453],[7.4339,50.8491],[7.4428,50.8543],[7.4386,50.8671],[7.453,50.874],[7.4605,50.8773],[7.4649,50.8834],[7.468,50.898],[7.4774,50.9065],[7.477,50.9155],[7.4708,50.9247],[7.462,50.9297],[7.4603,50.9329],[7.4617,50.9355],[7.4281,50.9478],[7.4116,50.9486]]]}},{"type":"Feature","properties":{"ags":"05382040","name":"Neunkirchen-Seelscheid","ewz":20305,"dist_km":28.5,"city":false,"warm_m2":13.53,"own_value":true,"m2_median":64,"share_median":0.281,"m2_p25":50,"share_p25":0.359},"geometry":{"type":"Polygon","coordinates":[[[7.3034,50.9073],[7.3005,50.9062],[7.3049,50.8799],[7.2813,50.875],[7.2756,50.8634],[7.2898,50.8624],[7.2994,50.8553],[7.291,50.8419],[7.2856,50.8294],[7.2831,50.8281],[7.3041,50.8229],[7.3094,50.8192],[7.3042,50.8168],[7.3032,50.8149],[7.2982,50.8141],[7.2975,50.8128],[7.2988,50.8119],[7.3015,50.8117],[7.306,50.8131],[7.3364,50.8093],[7.338,50.8081],[7.3562,50.8163],[7.3753,50.8415],[7.3911,50.8477],[7.4064,50.8453],[7.4074,50.8463],[7.4028,50.8544],[7.3785,50.8608],[7.3616,50.8755],[7.3522,50.8754],[7.3424,50.8841],[7.3437,50.8963],[7.3313,50.9044],[7.3034,50.9073]]]}},{"type":"Feature","properties":{"ags":"05382044","name":"Niederkassel","ewz":39424,"dist_km":16.7,"city":false,"warm_m2":14.93,"own_value":true,"m2_median":58,"share_median":0.313,"m2_p25":45,"share_p25":0.399},"geometry":{"type":"Polygon","coordinates":[[[7.0906,50.8333],[7.0624,50.8296],[7.0613,50.8442],[7.051,50.8502],[7.0271,50.847],[7.0233,50.8393],[6.9952,50.8363],[6.9841,50.8441],[6.9797,50.834],[6.9823,50.8306],[6.9947,50.8252],[7.0128,50.8235],[7.025,50.8183],[7.0297,50.81],[7.0302,50.7938],[7.0488,50.7781],[7.0756,50.7675],[7.0819,50.7729],[7.0891,50.79],[7.0851,50.799],[7.0944,50.8047],[7.085,50.8172],[7.1007,50.82],[7.0906,50.8333]]]}},{"type":"Feature","properties":{"ags":"05382048","name":"Rheinbach","ewz":27238,"dist_km":36.7,"city":false,"warm_m2":14.72,"own_value":true,"m2_median":59,"share_median":0.304,"m2_p25":46,"share_p25":0.388},"geometry":{"type":"Polygon","coordinates":[[[7.0189,50.6665],[6.9967,50.6733],[6.9857,50.6699],[6.9824,50.6683],[6.9884,50.6626],[6.9774,50.6545],[6.9647,50.6601],[6.9356,50.6559],[6.9112,50.6617],[6.8988,50.6504],[6.9058,50.6442],[6.8985,50.6357],[6.9154,50.6293],[6.9095,50.6145],[6.8984,50.6041],[6.8852,50.5984],[6.8913,50.5874],[6.8909,50.5745],[6.9347,50.571],[6.9264,50.5695],[6.9218,50.5661],[6.9279,50.5586],[6.931,50.5605],[6.9514,50.5634],[6.9565,50.557],[6.9721,50.5559],[6.9836,50.5657],[6.9563,50.577],[6.9977,50.5995],[7.0066,50.6079],[7.0081,50.6112],[6.9992,50.6189],[6.9872,50.6301],[7.0027,50.6383],[6.9928,50.6495],[7.0189,50.6665]]]}},{"type":"Feature","properties":{"ags":"05382052","name":"Ruppichteroth","ewz":10619,"dist_km":36.3,"city":false,"warm_m2":12.23,"own_value":true,"m2_median":71,"share_median":0.253,"m2_p25":56,"share_p25":0.322},"geometry":{"type":"Polygon","coordinates":[[[7.4622,50.8787],[7.4605,50.8773],[7.453,50.874],[7.4386,50.8671],[7.4429,50.8546],[7.4377,50.8522],[7.4339,50.8491],[7.4064,50.8453],[7.3911,50.8477],[7.3753,50.8415],[7.3562,50.8163],[7.338,50.8081],[7.3418,50.8026],[7.3635,50.8034],[7.3704,50.7904],[7.3666,50.782],[7.3768,50.7809],[7.3818,50.7778],[7.38,50.7854],[7.3925,50.7924],[7.392,50.7991],[7.4133,50.8038],[7.4407,50.8132],[7.4635,50.8182],[7.4678,50.8173],[7.4737,50.8176],[7.5105,50.83],[7.5289,50.8334],[7.5303,50.8362],[7.5292,50.8421],[7.5126,50.854],[7.5066,50.8513],[7.5044,50.8525],[7.5062,50.8598],[7.4909,50.8742],[7.4622,50.8787]]]}},{"type":"Feature","properties":{"ags":"05382056","name":"Sankt Augustin","ewz":56692,"dist_km":25.6,"city":false,"warm_m2":14.74,"own_value":true,"m2_median":59,"share_median":0.307,"m2_p25":46,"share_p25":0.392},"geometry":{"type":"Polygon","coordinates":[[[7.1804,50.796],[7.1786,50.8],[7.175,50.8005],[7.1515,50.7968],[7.1444,50.7934],[7.1303,50.7828],[7.1253,50.7744],[7.1397,50.7691],[7.1452,50.7624],[7.172,50.7524],[7.2036,50.7446],[7.207,50.7395],[7.2134,50.743],[7.2206,50.7444],[7.2301,50.7436],[7.234,50.7455],[7.2393,50.7447],[7.2378,50.7478],[7.2292,50.7508],[7.2421,50.7611],[7.2425,50.7906],[7.2358,50.7927],[7.2203,50.7797],[7.2004,50.7896],[7.1804,50.796]]]}},{"type":"Feature","properties":{"ags":"05382060","name":"Siegburg","ewz":42025,"dist_km":24.7,"city":false,"warm_m2":15.11,"own_value":true,"m2_median":57,"share_median":0.315,"m2_p25":45,"share_p25":0.402},"geometry":{"type":"Polygon","coordinates":[[[7.3041,50.8229],[7.2831,50.8281],[7.2681,50.8229],[7.2488,50.8131],[7.2402,50.813],[7.2213,50.8136],[7.2022,50.8188],[7.1948,50.8236],[7.1932,50.8224],[7.1916,50.8145],[7.175,50.8005],[7.1786,50.8],[7.1804,50.796],[7.2004,50.7896],[7.2203,50.7797],[7.2358,50.7927],[7.2448,50.7907],[7.2577,50.797],[7.2656,50.7971],[7.278,50.7901],[7.2807,50.792],[7.2796,50.8017],[7.2898,50.8065],[7.2967,50.8113],[7.2986,50.8144],[7.3042,50.8168],[7.3094,50.8192],[7.3041,50.8229]]]}},{"type":"Feature","properties":{"ags":"05382064","name":"Swisttal","ewz":18780,"dist_km":28.4,"city":false,"warm_m2":13.19,"own_value":true,"m2_median":66,"share_median":0.274,"m2_p25":51,"share_p25":0.35},"geometry":{"type":"Polygon","coordinates":[[[6.9374,50.7274],[6.9183,50.7332],[6.9158,50.7341],[6.8949,50.722],[6.8926,50.7142],[6.8672,50.7079],[6.8634,50.7058],[6.8584,50.6952],[6.8709,50.6893],[6.8755,50.6746],[6.857,50.6541],[6.8723,50.6474],[6.8731,50.6386],[6.8845,50.6359],[6.8985,50.6357],[6.9058,50.6442],[6.8988,50.6504],[6.9112,50.6617],[6.9356,50.6559],[6.9647,50.6601],[6.9774,50.6545],[6.9884,50.6626],[6.9824,50.6683],[6.9857,50.6699],[6.9967,50.6733],[6.9923,50.687],[6.9778,50.6975],[6.9683,50.6961],[6.9582,50.7144],[6.961,50.719],[6.9374,50.7274]]]}},{"type":"Feature","properties":{"ags":"05382068","name":"Troisdorf","ewz":76503,"dist_km":19,"city":false,"warm_m2":13.96,"own_value":true,"m2_median":62,"share_median":0.292,"m2_p25":48,"share_p25":0.373},"geometry":{"type":"Polygon","coordinates":[[[7.1895,50.8741],[7.1649,50.8687],[7.1376,50.858],[7.1142,50.846],[7.0906,50.8333],[7.1007,50.82],[7.085,50.8172],[7.0944,50.8047],[7.0851,50.799],[7.0891,50.79],[7.0819,50.7729],[7.0831,50.7674],[7.096,50.7619],[7.1011,50.7617],[7.1068,50.7635],[7.1086,50.7684],[7.1108,50.7702],[7.1239,50.7736],[7.1267,50.7758],[7.1303,50.7828],[7.1444,50.7934],[7.1515,50.7968],[7.175,50.8005],[7.1916,50.8145],[7.1932,50.8224],[7.1948,50.8236],[7.191,50.8273],[7.2028,50.8457],[7.211,50.8494],[7.2134,50.8535],[7.2096,50.8595],[7.191,50.8733],[7.1895,50.8741]]]}},{"type":"Feature","properties":{"ags":"05382072","name":"Wachtberg","ewz":20670,"dist_km":37.4,"city":false,"warm_m2":14.07,"own_value":true,"m2_median":62,"share_median":0.29,"m2_p25":49,"share_p25":0.37},"geometry":{"type":"Polygon","coordinates":[[[7.1771,50.6527],[7.1564,50.6547],[7.128,50.6473],[7.1206,50.6567],[7.1053,50.6597],[7.0767,50.6428],[7.0689,50.6331],[7.064,50.6323],[7.0642,50.6244],[7.0425,50.6167],[7.0379,50.6054],[7.0468,50.6019],[7.0492,50.6043],[7.0663,50.6007],[7.0849,50.5864],[7.0934,50.586],[7.1047,50.5924],[7.1053,50.5967],[7.1118,50.6093],[7.1398,50.6006],[7.1479,50.6003],[7.1547,50.6147],[7.1898,50.6239],[7.1937,50.6377],[7.1941,50.6427],[7.1889,50.6485],[7.1771,50.6527]]]}},{"type":"Feature","properties":{"ags":"05382076","name":"Windeck","ewz":19254,"dist_km":47,"city":false,"warm_m2":11.04,"own_value":true,"m2_median":80,"share_median":0.226,"m2_p25":62,"share_p25":0.288},"geometry":{"type":"Polygon","coordinates":[[[7.6394,50.8339],[7.6204,50.8203],[7.61,50.8314],[7.5955,50.8287],[7.5735,50.8425],[7.5484,50.8307],[7.5289,50.8314],[7.5289,50.8334],[7.5105,50.83],[7.4737,50.8176],[7.4728,50.8044],[7.4869,50.793],[7.4837,50.7857],[7.4974,50.774],[7.5048,50.7575],[7.5238,50.7439],[7.5346,50.7403],[7.5519,50.7463],[7.5584,50.743],[7.5662,50.7417],[7.5833,50.7379],[7.5924,50.7405],[7.5938,50.7418],[7.5932,50.7478],[7.5953,50.751],[7.5931,50.7584],[7.6049,50.7657],[7.6182,50.7702],[7.6548,50.7698],[7.6587,50.7701],[7.6622,50.7732],[7.6685,50.7862],[7.6798,50.7923],[7.6822,50.7954],[7.675,50.8027],[7.6795,50.81],[7.6641,50.8154],[7.6601,50.8237],[7.6452,50.8321],[7.6394,50.8339]]]}},{"type":"Feature","properties":{"ags":"05954004","name":"Breckerfeld","ewz":9120,"dist_km":50.7,"city":false,"warm_m2":10.63,"own_value":true,"m2_median":83,"share_median":0.217,"m2_p25":65,"share_p25":0.277},"geometry":{"type":"Polygon","coordinates":[[[7.4789,51.3172],[7.4623,51.3186],[7.441,51.3153],[7.4276,51.2999],[7.4378,51.2996],[7.435,51.2911],[7.4312,51.288],[7.4049,51.2758],[7.4186,51.2618],[7.4239,51.2607],[7.4174,51.2568],[7.4122,51.2499],[7.3971,51.2494],[7.3876,51.2562],[7.3701,51.2498],[7.3642,51.2455],[7.3661,51.2441],[7.3705,51.2455],[7.3752,51.2447],[7.379,51.2419],[7.3877,51.2424],[7.3981,51.2342],[7.3953,51.2299],[7.4006,51.2235],[7.4176,51.2286],[7.4312,51.2189],[7.4297,51.2159],[7.4351,51.2132],[7.4377,51.2151],[7.4408,51.2188],[7.4406,51.2249],[7.4528,51.2302],[7.4818,51.2332],[7.4947,51.2404],[7.5013,51.2425],[7.4969,51.2488],[7.5125,51.2638],[7.5173,51.2649],[7.5185,51.2738],[7.4898,51.2756],[7.479,51.2861],[7.4956,51.293],[7.5058,51.3023],[7.5039,51.3159],[7.4851,51.3157],[7.4789,51.3172]]]}},{"type":"Feature","properties":{"ags":"05954008","name":"Ennepetal","ewz":30502,"dist_km":47.3,"city":false,"warm_m2":10.06,"own_value":true,"m2_median":87,"share_median":0.206,"m2_p25":69,"share_p25":0.263},"geometry":{"type":"Polygon","coordinates":[[[7.3986,51.3317],[7.3934,51.3232],[7.3543,51.3181],[7.3409,51.3036],[7.3195,51.3081],[7.309,51.3076],[7.307,51.3006],[7.316,51.2925],[7.3191,51.2725],[7.3037,51.2649],[7.2994,51.2527],[7.3047,51.2524],[7.3026,51.249],[7.297,51.247],[7.3067,51.2389],[7.3327,51.2503],[7.3476,51.2409],[7.3621,51.2437],[7.3701,51.2498],[7.3876,51.2562],[7.3971,51.2494],[7.4122,51.2499],[7.4174,51.2568],[7.4239,51.2607],[7.4186,51.2618],[7.4049,51.2758],[7.4312,51.288],[7.4324,51.2898],[7.4078,51.2976],[7.4055,51.3081],[7.424,51.3198],[7.4153,51.3284],[7.3986,51.3317]]]}},{"type":"Feature","properties":{"ags":"05954016","name":"Hattingen","ewz":54620,"dist_km":49.9,"city":false,"warm_m2":10.89,"own_value":true,"m2_median":81,"share_median":0.223,"m2_p25":63,"share_p25":0.284},"geometry":{"type":"Polygon","coordinates":[[[7.1547,51.4143],[7.1447,51.4232],[7.13,51.4131],[7.111,51.4059],[7.1184,51.3942],[7.1166,51.3857],[7.1223,51.3782],[7.1377,51.3778],[7.1404,51.3751],[7.149,51.3749],[7.1594,51.3651],[7.1473,51.3515],[7.1455,51.3421],[7.1696,51.3174],[7.1754,51.3098],[7.2046,51.3203],[7.2065,51.3309],[7.2272,51.3413],[7.2297,51.3453],[7.2326,51.3533],[7.2322,51.3599],[7.219,51.3701],[7.2556,51.3832],[7.2468,51.401],[7.2526,51.4133],[7.236,51.412],[7.2209,51.4123],[7.2075,51.4179],[7.2001,51.4191],[7.192,51.4181],[7.1808,51.42],[7.1736,51.415],[7.1547,51.4143]]]}},{"type":"Feature","properties":{"ags":"05954024","name":"Schwelm","ewz":28711,"dist_km":44.5,"city":false,"warm_m2":10.45,"own_value":true,"m2_median":84,"share_median":0.214,"m2_p25":66,"share_p25":0.273},"geometry":{"type":"Polygon","coordinates":[[[7.2989,51.3136],[7.2941,51.3172],[7.2686,51.3037],[7.2624,51.3043],[7.2539,51.2882],[7.2752,51.2775],[7.2673,51.2614],[7.2857,51.2496],[7.2994,51.2527],[7.3037,51.2649],[7.3191,51.2725],[7.316,51.2925],[7.307,51.3006],[7.309,51.3076],[7.3061,51.3076],[7.2981,51.3121],[7.2989,51.3136]]]}},{"type":"Feature","properties":{"ags":"05954028","name":"Sprockhövel","ewz":24956,"dist_km":49,"city":false,"warm_m2":11.09,"own_value":true,"m2_median":79,"share_median":0.227,"m2_p25":62,"share_p25":0.289},"geometry":{"type":"Polygon","coordinates":[[[7.2675,51.3749],[7.266,51.3812],[7.2556,51.3832],[7.219,51.3701],[7.2322,51.3599],[7.2326,51.3533],[7.2297,51.3453],[7.2272,51.3413],[7.2065,51.3309],[7.2046,51.3203],[7.1754,51.3098],[7.1779,51.3069],[7.1805,51.3063],[7.1699,51.2988],[7.1903,51.2951],[7.223,51.3063],[7.2563,51.3169],[7.2644,51.3084],[7.2624,51.3043],[7.2686,51.3037],[7.2941,51.3172],[7.2989,51.3136],[7.3015,51.3149],[7.3004,51.3265],[7.3161,51.3318],[7.3037,51.3382],[7.3148,51.3491],[7.3116,51.3603],[7.2997,51.3663],[7.2978,51.3767],[7.2758,51.37],[7.2675,51.3749]]]}},{"type":"Feature","properties":{"ags":"05962012","name":"Halver","ewz":16284,"dist_km":46.3,"city":false,"warm_m2":9.82,"own_value":true,"m2_median":89,"share_median":0.201,"m2_p25":70,"share_p25":0.256},"geometry":{"type":"Polygon","coordinates":[[[7.5031,51.2225],[7.4965,51.2374],[7.4942,51.2398],[7.4818,51.2332],[7.4528,51.2302],[7.4406,51.2249],[7.4408,51.2188],[7.4377,51.2151],[7.4351,51.2132],[7.4333,51.2144],[7.4302,51.2138],[7.4305,51.209],[7.4278,51.203],[7.419,51.2008],[7.4269,51.1866],[7.424,51.186],[7.4253,51.1838],[7.4272,51.1822],[7.4368,51.1801],[7.4405,51.1714],[7.4556,51.1599],[7.4698,51.1551],[7.4752,51.143],[7.4721,51.1396],[7.4804,51.1413],[7.4927,51.125],[7.5024,51.1304],[7.522,51.1443],[7.5252,51.1469],[7.5416,51.1628],[7.5463,51.1756],[7.5789,51.1893],[7.5779,51.19],[7.5714,51.1987],[7.5578,51.2001],[7.5535,51.2167],[7.5588,51.2205],[7.5542,51.2213],[7.5429,51.2311],[7.5451,51.2271],[7.5031,51.2225]]]}},{"type":"Feature","properties":{"ags":"05962028","name":"Kierspe","ewz":16320,"dist_km":49,"city":false,"warm_m2":9.2,"own_value":true,"m2_median":96,"share_median":0.188,"m2_p25":75,"share_p25":0.24},"geometry":{"type":"Polygon","coordinates":[[[7.6702,51.1559],[7.6458,51.1753],[7.6323,51.1781],[7.6141,51.1724],[7.5868,51.1861],[7.5789,51.1893],[7.5463,51.1756],[7.5416,51.1628],[7.5252,51.1469],[7.522,51.1443],[7.5024,51.1304],[7.5043,51.1167],[7.4962,51.1061],[7.4993,51.1049],[7.5168,51.1007],[7.5821,51.1066],[7.5869,51.1031],[7.5957,51.102],[7.5987,51.1009],[7.5997,51.0998],[7.6022,51.1005],[7.5973,51.1025],[7.6074,51.1142],[7.6357,51.1242],[7.6426,51.1396],[7.6533,51.1487],[7.6702,51.1559]]]}},{"type":"Feature","properties":{"ags":"07131007","name":"Bad Neuenahr-Ahrweiler","ewz":27647,"dist_km":47.5,"city":false,"warm_m2":14.31,"own_value":true,"m2_median":61,"share_median":0.293,"m2_p25":48,"share_p25":0.373},"geometry":{"type":"Polygon","coordinates":[[[7.1813,50.5715],[7.1691,50.5824],[7.1659,50.5795],[7.1533,50.5712],[7.1564,50.5587],[7.1422,50.5576],[7.1275,50.5604],[7.1164,50.5545],[7.1074,50.5514],[7.0884,50.5531],[7.0634,50.5428],[7.0565,50.537],[7.0588,50.5225],[7.0543,50.5107],[7.0594,50.5052],[7.0548,50.502],[7.0543,50.5],[7.074,50.5011],[7.0789,50.491],[7.0675,50.4893],[7.0647,50.4814],[7.0785,50.4792],[7.0936,50.4769],[7.1016,50.4779],[7.1026,50.4822],[7.1248,50.5021],[7.1387,50.5041],[7.1481,50.5122],[7.1575,50.5117],[7.1509,50.513],[7.1649,50.5158],[7.1877,50.5342],[7.2008,50.537],[7.2087,50.5448],[7.1978,50.5568],[7.2038,50.5637],[7.1893,50.5706],[7.1813,50.5715]]]}},{"type":"Feature","properties":{"ags":"07131070","name":"Remagen","ewz":17387,"dist_km":41.1,"city":false,"warm_m2":14.02,"own_value":true,"m2_median":62,"share_median":0.288,"m2_p25":49,"share_p25":0.368},"geometry":{"type":"Polygon","coordinates":[[[7.2107,50.6498],[7.2055,50.649],[7.2034,50.6501],[7.1985,50.6482],[7.1937,50.6377],[7.1898,50.6239],[7.1547,50.6147],[7.1479,50.6003],[7.1651,50.5992],[7.1724,50.5858],[7.1691,50.5824],[7.1813,50.5715],[7.1893,50.5706],[7.2038,50.5637],[7.2082,50.5657],[7.2133,50.5636],[7.232,50.5588],[7.258,50.5561],[7.2713,50.5584],[7.2775,50.5619],[7.2755,50.5654],[7.2652,50.5741],[7.2251,50.5828],[7.2171,50.5866],[7.2106,50.5925],[7.2106,50.5972],[7.2142,50.6034],[7.2114,50.6234],[7.2129,50.6235],[7.2115,50.634],[7.2121,50.6455],[7.2107,50.6498]]]}},{"type":"Feature","properties":{"ags":"07131090","name":"Grafschaft","ewz":10866,"dist_km":42.1,"city":false,"warm_m2":12.55,"own_value":true,"m2_median":70,"share_median":0.258,"m2_p25":55,"share_p25":0.329},"geometry":{"type":"Polygon","coordinates":[[[7.1651,50.5992],[7.1398,50.6006],[7.1118,50.6093],[7.1053,50.5967],[7.1038,50.5913],[7.0951,50.5874],[7.0849,50.5864],[7.0663,50.6007],[7.0492,50.6043],[7.049,50.6032],[7.0353,50.5944],[7.0159,50.577],[6.9981,50.565],[7.0069,50.5471],[7.0056,50.5449],[7.0069,50.5397],[7.0299,50.5401],[7.0427,50.5431],[7.0464,50.5422],[7.058,50.5385],[7.0634,50.5428],[7.0884,50.5531],[7.1074,50.5514],[7.1164,50.5545],[7.1275,50.5604],[7.1422,50.5576],[7.1564,50.5587],[7.1533,50.5712],[7.1659,50.5795],[7.1724,50.5858],[7.1651,50.5992]]]}},{"type":"Feature","properties":{"ags":"07131003","name":"Altenahr","ewz":1490,"dist_km":46.8,"city":false,"warm_m2":11.25,"own_value":true,"m2_median":78,"share_median":0.23,"m2_p25":61,"share_p25":0.294},"geometry":{"type":"Polygon","coordinates":[[[7.0006,50.5462],[6.9947,50.5443],[6.9896,50.5411],[6.9807,50.5275],[6.9447,50.513],[6.9412,50.5115],[6.9428,50.506],[6.9607,50.4986],[6.9782,50.5025],[6.997,50.5002],[7.0074,50.5039],[7.0042,50.5176],[7.0076,50.5291],[7.0181,50.5368],[7.0299,50.5401],[7.0069,50.5397],[7.0056,50.5449],[7.0006,50.5462]]]}},{"type":"Feature","properties":{"ags":"07131011","name":"Berg","ewz":1306,"dist_km":45,"city":false,"warm_m2":11.15,"own_value":true,"m2_median":79,"share_median":0.229,"m2_p25":62,"share_p25":0.292},"geometry":{"type":"Polygon","coordinates":[[[6.9721,50.5559],[6.9565,50.557],[6.9514,50.5634],[6.931,50.5605],[6.922,50.5543],[6.9314,50.5356],[6.9165,50.528],[6.9219,50.5281],[6.9214,50.5132],[6.9232,50.5089],[6.9286,50.511],[6.9373,50.5098],[6.9447,50.513],[6.9807,50.5275],[6.9896,50.5411],[6.99,50.5443],[6.9707,50.5494],[6.9721,50.5559]]]}},{"type":"Feature","properties":{"ags":"07131017","name":"Dernau","ewz":1389,"dist_km":47.1,"city":false,"warm_m2":11.36,"own_value":true,"m2_median":77,"share_median":0.233,"m2_p25":61,"share_p25":0.297},"geometry":{"type":"Polygon","coordinates":[[[7.0464,50.5422],[7.0427,50.5431],[7.0253,50.5389],[7.0326,50.5286],[7.0324,50.5259],[7.0353,50.5248],[7.0359,50.5185],[7.0409,50.5184],[7.0508,50.5053],[7.0585,50.5061],[7.0543,50.5107],[7.0588,50.5225],[7.0565,50.537],[7.058,50.5385],[7.0464,50.5422]]]}},{"type":"Feature","properties":{"ags":"07131036","name":"Kalenborn","ewz":717,"dist_km":43.4,"city":false,"warm_m2":11.14,"own_value":true,"m2_median":79,"share_median":0.229,"m2_p25":62,"share_p25":0.292},"geometry":{"type":"Polygon","coordinates":[[[6.9981,50.565],[6.9836,50.5657],[6.9721,50.5559],[6.9707,50.5494],[6.99,50.5443],[6.9947,50.5443],[7.0006,50.5462],[7.0069,50.5471],[6.9981,50.565]]]}},{"type":"Feature","properties":{"ags":"07132031","name":"Fiersbach","ewz":275,"dist_km":46,"city":false,"warm_m2":9.06,"own_value":true,"m2_median":97,"share_median":0.186,"m2_p25":76,"share_p25":0.237},"geometry":{"type":"Polygon","coordinates":[[[7.5049,50.6931],[7.5037,50.7005],[7.4922,50.7045],[7.4869,50.7141],[7.4851,50.7111],[7.4795,50.7101],[7.4786,50.6962],[7.4975,50.6865],[7.5061,50.6928],[7.5049,50.6931]]]}},{"type":"Feature","properties":{"ags":"07132046","name":"Hasselbach","ewz":334,"dist_km":46.8,"city":false,"warm_m2":11.67,"own_value":true,"m2_median":75,"share_median":0.239,"m2_p25":59,"share_p25":0.305},"geometry":{"type":"Polygon","coordinates":[[[7.5079,50.7304],[7.4798,50.7183],[7.494,50.7175],[7.5188,50.7091],[7.5197,50.707],[7.5316,50.7052],[7.5434,50.7059],[7.5432,50.7088],[7.5414,50.7129],[7.5358,50.7123],[7.5162,50.7291],[7.5079,50.7304]]]}},{"type":"Feature","properties":{"ags":"07132053","name":"Hirz-Maulsbach","ewz":304,"dist_km":46.1,"city":false,"warm_m2":10.13,"own_value":true,"m2_median":87,"share_median":0.208,"m2_p25":68,"share_p25":0.265},"geometry":{"type":"Polygon","coordinates":[[[7.4975,50.6865],[7.4786,50.6962],[7.4795,50.7101],[7.476,50.71],[7.4752,50.6992],[7.4683,50.6917],[7.4577,50.6883],[7.4619,50.6848],[7.4683,50.6722],[7.4847,50.6697],[7.4854,50.668],[7.4887,50.6712],[7.4961,50.6716],[7.4998,50.6734],[7.4941,50.6781],[7.4975,50.6865]]]}},{"type":"Feature","properties":{"ags":"07132062","name":"Kircheib","ewz":536,"dist_km":44.2,"city":false,"warm_m2":9.7,"own_value":true,"m2_median":90,"share_median":0.199,"m2_p25":71,"share_p25":0.254},"geometry":{"type":"Polygon","coordinates":[[[7.4643,50.7186],[7.4565,50.7181],[7.4392,50.7111],[7.4523,50.6929],[7.4577,50.6883],[7.4683,50.6917],[7.4752,50.6992],[7.476,50.71],[7.4851,50.7111],[7.4848,50.7129],[7.4768,50.7174],[7.4683,50.7185],[7.4643,50.7186]]]}},{"type":"Feature","properties":{"ags":"07132094","name":"Rettersen","ewz":362,"dist_km":46.1,"city":false,"warm_m2":10.58,"own_value":true,"m2_median":83,"share_median":0.217,"m2_p25":65,"share_p25":0.276},"geometry":{"type":"Polygon","coordinates":[[[7.5188,50.7091],[7.494,50.7175],[7.4798,50.7183],[7.4768,50.7174],[7.4848,50.7129],[7.4869,50.7141],[7.4922,50.7045],[7.5037,50.7005],[7.5041,50.6988],[7.5172,50.7011],[7.5204,50.7056],[7.5188,50.7091]]]}},{"type":"Feature","properties":{"ags":"07138003","name":"Asbach","ewz":7687,"dist_km":46,"city":false,"warm_m2":12.54,"own_value":true,"m2_median":70,"share_median":0.257,"m2_p25":55,"share_p25":0.328},"geometry":{"type":"Polygon","coordinates":[[[7.4444,50.6913],[7.4229,50.6931],[7.4257,50.6828],[7.3967,50.6754],[7.3786,50.6675],[7.3687,50.6704],[7.3693,50.6725],[7.3654,50.673],[7.3629,50.6712],[7.3713,50.6666],[7.3769,50.6476],[7.3879,50.6437],[7.3907,50.6449],[7.4073,50.6451],[7.4109,50.6433],[7.4386,50.6396],[7.4505,50.6297],[7.45,50.6175],[7.4549,50.6206],[7.4816,50.6255],[7.4742,50.6352],[7.4825,50.6404],[7.4826,50.6482],[7.4815,50.6659],[7.4854,50.668],[7.4847,50.6697],[7.4683,50.6722],[7.4619,50.6848],[7.4523,50.6929],[7.4444,50.6913]]]}},{"type":"Feature","properties":{"ags":"07138077","name":"Windhagen","ewz":4656,"dist_km":43.8,"city":false,"warm_m2":12.17,"own_value":true,"m2_median":72,"share_median":0.25,"m2_p25":57,"share_p25":0.319},"geometry":{"type":"Polygon","coordinates":[[[7.3852,50.6356],[7.3894,50.6412],[7.3879,50.6437],[7.3769,50.6476],[7.3713,50.6666],[7.3629,50.6712],[7.3558,50.6652],[7.359,50.6495],[7.338,50.6422],[7.3226,50.6419],[7.3146,50.6386],[7.3164,50.6351],[7.3152,50.6307],[7.3373,50.6306],[7.3486,50.6256],[7.3603,50.6203],[7.3664,50.6187],[7.3769,50.6228],[7.3852,50.6356]]]}},{"type":"Feature","properties":{"ags":"07138080","name":"Buchholz (Westerwald)","ewz":4801,"dist_km":42,"city":false,"warm_m2":12.48,"own_value":true,"m2_median":70,"share_median":0.257,"m2_p25":55,"share_p25":0.327},"geometry":{"type":"Polygon","coordinates":[[[7.3875,50.7175],[7.374,50.7182],[7.3672,50.7067],[7.3624,50.7011],[7.3571,50.6979],[7.3683,50.6971],[7.3651,50.6876],[7.37,50.678],[7.3687,50.6704],[7.3786,50.6675],[7.3967,50.6754],[7.4257,50.6828],[7.4229,50.6931],[7.4444,50.6913],[7.4523,50.6929],[7.4392,50.7111],[7.4234,50.71],[7.4114,50.7169],[7.3875,50.7175]]]}},{"type":"Feature","properties":{"ags":"07138041","name":"Linz am Rhein","ewz":6417,"dist_km":46.9,"city":false,"warm_m2":12.51,"own_value":true,"m2_median":70,"share_median":0.256,"m2_p25":55,"share_p25":0.327},"geometry":{"type":"Polygon","coordinates":[[[7.3111,50.6171],[7.3041,50.6165],[7.3008,50.6138],[7.2829,50.6085],[7.2782,50.6026],[7.2797,50.5984],[7.2916,50.5892],[7.2965,50.5849],[7.2957,50.5794],[7.2733,50.5753],[7.2701,50.5774],[7.2652,50.5741],[7.2755,50.5654],[7.2787,50.5589],[7.3063,50.5617],[7.3395,50.5746],[7.3296,50.5782],[7.3329,50.5891],[7.336,50.592],[7.3232,50.6004],[7.3304,50.6045],[7.3116,50.6098],[7.3111,50.6171]]]}},{"type":"Feature","properties":{"ags":"07138075","name":"Vettelschoß","ewz":3750,"dist_km":45.2,"city":false,"warm_m2":11.92,"own_value":true,"m2_median":74,"share_median":0.244,"m2_p25":58,"share_p25":0.312},"geometry":{"type":"Polygon","coordinates":[[[7.3603,50.6203],[7.3486,50.6256],[7.3373,50.6306],[7.3299,50.6298],[7.326,50.6236],[7.3104,50.6195],[7.3122,50.6123],[7.3116,50.6098],[7.3317,50.6037],[7.3555,50.6065],[7.3634,50.6128],[7.3664,50.6187],[7.3603,50.6203]]]}},{"type":"Feature","properties":{"ags":"07138501","name":"Kasbach-Ohlenberg","ewz":1441,"dist_km":45.4,"city":false,"warm_m2":11.99,"own_value":true,"m2_median":73,"share_median":0.246,"m2_p25":57,"share_p25":0.313},"geometry":{"type":"Polygon","coordinates":[[[7.2916,50.5892],[7.2797,50.5984],[7.2746,50.5967],[7.2599,50.5948],[7.2485,50.579],[7.2652,50.5741],[7.2701,50.5774],[7.2648,50.582],[7.2792,50.582],[7.2916,50.5892]]]}},{"type":"Feature","properties":{"ags":"07138008","name":"Bruchhausen","ewz":956,"dist_km":43.1,"city":false,"warm_m2":13.16,"own_value":true,"m2_median":67,"share_median":0.27,"m2_p25":52,"share_p25":0.345},"geometry":{"type":"Polygon","coordinates":[[[7.2672,50.6112],[7.2689,50.6146],[7.2422,50.6006],[7.2529,50.5953],[7.2675,50.601],[7.2733,50.5995],[7.2672,50.6112]]]}},{"type":"Feature","properties":{"ags":"07138019","name":"Erpel","ewz":2530,"dist_km":43.7,"city":false,"warm_m2":12.72,"own_value":true,"m2_median":69,"share_median":0.261,"m2_p25":54,"share_p25":0.333},"geometry":{"type":"Polygon","coordinates":[[[7.3299,50.6298],[7.3184,50.63],[7.3137,50.6308],[7.2822,50.6227],[7.2734,50.622],[7.2672,50.6112],[7.2733,50.5995],[7.2675,50.601],[7.2529,50.5953],[7.2422,50.6006],[7.2271,50.5914],[7.2286,50.5887],[7.2229,50.5836],[7.2381,50.5802],[7.2485,50.579],[7.2599,50.5948],[7.2746,50.5967],[7.2782,50.6026],[7.2829,50.6085],[7.3008,50.6138],[7.3041,50.6165],[7.3111,50.6171],[7.3104,50.6195],[7.326,50.6236],[7.3299,50.6298]]]}},{"type":"Feature","properties":{"ags":"07138062","name":"Rheinbreitbach","ewz":4538,"dist_km":40.8,"city":false,"warm_m2":14.39,"own_value":true,"m2_median":61,"share_median":0.296,"m2_p25":48,"share_p25":0.378},"geometry":{"type":"Polygon","coordinates":[[[7.3147,50.6374],[7.2973,50.6318],[7.2663,50.6264],[7.2621,50.6256],[7.2274,50.6269],[7.2157,50.6279],[7.2163,50.6244],[7.2147,50.6234],[7.2114,50.6234],[7.2129,50.6125],[7.2313,50.6113],[7.2642,50.6178],[7.2729,50.6239],[7.3164,50.6351],[7.3147,50.6374]]]}},{"type":"Feature","properties":{"ags":"07138073","name":"Unkel","ewz":5041,"dist_km":42.1,"city":false,"warm_m2":13.7,"own_value":true,"m2_median":64,"share_median":0.282,"m2_p25":50,"share_p25":0.359},"geometry":{"type":"Polygon","coordinates":[[[7.3164,50.6351],[7.2729,50.6239],[7.2642,50.6178],[7.2313,50.6113],[7.2129,50.6125],[7.2142,50.6034],[7.21,50.5947],[7.2124,50.5902],[7.2229,50.5836],[7.2286,50.5887],[7.2271,50.5914],[7.2422,50.6006],[7.2689,50.6146],[7.2734,50.622],[7.2822,50.6227],[7.3152,50.6307],[7.3164,50.6351]]]}}]}